{"type":"FeatureCollection","features":[{"type":"Feature","geometry":{"type":"MultiPolygon","coordinates":[[[[-118.082968,34.237783],[-118.083071,34.237698],[-118.083025,34.237832],[-118.082968,34.237783]]],[[[-118.083668,34.236542],[-118.083971,34.236615],[-118.08395,34.236853],[-118.083828,34.236812],[-118.083668,34.236542]]],[[[-118.093004,34.166459],[-118.093195,34.166571],[-118.093061,34.16673],[-118.09287,34.166618],[-118.093004,34.166459]]],[[[-118.094743,34.166876],[-118.094934,34.166988],[-118.0948,34.167147],[-118.094609,34.167036],[-118.094743,34.166876]]],[[[-118.099096,34.167673],[-118.099287,34.167784],[-118.099153,34.167943],[-118.098962,34.167832],[-118.099096,34.167673]]],[[[-118.096568,34.167705],[-118.096759,34.167816],[-118.096625,34.167976],[-118.096434,34.167864],[-118.096568,34.167705]]],[[[-118.093036,34.168012],[-118.093227,34.168123],[-118.093093,34.168282],[-118.092902,34.168171],[-118.093036,34.168012]]],[[[-118.072443,34.169005],[-118.072635,34.169116],[-118.072501,34.169275],[-118.072309,34.169164],[-118.072443,34.169005]]],[[[-118.100052,34.169557],[-118.100244,34.169669],[-118.10011,34.169828],[-118.099918,34.169716],[-118.100052,34.169557]]],[[[-118.098684,34.170007],[-118.098875,34.170119],[-118.098741,34.170278],[-118.09855,34.170166],[-118.098684,34.170007]]],[[[-118.065513,34.170614],[-118.065705,34.170725],[-118.06557,34.170884],[-118.065379,34.170773],[-118.065513,34.170614]]],[[[-118.076195,34.170567],[-118.076387,34.170679],[-118.076253,34.170838],[-118.076061,34.170726],[-118.076195,34.170567]]],[[[-118.057224,34.171569],[-118.057415,34.171681],[-118.057281,34.17184],[-118.05709,34.171729],[-118.057224,34.171569]]],[[[-118.056117,34.171994],[-118.056309,34.172106],[-118.056175,34.172265],[-118.055983,34.172154],[-118.056117,34.171994]]],[[[-118.075029,34.172294],[-118.07522,34.172405],[-118.075086,34.172564],[-118.074895,34.172453],[-118.075029,34.172294]]],[[[-118.072702,34.172371],[-118.072893,34.172482],[-118.072759,34.172641],[-118.072568,34.17253],[-118.072702,34.172371]]],[[[-118.074663,34.172931],[-118.074854,34.173042],[-118.07472,34.173202],[-118.074529,34.17309],[-118.074663,34.172931]]],[[[-118.074284,34.173201],[-118.074475,34.173312],[-118.074341,34.173471],[-118.074149,34.17336],[-118.074284,34.173201]]],[[[-118.098579,34.175147],[-118.098771,34.175258],[-118.098637,34.175417],[-118.098445,34.175306],[-118.098579,34.175147]]],[[[-118.098805,34.175766],[-118.098996,34.175877],[-118.098862,34.176037],[-118.098671,34.175925],[-118.098805,34.175766]]],[[[-118.136354,34.176514],[-118.136546,34.176626],[-118.136412,34.176785],[-118.13622,34.176673],[-118.136354,34.176514]]],[[[-118.10511,34.184193],[-118.105302,34.184305],[-118.105167,34.184464],[-118.104976,34.184352],[-118.10511,34.184193]]],[[[-118.10515,34.184503],[-118.105342,34.184615],[-118.105208,34.184774],[-118.105016,34.184663],[-118.10515,34.184503]]],[[[-118.105546,34.184615],[-118.105737,34.184726],[-118.105603,34.184885],[-118.105412,34.184774],[-118.105546,34.184615]]],[[[-118.157556,34.185696],[-118.157748,34.185808],[-118.157613,34.185967],[-118.157422,34.185856],[-118.157556,34.185696]]],[[[-118.104684,34.185988],[-118.104876,34.186099],[-118.104741,34.186258],[-118.10455,34.186147],[-118.104684,34.185988]]],[[[-118.157679,34.185983],[-118.157871,34.186094],[-118.157737,34.186254],[-118.157545,34.186142],[-118.157679,34.185983]]],[[[-118.154394,34.186008],[-118.154585,34.18612],[-118.154451,34.186279],[-118.15426,34.186168],[-118.154394,34.186008]]],[[[-118.157203,34.186044],[-118.157395,34.186155],[-118.15726,34.186314],[-118.157069,34.186203],[-118.157203,34.186044]]],[[[-118.159588,34.189165],[-118.15978,34.189277],[-118.159646,34.189436],[-118.159454,34.189324],[-118.159588,34.189165]]],[[[-118.160177,34.191782],[-118.160369,34.191894],[-118.160235,34.192053],[-118.160043,34.191941],[-118.160177,34.191782]]],[[[-118.157177,34.200693],[-118.157369,34.200805],[-118.157234,34.200964],[-118.157043,34.200852],[-118.157177,34.200693]]],[[[-118.099695,34.167389],[-118.099889,34.167524],[-118.099696,34.16774],[-118.09953,34.167603],[-118.099695,34.167389]]],[[[-118.106129,34.183099],[-118.10632,34.183258],[-118.106067,34.183485],[-118.105933,34.183326],[-118.106129,34.183099]]],[[[-118.079062,34.173903],[-118.079321,34.174115],[-118.079222,34.174291],[-118.078935,34.174085],[-118.079062,34.173903]]],[[[-118.095532,34.163281],[-118.095828,34.163474],[-118.095768,34.163661],[-118.095417,34.163485],[-118.095532,34.163281]]],[[[-118.094921,34.164557],[-118.094756,34.164694],[-118.094379,34.164533],[-118.094544,34.164396],[-118.094921,34.164557]]],[[[-118.136867,34.18543],[-118.137051,34.185612],[-118.136701,34.185862],[-118.136602,34.185686],[-118.136867,34.18543]]],[[[-118.07301,34.173339],[-118.073202,34.173498],[-118.072921,34.173821],[-118.072787,34.173662],[-118.07301,34.173339]]],[[[-118.113027,34.184078],[-118.113272,34.183805],[-118.113498,34.183855],[-118.113265,34.184244],[-118.113027,34.184078]]],[[[-118.137935,34.184915],[-118.138127,34.185074],[-118.137812,34.185413],[-118.137678,34.185254],[-118.137935,34.184915]]],[[[-118.153932,34.187333],[-118.154116,34.187515],[-118.15371,34.187813],[-118.153612,34.187637],[-118.153932,34.187333]]],[[[-118.158247,34.185156],[-118.158662,34.185197],[-118.158667,34.18554],[-118.15834,34.185566],[-118.158247,34.185156]]],[[[-118.118316,34.179237],[-118.117856,34.17919],[-118.117795,34.179002],[-118.118253,34.178799],[-118.118316,34.179237]]],[[[-118.09584,34.163894],[-118.095133,34.164105],[-118.095166,34.163806],[-118.095779,34.163706],[-118.09584,34.163894]]],[[[-118.055888,34.167435],[-118.055718,34.167193],[-118.055384,34.167321],[-118.055323,34.167133],[-118.055563,34.166969],[-118.055964,34.167085],[-118.056157,34.167354],[-118.055888,34.167435]]],[[[-118.157086,34.180517],[-118.157086,34.180722],[-118.156591,34.180722],[-118.15626,34.180448],[-118.156425,34.180243],[-118.157086,34.180517]]],[[[-118.156537,34.180969],[-118.156954,34.181057],[-118.156718,34.18166],[-118.156403,34.181266],[-118.156537,34.180969]]],[[[-118.101066,34.166777],[-118.100531,34.166516],[-118.100702,34.166174],[-118.101228,34.166162],[-118.101228,34.166372],[-118.100886,34.166391],[-118.101066,34.166777]]],[[[-118.13544,34.177733],[-118.134772,34.177762],[-118.134649,34.177526],[-118.134904,34.177189],[-118.135423,34.17733],[-118.13544,34.177733]]],[[[-118.160059,34.191381],[-118.159781,34.191151],[-118.159494,34.19121],[-118.15952,34.190901],[-118.159853,34.190842],[-118.160637,34.191313],[-118.160307,34.191723],[-118.159976,34.191586],[-118.160059,34.191381]]],[[[-118.15866,34.186796],[-118.158344,34.187358],[-118.158055,34.187225],[-118.158235,34.186803],[-118.157994,34.186735],[-118.157994,34.186188],[-118.158572,34.185983],[-118.15835,34.186637],[-118.15866,34.186796]]],[[[-118.160411,34.194229],[-118.160133,34.194265],[-118.159836,34.194878],[-118.159646,34.193978],[-118.159811,34.193226],[-118.160389,34.193295],[-118.160411,34.194229]]],[[[-118.136769,34.177959],[-118.135685,34.177911],[-118.135781,34.176758],[-118.136277,34.176758],[-118.13669,34.1771],[-118.136769,34.177959]]],[[[-118.136154,34.17754],[-118.136228,34.177592],[-118.13628,34.1776],[-118.136154,34.17754]]],[[[-118.136583,34.177743],[-118.13644,34.177675],[-118.136456,34.177751],[-118.136583,34.177743]]],[[[-118.157269,34.186021],[-118.156899,34.184339],[-118.156405,34.184412],[-118.156271,34.184253],[-118.156439,34.183981],[-118.157747,34.183728],[-118.157664,34.182293],[-118.157912,34.182225],[-118.158572,34.182498],[-118.158247,34.184064],[-118.158475,34.183923],[-118.158638,34.184085],[-118.158254,34.184849],[-118.157835,34.184863],[-118.157975,34.185575],[-118.157346,34.185593],[-118.157269,34.186021]]],[[[-118.157887,34.184603],[-118.157975,34.184653],[-118.158019,34.184657],[-118.157887,34.184603]]],[[[-118.134884,34.18464],[-118.135121,34.183455],[-118.135699,34.18325],[-118.135699,34.183865],[-118.136029,34.183933],[-118.136277,34.183113],[-118.136937,34.183728],[-118.137433,34.18366],[-118.137928,34.183045],[-118.138589,34.183318],[-118.138568,34.184129],[-118.138045,34.184217],[-118.138011,34.184753],[-118.137681,34.185026],[-118.137543,34.185493],[-118.134884,34.18464]]],[[[-118.157492,34.211395],[-118.157631,34.210627],[-118.157982,34.210469],[-118.15908,34.210647],[-118.15955,34.210522],[-118.159862,34.209953],[-118.159224,34.20933],[-118.159212,34.209007],[-118.159563,34.20891],[-118.159563,34.208601],[-118.159892,34.208419],[-118.159811,34.207946],[-118.160521,34.208016],[-118.16088,34.207704],[-118.160732,34.207472],[-118.16138,34.207525],[-118.161626,34.208416],[-118.161434,34.208834],[-118.16177,34.209169],[-118.161305,34.209378],[-118.161564,34.209507],[-118.161446,34.209826],[-118.161052,34.210117],[-118.160795,34.210052],[-118.160832,34.210369],[-118.160399,34.210576],[-118.160234,34.210944],[-118.159716,34.211016],[-118.160019,34.211165],[-118.159812,34.211316],[-118.159974,34.211457],[-118.159617,34.211481],[-118.159603,34.211807],[-118.158753,34.212402],[-118.157639,34.212129],[-118.157029,34.213176],[-118.1571,34.213459],[-118.157826,34.213193],[-118.157966,34.214285],[-118.157466,34.214166],[-118.156998,34.214473],[-118.156541,34.21447],[-118.156401,34.215231],[-118.156728,34.215529],[-118.156704,34.21584],[-118.154392,34.217106],[-118.155297,34.217281],[-118.155817,34.217695],[-118.156499,34.219057],[-118.155196,34.220297],[-118.153832,34.22066],[-118.153196,34.221102],[-118.152226,34.220867],[-118.150582,34.221615],[-118.14879,34.221573],[-118.145555,34.219902],[-118.144697,34.219904],[-118.143785,34.218357],[-118.141492,34.2171],[-118.137969,34.217498],[-118.13594,34.218081],[-118.134525,34.217317],[-118.133705,34.217201],[-118.132752,34.217668],[-118.134366,34.218704],[-118.135201,34.218593],[-118.134895,34.219618],[-118.133659,34.219368],[-118.132786,34.219769],[-118.131866,34.219499],[-118.130322,34.220155],[-118.130119,34.220844],[-118.128819,34.221471],[-118.1285,34.221342],[-118.128197,34.221529],[-118.127899,34.221055],[-118.127486,34.22088],[-118.127161,34.221035],[-118.127323,34.221243],[-118.127155,34.221932],[-118.126206,34.222522],[-118.125986,34.222184],[-118.124932,34.222637],[-118.124799,34.223018],[-118.124061,34.223339],[-118.12359,34.224248],[-118.12245,34.224522],[-118.121786,34.225189],[-118.120605,34.225056],[-118.121456,34.224333],[-118.120811,34.223568],[-118.120109,34.223572],[-118.119329,34.224213],[-118.118011,34.224109],[-118.118266,34.225225],[-118.117971,34.225296],[-118.117671,34.225033],[-118.117612,34.225807],[-118.116792,34.225803],[-118.117709,34.227275],[-118.117501,34.227568],[-118.117678,34.227881],[-118.117273,34.22813],[-118.116758,34.229107],[-118.117452,34.229511],[-118.117269,34.230181],[-118.116046,34.23053],[-118.115899,34.2312],[-118.116421,34.23132],[-118.116706,34.231049],[-118.117209,34.230995],[-118.117539,34.23128],[-118.117787,34.231047],[-118.120126,34.230559],[-118.120539,34.230726],[-118.12002,34.231344],[-118.120064,34.231715],[-118.119676,34.231774],[-118.120091,34.233014],[-118.11944,34.23405],[-118.119396,34.23477],[-118.118372,34.234379],[-118.117541,34.234649],[-118.116203,34.234222],[-118.115534,34.234335],[-118.115324,34.234159],[-118.112935,34.23405],[-118.111879,34.233517],[-118.111073,34.233586],[-118.110393,34.233225],[-118.109756,34.23329],[-118.106302,34.232147],[-118.105907,34.231529],[-118.104941,34.230817],[-118.104831,34.230104],[-118.103384,34.228573],[-118.103069,34.227254],[-118.102732,34.227068],[-118.102084,34.225709],[-118.100014,34.227032],[-118.099526,34.227004],[-118.099309,34.226622],[-118.098745,34.226766],[-118.098749,34.227133],[-118.099251,34.227567],[-118.098971,34.227748],[-118.09923,34.227968],[-118.099019,34.228254],[-118.098194,34.22833],[-118.098344,34.228796],[-118.096991,34.228625],[-118.096519,34.228985],[-118.097043,34.22936],[-118.097016,34.229642],[-118.096316,34.229731],[-118.095041,34.22932],[-118.094392,34.229549],[-118.094517,34.229868],[-118.095563,34.229878],[-118.09609,34.230682],[-118.09547,34.230733],[-118.094656,34.230225],[-118.095217,34.231389],[-118.094855,34.2313],[-118.095136,34.232159],[-118.094807,34.232232],[-118.094387,34.232847],[-118.094689,34.233555],[-118.094322,34.233824],[-118.093774,34.233668],[-118.093372,34.233788],[-118.093242,34.234163],[-118.092551,34.23427],[-118.091748,34.233603],[-118.092162,34.233216],[-118.092032,34.232788],[-118.090538,34.232499],[-118.089912,34.232886],[-118.089876,34.233224],[-118.089424,34.233281],[-118.089465,34.232854],[-118.089046,34.232284],[-118.088703,34.233869],[-118.088324,34.233701],[-118.088304,34.233367],[-118.087808,34.233251],[-118.086787,34.234253],[-118.086459,34.234224],[-118.085914,34.235333],[-118.086079,34.235436],[-118.085823,34.235607],[-118.086301,34.236019],[-118.08577,34.236111],[-118.085265,34.236507],[-118.084232,34.236461],[-118.083983,34.236102],[-118.083258,34.236181],[-118.082981,34.236565],[-118.082268,34.236629],[-118.08153,34.236472],[-118.080826,34.236015],[-118.079428,34.235974],[-118.078139,34.235104],[-118.077366,34.234867],[-118.076633,34.234957],[-118.076243,34.234421],[-118.075496,34.2342],[-118.074882,34.233218],[-118.075029,34.232852],[-118.074475,34.232519],[-118.074297,34.232031],[-118.071699,34.231497],[-118.070667,34.230239],[-118.070361,34.230235],[-118.070113,34.229848],[-118.06937,34.229729],[-118.069453,34.229314],[-118.068519,34.22873],[-118.067832,34.227802],[-118.068323,34.226744],[-118.067764,34.226445],[-118.066375,34.226216],[-118.065653,34.225732],[-118.065672,34.22537],[-118.064503,34.225008],[-118.064424,34.224671],[-118.062831,34.223545],[-118.062928,34.222688],[-118.062449,34.222412],[-118.06166,34.222503],[-118.060895,34.221572],[-118.060266,34.219927],[-118.059525,34.219658],[-118.059274,34.217714],[-118.059707,34.217605],[-118.059867,34.21713],[-118.061986,34.216664],[-118.063252,34.217091],[-118.063695,34.216926],[-118.062808,34.215748],[-118.062053,34.21331],[-118.061544,34.213281],[-118.061335,34.213746],[-118.060801,34.214121],[-118.059925,34.214028],[-118.059452,34.213645],[-118.058568,34.213996],[-118.058368,34.214229],[-118.058892,34.214978],[-118.058348,34.215152],[-118.058009,34.214973],[-118.056934,34.215813],[-118.056481,34.215846],[-118.055376,34.215179],[-118.054595,34.214991],[-118.055271,34.214176],[-118.056307,34.213737],[-118.056544,34.213315],[-118.058406,34.212896],[-118.058649,34.213004],[-118.059021,34.212642],[-118.058266,34.211735],[-118.055335,34.210566],[-118.053654,34.209082],[-118.052634,34.208534],[-118.051917,34.208442],[-118.051937,34.208063],[-118.050366,34.206202],[-118.050056,34.206331],[-118.049811,34.205713],[-118.049115,34.205151],[-118.048352,34.205105],[-118.048159,34.204699],[-118.047421,34.20417],[-118.046113,34.203787],[-118.046044,34.204129],[-118.045698,34.204165],[-118.045456,34.20358],[-118.043665,34.203256],[-118.043491,34.202827],[-118.042873,34.202818],[-118.042722,34.202422],[-118.037372,34.200877],[-118.037745,34.200739],[-118.0386,34.201023],[-118.038815,34.200131],[-118.039205,34.200018],[-118.039506,34.199219],[-118.039773,34.199156],[-118.039954,34.198394],[-118.039604,34.196556],[-118.03917,34.196015],[-118.037617,34.195422],[-118.03737,34.194747],[-118.035855,34.193568],[-118.034015,34.19127],[-118.032663,34.190482],[-118.032696,34.189601],[-118.032318,34.189243],[-118.031764,34.18882],[-118.030999,34.188687],[-118.02951,34.189107],[-118.02882,34.188168],[-118.02404,34.188082],[-118.023936,34.187747],[-118.024481,34.186986],[-118.023605,34.186149],[-118.023615,34.185212],[-118.020947,34.184626],[-118.019247,34.183701],[-118.018345,34.184102],[-118.016357,34.182983],[-118.015183,34.183182],[-118.014139,34.183634],[-118.013125,34.183438],[-118.013803,34.182938],[-118.015331,34.182408],[-118.015756,34.181175],[-118.017814,34.179238],[-118.017659,34.178623],[-118.01872,34.177966],[-118.02003,34.176554],[-118.019874,34.177459],[-118.020609,34.177697],[-118.021963,34.17694],[-118.022196,34.177278],[-118.02262,34.177367],[-118.022705,34.177215],[-118.024652,34.177187],[-118.026361,34.176117],[-118.027065,34.175168],[-118.028171,34.174544],[-118.02846,34.171554],[-118.029472,34.171913],[-118.029869,34.170867],[-118.030266,34.170658],[-118.031061,34.170957],[-118.031856,34.170957],[-118.032253,34.171285],[-118.032629,34.17232],[-118.032765,34.172425],[-118.032963,34.172225],[-118.033799,34.172371],[-118.033799,34.171702],[-118.03413,34.171224],[-118.036086,34.171348],[-118.036215,34.170932],[-118.03654,34.170854],[-118.036877,34.17087],[-118.036961,34.171169],[-118.036811,34.171384],[-118.036559,34.171535],[-118.036334,34.171773],[-118.036999,34.171979],[-118.036946,34.172264],[-118.037334,34.172404],[-118.037833,34.172292],[-118.037928,34.171702],[-118.038671,34.17095],[-118.039332,34.171497],[-118.040653,34.171634],[-118.041727,34.172727],[-118.042092,34.173683],[-118.042977,34.17428],[-118.042677,34.176167],[-118.043126,34.176243],[-118.043435,34.176028],[-118.043378,34.17546],[-118.043874,34.174504],[-118.044369,34.17423],[-118.045135,34.17471],[-118.046199,34.173925],[-118.045622,34.172911],[-118.045808,34.17253],[-118.046101,34.172269],[-118.046956,34.172252],[-118.047505,34.171816],[-118.046788,34.171838],[-118.046268,34.172112],[-118.046186,34.170199],[-118.047342,34.169789],[-118.050315,34.17054],[-118.050893,34.171019],[-118.050447,34.172014],[-118.051323,34.172335],[-118.051634,34.172107],[-118.051371,34.171867],[-118.051622,34.171336],[-118.052861,34.171129],[-118.053077,34.171384],[-118.053311,34.171195],[-118.053914,34.171507],[-118.054088,34.171873],[-118.054254,34.172826],[-118.05393,34.173709],[-118.054153,34.174071],[-118.055466,34.174663],[-118.057461,34.174994],[-118.058561,34.174608],[-118.059161,34.173008],[-118.059529,34.173155],[-118.059424,34.173893],[-118.060632,34.173919],[-118.061084,34.171968],[-118.061975,34.171],[-118.063066,34.171245],[-118.063643,34.17227],[-118.064637,34.172727],[-118.065093,34.173255],[-118.065852,34.173287],[-118.065622,34.172913],[-118.065906,34.172547],[-118.067803,34.173512],[-118.068236,34.173503],[-118.068069,34.173205],[-118.068481,34.172044],[-118.070531,34.1721],[-118.070478,34.170944],[-118.07005,34.170472],[-118.07005,34.169994],[-118.070876,34.169515],[-118.071408,34.170105],[-118.071634,34.170021],[-118.07193,34.170259],[-118.071065,34.171335],[-118.071071,34.172588],[-118.070474,34.173268],[-118.070031,34.174524],[-118.070825,34.174023],[-118.071545,34.17392],[-118.071055,34.173809],[-118.071182,34.173583],[-118.071795,34.173741],[-118.071681,34.174022],[-118.07261,34.173684],[-118.073285,34.174056],[-118.073511,34.174006],[-118.073388,34.174258],[-118.074047,34.174747],[-118.074838,34.1741],[-118.074859,34.173565],[-118.075517,34.172369],[-118.075287,34.172011],[-118.075018,34.172258],[-118.074806,34.172176],[-118.075163,34.17182],[-118.075005,34.171292],[-118.075335,34.171292],[-118.075809,34.17188],[-118.077885,34.168814],[-118.079226,34.168006],[-118.080279,34.166585],[-118.080712,34.166898],[-118.080252,34.167936],[-118.080067,34.169553],[-118.079611,34.170445],[-118.079363,34.170745],[-118.07733,34.171348],[-118.076377,34.171949],[-118.076174,34.172475],[-118.076453,34.172904],[-118.077836,34.173755],[-118.077705,34.174663],[-118.076919,34.175854],[-118.076543,34.17699],[-118.076495,34.17791],[-118.079633,34.181746],[-118.079568,34.182655],[-118.079829,34.183072],[-118.080992,34.18337],[-118.082437,34.182948],[-118.084051,34.183464],[-118.08464,34.182276],[-118.085083,34.182641],[-118.085945,34.182791],[-118.087297,34.181137],[-118.0873,34.180532],[-118.087913,34.180068],[-118.088626,34.180008],[-118.092446,34.178035],[-118.092151,34.177721],[-118.093488,34.176131],[-118.093315,34.175389],[-118.092363,34.175223],[-118.092605,34.175079],[-118.092508,34.174719],[-118.093194,34.174252],[-118.092131,34.172503],[-118.091167,34.172019],[-118.090525,34.17266],[-118.089041,34.173233],[-118.088217,34.17295],[-118.086412,34.173219],[-118.085618,34.173071],[-118.086329,34.172233],[-118.086292,34.17185],[-118.086791,34.171797],[-118.087356,34.171233],[-118.086107,34.168946],[-118.084061,34.167086],[-118.082472,34.164173],[-118.081866,34.163789],[-118.081538,34.162128],[-118.081717,34.161945],[-118.085347,34.161892],[-118.085565,34.162838],[-118.085313,34.162909],[-118.082073,34.162505],[-118.083674,34.164996],[-118.08825,34.168681],[-118.088601,34.16983],[-118.089192,34.169519],[-118.090068,34.169515],[-118.092275,34.16853],[-118.094348,34.16868],[-118.094989,34.167982],[-118.095754,34.167918],[-118.095853,34.167696],[-118.095987,34.167937],[-118.096828,34.16801],[-118.097141,34.167792],[-118.097126,34.167313],[-118.095812,34.167407],[-118.095381,34.167012],[-118.096322,34.166915],[-118.096471,34.166613],[-118.096227,34.166525],[-118.096202,34.166155],[-118.096704,34.165807],[-118.097946,34.166862],[-118.098061,34.167273],[-118.097798,34.167655],[-118.096311,34.169174],[-118.096475,34.169242],[-118.096276,34.169765],[-118.096914,34.170301],[-118.09697,34.169515],[-118.097218,34.16931],[-118.098292,34.16972],[-118.097962,34.170959],[-118.098199,34.172117],[-118.097503,34.173823],[-118.098428,34.17628],[-118.098046,34.179586],[-118.096786,34.18102],[-118.097385,34.181301],[-118.099283,34.183307],[-118.10055,34.184179],[-118.101283,34.183886],[-118.101405,34.183638],[-118.10215,34.184354],[-118.102596,34.184046],[-118.102492,34.183503],[-118.102762,34.183484],[-118.102899,34.184673],[-118.103294,34.184946],[-118.10359,34.184783],[-118.103755,34.184921],[-118.103017,34.185742],[-118.102859,34.187583],[-118.103528,34.188349],[-118.103907,34.187896],[-118.104733,34.188238],[-118.104975,34.188973],[-118.105284,34.189041],[-118.105118,34.189178],[-118.104954,34.189026],[-118.104831,34.189534],[-118.105495,34.189592],[-118.105465,34.190475],[-118.107045,34.189673],[-118.106856,34.189455],[-118.107375,34.189195],[-118.108201,34.190493],[-118.109522,34.191108],[-118.110513,34.190493],[-118.110265,34.189741],[-118.110926,34.189468],[-118.112082,34.190083],[-118.112931,34.19013],[-118.112346,34.189636],[-118.112319,34.18834],[-118.111917,34.18776],[-118.112412,34.187008],[-118.113721,34.18696],[-118.113355,34.186752],[-118.113073,34.18571],[-118.113756,34.185422],[-118.113814,34.185194],[-118.114267,34.185384],[-118.114282,34.185003],[-118.113981,34.184958],[-118.113816,34.183728],[-118.114311,34.181883],[-118.114724,34.1812],[-118.116128,34.181542],[-118.116259,34.181795],[-118.117472,34.180723],[-118.117872,34.179622],[-118.118548,34.180186],[-118.11808,34.180431],[-118.117715,34.181164],[-118.117586,34.183676],[-118.117161,34.181709],[-118.116531,34.182082],[-118.116379,34.182429],[-118.116631,34.182884],[-118.116951,34.182902],[-118.116629,34.183284],[-118.118506,34.185245],[-118.118828,34.185439],[-118.119277,34.185232],[-118.120578,34.185327],[-118.120794,34.185505],[-118.121248,34.185368],[-118.121908,34.182908],[-118.122899,34.182635],[-118.124716,34.182908],[-118.124862,34.183269],[-118.125343,34.182974],[-118.125155,34.183777],[-118.124597,34.184573],[-118.125046,34.185026],[-118.126202,34.185436],[-118.126383,34.185167],[-118.126556,34.185369],[-118.126881,34.185307],[-118.126037,34.184958],[-118.12612,34.184207],[-118.126533,34.183592],[-118.127972,34.183235],[-118.127596,34.182802],[-118.126086,34.182683],[-118.125709,34.182466],[-118.125099,34.182602],[-118.124972,34.182266],[-118.125922,34.18213],[-118.125294,34.181678],[-118.125294,34.181405],[-118.126533,34.1812],[-118.126946,34.182293],[-118.127338,34.182393],[-118.127276,34.181678],[-118.127854,34.18038],[-118.128102,34.17997],[-118.128868,34.17996],[-118.128969,34.17961],[-118.12868,34.179423],[-118.128432,34.178603],[-118.129671,34.178535],[-118.130001,34.178193],[-118.130414,34.178262],[-118.130579,34.178467],[-118.130369,34.178976],[-118.131325,34.179253],[-118.131556,34.179669],[-118.131233,34.179865],[-118.130415,34.179769],[-118.129818,34.180107],[-118.130496,34.180312],[-118.131322,34.180312],[-118.132891,34.179765],[-118.133219,34.180263],[-118.133304,34.179697],[-118.133634,34.179423],[-118.133387,34.179013],[-118.133799,34.178467],[-118.134295,34.178603],[-118.134543,34.179218],[-118.134873,34.179287],[-118.134608,34.1799],[-118.134837,34.180173],[-118.135049,34.180243],[-118.135368,34.179355],[-118.135781,34.179355],[-118.136029,34.180585],[-118.13702,34.181337],[-118.136928,34.182335],[-118.13567,34.18293],[-118.135498,34.182613],[-118.135651,34.182293],[-118.135127,34.18183],[-118.134111,34.182328],[-118.132836,34.182388],[-118.13256,34.183619],[-118.132341,34.183814],[-118.131987,34.18373],[-118.133221,34.184138],[-118.133469,34.183728],[-118.134047,34.183728],[-118.134302,34.185373],[-118.135286,34.186256],[-118.135064,34.186823],[-118.135266,34.187469],[-118.135699,34.18735],[-118.137014,34.189076],[-118.137515,34.18899],[-118.13773,34.189256],[-118.138043,34.189045],[-118.137268,34.188648],[-118.137433,34.188306],[-118.137928,34.18817],[-118.138671,34.188716],[-118.139336,34.188584],[-118.139755,34.188069],[-118.139615,34.187863],[-118.139881,34.18784],[-118.140342,34.187178],[-118.140488,34.186188],[-118.142682,34.186725],[-118.142965,34.186592],[-118.143131,34.18571],[-118.143378,34.185915],[-118.143626,34.185573],[-118.144039,34.185778],[-118.143754,34.187088],[-118.146103,34.187828],[-118.146691,34.187925],[-118.147255,34.187571],[-118.148136,34.18752],[-118.148809,34.187049],[-118.149209,34.187439],[-118.149737,34.187076],[-118.149902,34.187213],[-118.14973,34.187747],[-118.150433,34.187638],[-118.151198,34.186699],[-118.150988,34.185463],[-118.151278,34.185251],[-118.151223,34.184685],[-118.151714,34.184814],[-118.152261,34.184472],[-118.152462,34.18284],[-118.153948,34.182977],[-118.154514,34.181858],[-118.154278,34.181542],[-118.154444,34.180722],[-118.155352,34.180517],[-118.15589,34.181403],[-118.155711,34.182172],[-118.156186,34.182917],[-118.156155,34.183316],[-118.155827,34.18344],[-118.155383,34.182594],[-118.155055,34.182818],[-118.155187,34.185231],[-118.154822,34.185345],[-118.155081,34.185597],[-118.154902,34.185795],[-118.154546,34.185795],[-118.153862,34.185308],[-118.152676,34.185583],[-118.152528,34.186052],[-118.152953,34.186451],[-118.153205,34.185915],[-118.153783,34.185983],[-118.154031,34.187008],[-118.15312,34.187778],[-118.152469,34.187335],[-118.152178,34.188356],[-118.153122,34.18858],[-118.154278,34.188375],[-118.154526,34.187281],[-118.156387,34.187419],[-118.156673,34.18653],[-118.157251,34.186871],[-118.157251,34.187281],[-118.15849,34.187555],[-118.15915,34.186735],[-118.159398,34.186735],[-118.159427,34.187812],[-118.15968,34.188041],[-118.158085,34.190882],[-118.158464,34.191117],[-118.158,34.192204],[-118.158088,34.192695],[-118.158766,34.193382],[-118.158705,34.193848],[-118.158171,34.194509],[-118.158815,34.195977],[-118.158726,34.196344],[-118.157987,34.196465],[-118.158107,34.196987],[-118.158655,34.196848],[-118.15882,34.197189],[-118.159079,34.197937],[-118.158753,34.19845],[-118.159528,34.199928],[-118.159645,34.200658],[-118.158851,34.201684],[-118.158021,34.201803],[-118.158146,34.201552],[-118.157641,34.200146],[-118.156981,34.198952],[-118.1561,34.198704],[-118.156407,34.201629],[-118.157023,34.202178],[-118.156979,34.202398],[-118.156187,34.202395],[-118.155768,34.202697],[-118.157579,34.203011],[-118.157912,34.202383],[-118.158407,34.202246],[-118.158738,34.202656],[-118.158863,34.203548],[-118.159323,34.203457],[-118.159398,34.202178],[-118.160224,34.202314],[-118.160637,34.202656],[-118.160589,34.20309],[-118.161139,34.202104],[-118.160802,34.201631],[-118.160885,34.201289],[-118.16138,34.201153],[-118.161967,34.201795],[-118.16207,34.202965],[-118.160985,34.203148],[-118.161114,34.204109],[-118.160884,34.204667],[-118.158671,34.204742],[-118.158141,34.204972],[-118.158544,34.205716],[-118.15882,34.205526],[-118.159233,34.205799],[-118.159266,34.206497],[-118.15887,34.207111],[-118.156767,34.207977],[-118.157003,34.20887],[-118.157465,34.209415],[-118.157499,34.210651],[-118.156706,34.210746],[-118.157492,34.211395]]]]},"properties":{"name":"Eaton Fire (2025) perimeter"}}]}