{"type":"FeatureCollection","features":[{"type":"Feature","geometry":{"type":"Polygon","coordinates":[[[-117.647199,34.381106],[-117.64655,34.380442],[-117.645953,34.380482],[-117.645084,34.380016],[-117.644707,34.380211],[-117.644477,34.380053],[-117.644414,34.380295],[-117.644139,34.380051],[-117.644252,34.378889],[-117.644596,34.378292],[-117.64441,34.37801],[-117.642055,34.378178],[-117.641452,34.37854],[-117.641091,34.379133],[-117.640095,34.379301],[-117.640069,34.379642],[-117.639968,34.379405],[-117.639446,34.379414],[-117.638547,34.38022],[-117.636873,34.379717],[-117.636152,34.37991],[-117.635868,34.380244],[-117.635587,34.379726],[-117.635212,34.38024],[-117.634574,34.379951],[-117.633998,34.379219],[-117.634008,34.378832],[-117.634945,34.378644],[-117.634917,34.378296],[-117.636014,34.377177],[-117.636585,34.377403],[-117.636532,34.377702],[-117.637196,34.377618],[-117.636841,34.377064],[-117.636913,34.376519],[-117.637275,34.376649],[-117.63748,34.377209],[-117.637986,34.376979],[-117.637787,34.376644],[-117.637994,34.376228],[-117.638677,34.376346],[-117.639277,34.376109],[-117.640273,34.3767],[-117.640876,34.376409],[-117.641337,34.376506],[-117.64175,34.375947],[-117.642261,34.376063],[-117.641781,34.375677],[-117.641115,34.375787],[-117.641169,34.375307],[-117.641538,34.375286],[-117.640181,34.373849],[-117.638232,34.37344],[-117.637711,34.373101],[-117.636876,34.373095],[-117.636558,34.37275],[-117.636947,34.371992],[-117.637496,34.371903],[-117.63778,34.371041],[-117.636701,34.371626],[-117.636362,34.372047],[-117.635661,34.370898],[-117.635102,34.371758],[-117.634823,34.37168],[-117.634678,34.371142],[-117.634183,34.372435],[-117.634241,34.370721],[-117.634425,34.37059],[-117.634763,34.370752],[-117.635298,34.370064],[-117.634042,34.370334],[-117.633827,34.370951],[-117.633265,34.371014],[-117.633615,34.370005],[-117.633442,34.369285],[-117.634473,34.369253],[-117.634637,34.369013],[-117.63477,34.36947],[-117.635437,34.369456],[-117.635804,34.36921],[-117.636448,34.369608],[-117.636962,34.369012],[-117.636916,34.368217],[-117.637432,34.367573],[-117.637956,34.36812],[-117.638254,34.367997],[-117.638121,34.367516],[-117.638358,34.366833],[-117.638787,34.366454],[-117.639513,34.36653],[-117.639811,34.366815],[-117.640566,34.366835],[-117.640666,34.366459],[-117.64126,34.366396],[-117.641259,34.36607],[-117.642372,34.365863],[-117.642421,34.365431],[-117.642784,34.365433],[-117.642845,34.366291],[-117.643601,34.366226],[-117.643719,34.366925],[-117.644108,34.366661],[-117.644556,34.366904],[-117.644743,34.36571],[-117.646217,34.365144],[-117.64647,34.365917],[-117.646025,34.366862],[-117.646456,34.367649],[-117.647071,34.367963],[-117.648343,34.367841],[-117.649088,34.366501],[-117.650184,34.366693],[-117.651414,34.366324],[-117.653204,34.366331],[-117.65375,34.365879],[-117.654598,34.365984],[-117.656063,34.366758],[-117.656411,34.365869],[-117.65593,34.365757],[-117.655933,34.365564],[-117.655563,34.365529],[-117.655524,34.365699],[-117.65507,34.36529],[-117.654807,34.365345],[-117.655307,34.365113],[-117.655328,34.364622],[-117.654985,34.364907],[-117.654885,34.364337],[-117.654013,34.364166],[-117.654077,34.363903],[-117.65319,34.363013],[-117.653615,34.362041],[-117.654025,34.362231],[-117.654441,34.361956],[-117.654526,34.362156],[-117.655082,34.362166],[-117.654985,34.361896],[-117.655331,34.361848],[-117.655308,34.361517],[-117.656349,34.361271],[-117.655388,34.360981],[-117.655382,34.361147],[-117.654993,34.361146],[-117.654608,34.360868],[-117.655596,34.359981],[-117.65564,34.359764],[-117.65517,34.359681],[-117.65548,34.359573],[-117.655518,34.35926],[-117.655287,34.359349],[-117.654563,34.358896],[-117.654067,34.359064],[-117.653419,34.358697],[-117.65303,34.359075],[-117.653205,34.359161],[-117.65311,34.359377],[-117.652772,34.358938],[-117.651974,34.359329],[-117.651232,34.359148],[-117.650876,34.359467],[-117.65119,34.359732],[-117.651144,34.360846],[-117.650919,34.36052],[-117.650614,34.360494],[-117.650044,34.361592],[-117.649398,34.362043],[-117.648441,34.36222],[-117.647661,34.361574],[-117.646994,34.361551],[-117.645926,34.361104],[-117.645898,34.360921],[-117.645158,34.360941],[-117.643362,34.359797],[-117.643552,34.359376],[-117.642962,34.359261],[-117.64335,34.358712],[-117.642591,34.358094],[-117.642815,34.358004],[-117.642825,34.357565],[-117.642386,34.357772],[-117.642145,34.357416],[-117.642576,34.356951],[-117.642337,34.356765],[-117.642588,34.356135],[-117.644245,34.355857],[-117.644105,34.355427],[-117.644511,34.355138],[-117.644448,34.354933],[-117.643769,34.355101],[-117.643615,34.354649],[-117.644789,34.35366],[-117.644918,34.354099],[-117.645908,34.353888],[-117.64489,34.352951],[-117.644126,34.353034],[-117.644145,34.352752],[-117.645044,34.352267],[-117.644802,34.351968],[-117.645159,34.351783],[-117.64523,34.351325],[-117.64565,34.35105],[-117.646156,34.351058],[-117.64592,34.350769],[-117.646776,34.351264],[-117.646427,34.350383],[-117.646717,34.349917],[-117.646511,34.34889],[-117.647241,34.348126],[-117.648266,34.348062],[-117.6481,34.347687],[-117.647341,34.347719],[-117.645658,34.347161],[-117.64511,34.348008],[-117.644559,34.34824],[-117.644223,34.348146],[-117.644133,34.348322],[-117.643968,34.348132],[-117.643573,34.348249],[-117.6437,34.348965],[-117.642825,34.34945],[-117.642695,34.350371],[-117.641671,34.34989],[-117.640812,34.350383],[-117.640521,34.350915],[-117.640692,34.351388],[-117.640193,34.351496],[-117.640117,34.351724],[-117.640371,34.351706],[-117.640469,34.352769],[-117.640236,34.352985],[-117.638458,34.353107],[-117.63789,34.353872],[-117.637329,34.353812],[-117.637145,34.353549],[-117.637082,34.352572],[-117.63634,34.351607],[-117.636315,34.351257],[-117.6369,34.350712],[-117.636528,34.350305],[-117.637107,34.350477],[-117.637445,34.350272],[-117.636526,34.349531],[-117.636472,34.349164],[-117.637026,34.348922],[-117.637482,34.348282],[-117.638358,34.348118],[-117.637683,34.348026],[-117.636699,34.347442],[-117.636269,34.346845],[-117.635147,34.347641],[-117.635157,34.348015],[-117.634619,34.348495],[-117.634009,34.348195],[-117.633399,34.349187],[-117.631998,34.34946],[-117.632155,34.348815],[-117.632814,34.348262],[-117.632574,34.347567],[-117.63182,34.348176],[-117.631605,34.347779],[-117.630971,34.348321],[-117.630794,34.347961],[-117.630606,34.348128],[-117.630181,34.34804],[-117.630326,34.347399],[-117.630072,34.34685],[-117.63111,34.345452],[-117.631509,34.34541],[-117.631508,34.34512],[-117.63133,34.34478],[-117.630891,34.344675],[-117.630642,34.34496],[-117.630188,34.345015],[-117.630055,34.344547],[-117.629781,34.344428],[-117.629898,34.343413],[-117.630178,34.343121],[-117.629777,34.342624],[-117.630102,34.341746],[-117.630404,34.341805],[-117.630466,34.342187],[-117.63055,34.341617],[-117.630258,34.341052],[-117.62942,34.340665],[-117.629405,34.34022],[-117.628758,34.340049],[-117.629455,34.339751],[-117.629971,34.339081],[-117.63008,34.338871],[-117.629757,34.338665],[-117.630355,34.337639],[-117.629266,34.337224],[-117.628949,34.336645],[-117.629384,34.33663],[-117.62943,34.33627],[-117.629639,34.336345],[-117.629612,34.336154],[-117.629951,34.336051],[-117.631281,34.336038],[-117.631816,34.336342],[-117.632117,34.335795],[-117.632065,34.335144],[-117.632513,34.334499],[-117.632947,34.33444],[-117.632615,34.334012],[-117.632407,34.334195],[-117.632001,34.333986],[-117.631947,34.333379],[-117.63157,34.333096],[-117.630724,34.333003],[-117.630123,34.332512],[-117.62915,34.332426],[-117.628903,34.332607],[-117.628633,34.33227],[-117.628218,34.332585],[-117.627953,34.331581],[-117.627469,34.331511],[-117.62743,34.331328],[-117.627196,34.331547],[-117.62699,34.331181],[-117.627575,34.33049],[-117.625703,34.330418],[-117.625615,34.329744],[-117.625374,34.329995],[-117.624565,34.329246],[-117.623347,34.329223],[-117.622257,34.328548],[-117.621333,34.328532],[-117.621663,34.328184],[-117.621338,34.327841],[-117.621784,34.327844],[-117.622019,34.327511],[-117.622001,34.326559],[-117.622536,34.325745],[-117.621808,34.325774],[-117.621018,34.327328],[-117.620773,34.327239],[-117.620624,34.32757],[-117.620406,34.327533],[-117.619451,34.326666],[-117.619542,34.325707],[-117.619003,34.325237],[-117.618984,34.324804],[-117.619282,34.324508],[-117.61908,34.323852],[-117.619263,34.323222],[-117.619679,34.32295],[-117.619831,34.323076],[-117.620578,34.322884],[-117.620851,34.323203],[-117.621246,34.323124],[-117.621207,34.322855],[-117.6219,34.322543],[-117.622109,34.322204],[-117.622563,34.322966],[-117.622731,34.324347],[-117.623049,34.323669],[-117.623341,34.323607],[-117.623592,34.323877],[-117.623775,34.323447],[-117.624142,34.323375],[-117.624732,34.323878],[-117.625228,34.323419],[-117.625944,34.323478],[-117.6263,34.324121],[-117.6272,34.324078],[-117.627763,34.324345],[-117.628443,34.325094],[-117.628808,34.324981],[-117.630152,34.325854],[-117.630576,34.325734],[-117.630625,34.325282],[-117.631145,34.325479],[-117.631326,34.324515],[-117.632069,34.324269],[-117.63197,34.323971],[-117.632486,34.3235],[-117.633003,34.323588],[-117.633151,34.324052],[-117.634232,34.323358],[-117.634125,34.323059],[-117.634494,34.323233],[-117.635382,34.323134],[-117.636948,34.322508],[-117.637573,34.3227],[-117.638242,34.322499],[-117.638783,34.322215],[-117.638567,34.322169],[-117.638618,34.321889],[-117.639079,34.321478],[-117.639514,34.321759],[-117.640064,34.321818],[-117.640284,34.321644],[-117.640732,34.322099],[-117.641263,34.322228],[-117.641573,34.322067],[-117.641932,34.322507],[-117.641477,34.323164],[-117.641699,34.323365],[-117.643083,34.323907],[-117.643692,34.324609],[-117.644819,34.324788],[-117.644601,34.324059],[-117.644168,34.323705],[-117.644671,34.323222],[-117.645455,34.323506],[-117.645779,34.323315],[-117.64623,34.322804],[-117.646059,34.322114],[-117.646511,34.321665],[-117.648086,34.322427],[-117.648531,34.322202],[-117.649465,34.322204],[-117.650429,34.323017],[-117.651371,34.321544],[-117.65229,34.321467],[-117.653252,34.32115],[-117.653463,34.320816],[-117.653849,34.320837],[-117.6543,34.319838],[-117.654623,34.319983],[-117.654622,34.320649],[-117.655127,34.32022],[-117.655351,34.320227],[-117.655435,34.320516],[-117.655667,34.319925],[-117.656323,34.320027],[-117.65596,34.319468],[-117.656196,34.318847],[-117.657041,34.318941],[-117.657134,34.318343],[-117.657418,34.318343],[-117.65814,34.318998],[-117.658361,34.318577],[-117.658911,34.31851],[-117.659074,34.317647],[-117.65829,34.31753],[-117.657411,34.317798],[-117.656322,34.317599],[-117.65402,34.318117],[-117.653834,34.31837],[-117.653336,34.318216],[-117.652502,34.318331],[-117.652469,34.317671],[-117.652704,34.317574],[-117.652868,34.317785],[-117.6533,34.317529],[-117.652932,34.317057],[-117.653071,34.316863],[-117.652635,34.316635],[-117.65287,34.316316],[-117.654383,34.316242],[-117.655391,34.315532],[-117.655199,34.315119],[-117.655387,34.314418],[-117.65577,34.314056],[-117.656299,34.313853],[-117.656671,34.313997],[-117.6571,34.31365],[-117.657023,34.314475],[-117.656701,34.314878],[-117.658011,34.315798],[-117.660786,34.315891],[-117.661113,34.315732],[-117.661455,34.315901],[-117.661499,34.315473],[-117.661141,34.315147],[-117.661621,34.314888],[-117.661805,34.314988],[-117.661993,34.314372],[-117.663102,34.314359],[-117.663663,34.31468],[-117.663345,34.315431],[-117.663842,34.315604],[-117.663802,34.316089],[-117.663239,34.315818],[-117.662381,34.316672],[-117.662489,34.317015],[-117.662672,34.316896],[-117.663201,34.317173],[-117.663153,34.317646],[-117.663675,34.317703],[-117.663726,34.317302],[-117.664374,34.317555],[-117.665022,34.316606],[-117.665685,34.316261],[-117.665981,34.315814],[-117.66629,34.315838],[-117.666262,34.316228],[-117.66662,34.316228],[-117.667038,34.316047],[-117.667612,34.315034],[-117.668416,34.314872],[-117.668173,34.314428],[-117.666208,34.314351],[-117.665029,34.313681],[-117.666006,34.311916],[-117.665637,34.311221],[-117.666843,34.311002],[-117.667848,34.31027],[-117.668282,34.310459],[-117.667877,34.310882],[-117.668,34.311219],[-117.667725,34.311621],[-117.667918,34.312275],[-117.668284,34.311854],[-117.668666,34.311879],[-117.668902,34.310725],[-117.669653,34.310379],[-117.66839,34.309351],[-117.668802,34.308588],[-117.668313,34.308285],[-117.666144,34.308662],[-117.666058,34.30815],[-117.66474,34.307751],[-117.664038,34.306877],[-117.662458,34.307498],[-117.662212,34.307851],[-117.662554,34.308561],[-117.661612,34.307877],[-117.66034,34.308199],[-117.660281,34.307593],[-117.659443,34.307705],[-117.65861,34.308693],[-117.657693,34.30876],[-117.656922,34.309159],[-117.656223,34.309044],[-117.656457,34.309373],[-117.656332,34.309594],[-117.657375,34.309273],[-117.657485,34.309578],[-117.658313,34.309585],[-117.658362,34.309806],[-117.658656,34.309738],[-117.658861,34.309932],[-117.659206,34.309804],[-117.659941,34.310437],[-117.659799,34.31122],[-117.658783,34.311337],[-117.658359,34.312029],[-117.656312,34.312076],[-117.656241,34.311711],[-117.657321,34.31176],[-117.657593,34.311562],[-117.657428,34.310905],[-117.65655,34.310796],[-117.656474,34.311261],[-117.65581,34.311114],[-117.655508,34.311618],[-117.653968,34.311286],[-117.652523,34.311251],[-117.652036,34.311782],[-117.651426,34.311808],[-117.651247,34.311127],[-117.650936,34.310956],[-117.651398,34.310759],[-117.651093,34.310231],[-117.650033,34.310223],[-117.64981,34.310933],[-117.649397,34.310466],[-117.649328,34.311361],[-117.648845,34.311295],[-117.649153,34.310454],[-117.648256,34.310659],[-117.648377,34.310427],[-117.648082,34.310113],[-117.648423,34.309588],[-117.648787,34.309676],[-117.649461,34.309322],[-117.649094,34.30859],[-117.650679,34.308194],[-117.650891,34.307903],[-117.650454,34.307539],[-117.648747,34.307412],[-117.64866,34.307112],[-117.647888,34.306864],[-117.647838,34.306572],[-117.646634,34.306741],[-117.645388,34.306187],[-117.645348,34.305594],[-117.646186,34.305325],[-117.646721,34.30495],[-117.646536,34.304812],[-117.645352,34.305281],[-117.644463,34.305347],[-117.644084,34.305734],[-117.643968,34.305442],[-117.643533,34.305575],[-117.642273,34.305395],[-117.641753,34.30505],[-117.641594,34.304623],[-117.641823,34.304173],[-117.641588,34.304383],[-117.640825,34.304212],[-117.64066,34.303967],[-117.640823,34.303684],[-117.640471,34.303449],[-117.640596,34.303067],[-117.640037,34.303317],[-117.63927,34.303268],[-117.641685,34.301795],[-117.642112,34.301043],[-117.642492,34.301041],[-117.642609,34.301611],[-117.643604,34.301304],[-117.645022,34.301419],[-117.645383,34.302097],[-117.645611,34.301598],[-117.646103,34.301572],[-117.646227,34.302138],[-117.646922,34.302292],[-117.647323,34.302058],[-117.64721,34.301245],[-117.647504,34.300884],[-117.647805,34.301421],[-117.64776,34.301919],[-117.648244,34.301023],[-117.649042,34.300725],[-117.649628,34.300789],[-117.649964,34.300469],[-117.650757,34.301388],[-117.650942,34.300868],[-117.650386,34.300094],[-117.650835,34.299701],[-117.65105,34.29862],[-117.65052,34.29823],[-117.64973,34.298369],[-117.648639,34.297396],[-117.648686,34.296952],[-117.649847,34.296848],[-117.650262,34.296345],[-117.651685,34.296381],[-117.652505,34.297116],[-117.653278,34.297248],[-117.653727,34.297833],[-117.654403,34.297889],[-117.654918,34.297646],[-117.655534,34.297783],[-117.656121,34.29722],[-117.657337,34.298099],[-117.658181,34.297053],[-117.658035,34.296649],[-117.658289,34.296665],[-117.658644,34.296132],[-117.659231,34.296231],[-117.659481,34.296585],[-117.65997,34.296159],[-117.659992,34.295781],[-117.660833,34.29571],[-117.66154,34.2961],[-117.661382,34.295634],[-117.661722,34.295362],[-117.66158,34.294942],[-117.660689,34.294072],[-117.659697,34.293786],[-117.6591,34.2925],[-117.659397,34.292547],[-117.659855,34.293312],[-117.660636,34.293617],[-117.662276,34.293689],[-117.662382,34.292631],[-117.661561,34.291809],[-117.661766,34.291271],[-117.661497,34.291018],[-117.661182,34.289555],[-117.660538,34.288529],[-117.661523,34.288849],[-117.66172,34.28853],[-117.661178,34.288448],[-117.660641,34.288034],[-117.660067,34.288091],[-117.659849,34.287747],[-117.658973,34.28764],[-117.658647,34.287405],[-117.65869,34.286946],[-117.659048,34.286747],[-117.659806,34.286958],[-117.660643,34.286534],[-117.660844,34.285483],[-117.662103,34.285394],[-117.662933,34.284952],[-117.663324,34.284297],[-117.662869,34.284326],[-117.66349,34.283896],[-117.663566,34.283492],[-117.664853,34.282857],[-117.667428,34.282865],[-117.667833,34.282456],[-117.667727,34.28211],[-117.66825,34.281914],[-117.668362,34.281643],[-117.66993,34.281197],[-117.668747,34.280678],[-117.666772,34.280592],[-117.666013,34.281276],[-117.664911,34.280741],[-117.664509,34.280158],[-117.665341,34.279998],[-117.665344,34.279708],[-117.664469,34.279199],[-117.664466,34.278881],[-117.664928,34.278595],[-117.665346,34.277454],[-117.665854,34.276863],[-117.66569,34.276665],[-117.665019,34.276758],[-117.664869,34.27557],[-117.664904,34.275398],[-117.665493,34.275285],[-117.665496,34.274805],[-117.665906,34.274233],[-117.665234,34.273574],[-117.665734,34.272904],[-117.665273,34.272248],[-117.665714,34.271774],[-117.666099,34.272202],[-117.66619,34.271015],[-117.665869,34.270376],[-117.66625,34.269403],[-117.666669,34.269023],[-117.666327,34.26864],[-117.668338,34.267331],[-117.667572,34.265598],[-117.670513,34.264037],[-117.67063,34.263592],[-117.671037,34.263527],[-117.671035,34.263295],[-117.671423,34.263188],[-117.673611,34.261137],[-117.673915,34.260713],[-117.67383,34.260313],[-117.673174,34.26022],[-117.673616,34.258766],[-117.672731,34.258764],[-117.672385,34.258315],[-117.67376,34.258275],[-117.67406,34.257889],[-117.67427,34.256655],[-117.674831,34.256493],[-117.675782,34.255459],[-117.676007,34.25489],[-117.676465,34.254988],[-117.676905,34.254399],[-117.67869,34.254674],[-117.679581,34.254118],[-117.679805,34.253602],[-117.680553,34.253203],[-117.68117,34.253208],[-117.681814,34.252316],[-117.68083,34.25193],[-117.680236,34.252485],[-117.679602,34.25266],[-117.679456,34.250912],[-117.679068,34.251118],[-117.678945,34.250369],[-117.677254,34.248677],[-117.675494,34.248956],[-117.675193,34.249919],[-117.674685,34.250277],[-117.673791,34.251836],[-117.673862,34.252617],[-117.673613,34.252579],[-117.673483,34.251836],[-117.673023,34.251977],[-117.671848,34.25298],[-117.670718,34.25308],[-117.670219,34.253918],[-117.670551,34.254846],[-117.669706,34.255896],[-117.670959,34.256968],[-117.671077,34.257599],[-117.671848,34.257745],[-117.670788,34.258099],[-117.67128,34.258435],[-117.671885,34.258361],[-117.671845,34.258599],[-117.671335,34.258542],[-117.671575,34.258902],[-117.671188,34.259473],[-117.671572,34.260027],[-117.671236,34.260044],[-117.671132,34.260288],[-117.671248,34.260836],[-117.670734,34.260758],[-117.670259,34.261047],[-117.670301,34.261421],[-117.669601,34.261559],[-117.669434,34.261957],[-117.668881,34.261866],[-117.668865,34.262171],[-117.668487,34.261901],[-117.665449,34.26401],[-117.663432,34.264209],[-117.662215,34.264041],[-117.661279,34.264535],[-117.661342,34.264959],[-117.660628,34.265777],[-117.659982,34.265895],[-117.65976,34.266687],[-117.659091,34.26735],[-117.6581,34.267693],[-117.65752,34.26703],[-117.657434,34.266574],[-117.657766,34.266141],[-117.657378,34.265708],[-117.657452,34.265489],[-117.657081,34.265292],[-117.65695,34.265562],[-117.656512,34.265604],[-117.656583,34.265086],[-117.656304,34.264691],[-117.656564,34.264246],[-117.655748,34.263467],[-117.655702,34.264302],[-117.655895,34.264504],[-117.654558,34.264965],[-117.655457,34.266572],[-117.656624,34.26722],[-117.656768,34.267485],[-117.656482,34.267858],[-117.65762,34.268511],[-117.657795,34.269079],[-117.657508,34.270141],[-117.657016,34.270673],[-117.657197,34.270969],[-117.657003,34.27123],[-117.656444,34.271327],[-117.65695,34.271554],[-117.65682,34.271703],[-117.65601,34.272223],[-117.655547,34.272101],[-117.655355,34.272244],[-117.654736,34.271273],[-117.65429,34.271474],[-117.653761,34.270795],[-117.653152,34.270551],[-117.652339,34.270656],[-117.651589,34.271151],[-117.650872,34.271075],[-117.649817,34.271307],[-117.64965,34.271556],[-117.64914,34.271602],[-117.648937,34.271961],[-117.648307,34.271595],[-117.647313,34.271842],[-117.647344,34.27161],[-117.646584,34.271504],[-117.646471,34.271144],[-117.645112,34.270536],[-117.644868,34.270036],[-117.645558,34.26975],[-117.647054,34.269791],[-117.647147,34.269473],[-117.648058,34.269703],[-117.64884,34.269122],[-117.650719,34.268776],[-117.650761,34.268042],[-117.650504,34.267541],[-117.650811,34.267327],[-117.650402,34.267149],[-117.650222,34.267497],[-117.648872,34.267517],[-117.64635,34.268246],[-117.643687,34.268214],[-117.643651,34.26727],[-117.644774,34.265802],[-117.644651,34.265397],[-117.642953,34.265559],[-117.642781,34.265369],[-117.64475,34.265122],[-117.643999,34.264792],[-117.64335,34.264032],[-117.643565,34.263784],[-117.643237,34.262972],[-117.642444,34.262887],[-117.642571,34.262149],[-117.642085,34.26144],[-117.642358,34.261064],[-117.642695,34.261336],[-117.643123,34.261323],[-117.642853,34.260361],[-117.641918,34.260089],[-117.641554,34.259567],[-117.641841,34.259183],[-117.641042,34.258913],[-117.640972,34.25927],[-117.640705,34.259212],[-117.640303,34.258743],[-117.640259,34.257712],[-117.641117,34.257617],[-117.641289,34.257145],[-117.641066,34.256815],[-117.641444,34.256138],[-117.641756,34.256062],[-117.64222,34.255301],[-117.642594,34.255384],[-117.643135,34.254557],[-117.643005,34.253889],[-117.643295,34.253565],[-117.64295,34.25341],[-117.643004,34.252839],[-117.643684,34.252796],[-117.644305,34.252063],[-117.643034,34.252016],[-117.642867,34.251516],[-117.642549,34.251821],[-117.642083,34.251852],[-117.641961,34.251436],[-117.641721,34.251601],[-117.641629,34.251011],[-117.641948,34.250609],[-117.642398,34.248719],[-117.643139,34.248021],[-117.643538,34.247255],[-117.643657,34.245651],[-117.645757,34.244552],[-117.647781,34.244043],[-117.648678,34.243386],[-117.649438,34.243581],[-117.649562,34.243317],[-117.649303,34.242758],[-117.649804,34.242615],[-117.649832,34.242041],[-117.650546,34.241567],[-117.650703,34.24121],[-117.652475,34.240748],[-117.653068,34.240361],[-117.653783,34.240416],[-117.654847,34.239033],[-117.655641,34.238965],[-117.656163,34.239693],[-117.65749,34.239868],[-117.658718,34.239647],[-117.658286,34.239187],[-117.658739,34.238878],[-117.658761,34.238564],[-117.658996,34.238783],[-117.65914,34.238352],[-117.659765,34.238025],[-117.659641,34.237819],[-117.659126,34.237915],[-117.65882,34.237075],[-117.659829,34.236475],[-117.659985,34.236091],[-117.661145,34.23567],[-117.661473,34.235261],[-117.661759,34.233835],[-117.663071,34.231069],[-117.664686,34.2288],[-117.665021,34.227921],[-117.667373,34.226052],[-117.668019,34.223687],[-117.667837,34.222145],[-117.668594,34.220767],[-117.669292,34.220141],[-117.66972,34.220395],[-117.670277,34.220282],[-117.670202,34.220986],[-117.670594,34.221073],[-117.670965,34.221567],[-117.6713,34.221564],[-117.671035,34.220796],[-117.671491,34.220336],[-117.671894,34.220381],[-117.672122,34.219966],[-117.672575,34.21994],[-117.672561,34.220636],[-117.673051,34.220837],[-117.673072,34.221107],[-117.674415,34.221469],[-117.674701,34.222088],[-117.675259,34.222553],[-117.679258,34.221845],[-117.680021,34.221171],[-117.680256,34.218928],[-117.680972,34.218113],[-117.682421,34.217211],[-117.681512,34.216797],[-117.680562,34.217099],[-117.680425,34.216526],[-117.680664,34.216385],[-117.680311,34.216117],[-117.681422,34.215927],[-117.681966,34.21561],[-117.682051,34.215817],[-117.682588,34.215835],[-117.682704,34.215661],[-117.68227,34.215213],[-117.683272,34.215016],[-117.683837,34.215471],[-117.685724,34.216202],[-117.687508,34.21551],[-117.687605,34.214717],[-117.68843,34.214693],[-117.688721,34.214933],[-117.689115,34.214683],[-117.688873,34.214311],[-117.689246,34.214216],[-117.688837,34.213817],[-117.687998,34.213635],[-117.686093,34.213727],[-117.6859,34.213304],[-117.684517,34.212437],[-117.68477,34.211754],[-117.684261,34.21154],[-117.684182,34.211202],[-117.68522,34.210598],[-117.685418,34.210246],[-117.686393,34.210033],[-117.686591,34.210256],[-117.687204,34.210078],[-117.687046,34.210747],[-117.687484,34.210768],[-117.688126,34.210315],[-117.688238,34.209806],[-117.688859,34.209772],[-117.689134,34.209285],[-117.690552,34.208883],[-117.690677,34.208551],[-117.691825,34.208361],[-117.691098,34.207694],[-117.691377,34.207258],[-117.69223,34.206579],[-117.693493,34.206657],[-117.694017,34.206452],[-117.693083,34.20548],[-117.694422,34.204911],[-117.695295,34.205161],[-117.69557,34.206348],[-117.696341,34.207018],[-117.695271,34.207481],[-117.695325,34.208765],[-117.696143,34.208707],[-117.696447,34.209256],[-117.697425,34.209486],[-117.697453,34.208932],[-117.697907,34.20915],[-117.697982,34.208678],[-117.698409,34.208742],[-117.700746,34.210524],[-117.700762,34.211544],[-117.70011,34.212039],[-117.699991,34.212701],[-117.701219,34.213673],[-117.701577,34.214509],[-117.703386,34.216054],[-117.70464,34.217869],[-117.705962,34.218216],[-117.706736,34.218188],[-117.707468,34.218715],[-117.708567,34.218994],[-117.712372,34.219038],[-117.712985,34.219312],[-117.713288,34.21979],[-117.715919,34.220156],[-117.71799,34.219516],[-117.719484,34.219571],[-117.719665,34.219359],[-117.724669,34.219576],[-117.726273,34.218788],[-117.726331,34.218096],[-117.727938,34.217971],[-117.730148,34.218766],[-117.730166,34.218942],[-117.730576,34.218917],[-117.730853,34.219159],[-117.730854,34.219846],[-117.732699,34.2203],[-117.732977,34.220624],[-117.733981,34.220443],[-117.734353,34.219456],[-117.734646,34.219661],[-117.734458,34.220124],[-117.735169,34.220071],[-117.735285,34.219644],[-117.736025,34.219488],[-117.736007,34.218449],[-117.735573,34.21822],[-117.735455,34.21776],[-117.735886,34.217297],[-117.735489,34.216973],[-117.735375,34.216507],[-117.735674,34.216135],[-117.735566,34.215807],[-117.735774,34.215804],[-117.734735,34.215325],[-117.734832,34.213933],[-117.737174,34.213526],[-117.738046,34.213945],[-117.738698,34.215221],[-117.739391,34.2154],[-117.740316,34.21474],[-117.740445,34.214347],[-117.742097,34.214459],[-117.7422,34.214181],[-117.741502,34.213681],[-117.741484,34.212152],[-117.742642,34.210958],[-117.742379,34.209145],[-117.742618,34.208457],[-117.743975,34.207889],[-117.744693,34.207909],[-117.744447,34.207266],[-117.744594,34.206494],[-117.7452,34.206601],[-117.74535,34.206005],[-117.746726,34.205938],[-117.748041,34.205432],[-117.749051,34.20444],[-117.74987,34.203972],[-117.750298,34.204027],[-117.75177,34.202726],[-117.752165,34.203081],[-117.753669,34.202388],[-117.754458,34.201424],[-117.755792,34.201269],[-117.756604,34.20007],[-117.757338,34.200112],[-117.759135,34.199609],[-117.760249,34.198876],[-117.761716,34.198769],[-117.761277,34.199574],[-117.762674,34.201369],[-117.762158,34.201855],[-117.763012,34.202115],[-117.76398,34.201503],[-117.764932,34.202234],[-117.765635,34.202236],[-117.765993,34.20256],[-117.766157,34.202411],[-117.766312,34.2027],[-117.767417,34.202563],[-117.768559,34.203016],[-117.769511,34.202614],[-117.770475,34.203034],[-117.771296,34.202921],[-117.772032,34.203495],[-117.773905,34.203344],[-117.774535,34.204151],[-117.774012,34.204569],[-117.774101,34.20497],[-117.774603,34.205283],[-117.774395,34.205745],[-117.774657,34.206918],[-117.774295,34.207465],[-117.774502,34.20802],[-117.773732,34.208405],[-117.771983,34.21028],[-117.769821,34.211736],[-117.769421,34.212284],[-117.768065,34.213254],[-117.767473,34.214042],[-117.767563,34.214507],[-117.766979,34.215872],[-117.766202,34.216658],[-117.765107,34.217152],[-117.764146,34.218502],[-117.764711,34.218935],[-117.765362,34.220186],[-117.765208,34.220644],[-117.765924,34.220972],[-117.766388,34.220699],[-117.766511,34.221108],[-117.768295,34.221456],[-117.768763,34.221984],[-117.76921,34.22279],[-117.768983,34.223464],[-117.769334,34.224373],[-117.770819,34.224717],[-117.770932,34.22507],[-117.771661,34.225317],[-117.772776,34.226111],[-117.772825,34.226466],[-117.771105,34.228198],[-117.771314,34.228815],[-117.771884,34.229009],[-117.772558,34.229687],[-117.774536,34.230216],[-117.775919,34.231199],[-117.776458,34.230659],[-117.778823,34.230126],[-117.779163,34.231161],[-117.778762,34.231778],[-117.777779,34.231985],[-117.777452,34.232311],[-117.774761,34.232689],[-117.773438,34.232597],[-117.772842,34.232067],[-117.772923,34.231483],[-117.77187,34.230619],[-117.771095,34.230356],[-117.770239,34.230743],[-117.769742,34.230526],[-117.769301,34.230636],[-117.7685,34.232518],[-117.767372,34.233375],[-117.767498,34.233748],[-117.767119,34.234635],[-117.766769,34.234877],[-117.766786,34.235611],[-117.766464,34.23583],[-117.766818,34.236587],[-117.767225,34.236843],[-117.767094,34.237158],[-117.767392,34.237421],[-117.767141,34.237438],[-117.76718,34.237797],[-117.767793,34.237779],[-117.767847,34.237583],[-117.768427,34.23747],[-117.768477,34.236918],[-117.769625,34.236863],[-117.770437,34.23633],[-117.770416,34.23714],[-117.769298,34.237197],[-117.76956,34.237508],[-117.770502,34.237527],[-117.770583,34.237965],[-117.770379,34.238865],[-117.770048,34.238982],[-117.770026,34.240083],[-117.769677,34.240781],[-117.768407,34.241836],[-117.767685,34.243044],[-117.76649,34.243288],[-117.766476,34.243866],[-117.76662,34.244079],[-117.766974,34.24362],[-117.767382,34.243723],[-117.767564,34.244043],[-117.767406,34.244659],[-117.767727,34.244985],[-117.768382,34.245025],[-117.768791,34.243953],[-117.769744,34.244625],[-117.77065,34.244879],[-117.77366,34.2453],[-117.774698,34.247186],[-117.775419,34.2472],[-117.775673,34.247776],[-117.77609,34.249426],[-117.776079,34.24981],[-117.775831,34.249937],[-117.775802,34.251199],[-117.776091,34.252412],[-117.776334,34.252735],[-117.777495,34.253071],[-117.777698,34.253366],[-117.779433,34.257506],[-117.7807,34.259519],[-117.781829,34.259376],[-117.782732,34.259557],[-117.783111,34.259455],[-117.783263,34.258881],[-117.7835,34.25916],[-117.783806,34.258814],[-117.784436,34.259634],[-117.783955,34.259903],[-117.783626,34.260755],[-117.783239,34.260743],[-117.781964,34.261543],[-117.782095,34.262876],[-117.782812,34.263591],[-117.783157,34.263172],[-117.783426,34.263321],[-117.783861,34.263165],[-117.785185,34.263662],[-117.786398,34.263693],[-117.786033,34.263853],[-117.786137,34.264164],[-117.787696,34.264052],[-117.787735,34.26478],[-117.787285,34.265007],[-117.787015,34.26557],[-117.787481,34.266123],[-117.787194,34.26737],[-117.788176,34.267065],[-117.788774,34.267497],[-117.788862,34.267861],[-117.788515,34.26844],[-117.78894,34.26939],[-117.789952,34.269949],[-117.790518,34.270548],[-117.790333,34.271266],[-117.789575,34.270624],[-117.789379,34.27],[-117.788467,34.270295],[-117.78875,34.271595],[-117.789493,34.272255],[-117.788691,34.272767],[-117.788793,34.273378],[-117.788513,34.273664],[-117.787475,34.273622],[-117.786532,34.27208],[-117.786603,34.272446],[-117.78642,34.272496],[-117.786791,34.274164],[-117.785977,34.274637],[-117.787189,34.275001],[-117.787596,34.275492],[-117.787639,34.275962],[-117.788017,34.276252],[-117.787883,34.27652],[-117.78819,34.276978],[-117.787175,34.277972],[-117.787375,34.278608],[-117.787008,34.278677],[-117.786524,34.278431],[-117.785805,34.279384],[-117.78465,34.279067],[-117.783721,34.279164],[-117.783201,34.278778],[-117.783322,34.278402],[-117.78298,34.278529],[-117.783007,34.278288],[-117.782476,34.277871],[-117.780835,34.278962],[-117.77973,34.278805],[-117.778676,34.279148],[-117.779062,34.279661],[-117.779531,34.279801],[-117.779277,34.280229],[-117.780587,34.280728],[-117.781562,34.280424],[-117.781705,34.28071],[-117.784604,34.280154],[-117.784651,34.281098],[-117.784264,34.280989],[-117.783937,34.281256],[-117.783588,34.281185],[-117.783589,34.281384],[-117.784285,34.282108],[-117.784895,34.282026],[-117.784996,34.282183],[-117.784971,34.283181],[-117.784701,34.283629],[-117.785066,34.283658],[-117.78625,34.284586],[-117.787557,34.285189],[-117.787134,34.285411],[-117.788018,34.285646],[-117.788306,34.286311],[-117.788982,34.286603],[-117.789132,34.287075],[-117.790024,34.287577],[-117.790194,34.287919],[-117.790707,34.288058],[-117.790905,34.288625],[-117.791362,34.288801],[-117.791647,34.288508],[-117.792059,34.288725],[-117.792128,34.288907],[-117.791514,34.289275],[-117.791579,34.289681],[-117.792166,34.289555],[-117.793287,34.290069],[-117.793294,34.291392],[-117.794146,34.293148],[-117.793145,34.292935],[-117.792289,34.293036],[-117.792283,34.293217],[-117.792715,34.293563],[-117.795216,34.293735],[-117.79511,34.294108],[-117.795535,34.294577],[-117.795677,34.295713],[-117.795283,34.29604],[-117.795738,34.296532],[-117.795887,34.298593],[-117.796496,34.30007],[-117.796387,34.300437],[-117.795766,34.300912],[-117.794334,34.301516],[-117.794579,34.302422],[-117.793521,34.302359],[-117.7931,34.301896],[-117.791965,34.302149],[-117.793173,34.301134],[-117.793888,34.29998],[-117.793757,34.299849],[-117.793194,34.300027],[-117.793111,34.300386],[-117.792799,34.300448],[-117.791992,34.300233],[-117.792071,34.299999],[-117.792595,34.299965],[-117.793182,34.299521],[-117.793146,34.299134],[-117.792565,34.299263],[-117.792515,34.299535],[-117.791279,34.299203],[-117.791134,34.298245],[-117.791482,34.297974],[-117.791049,34.297247],[-117.790539,34.297225],[-117.790212,34.296917],[-117.790116,34.296452],[-117.79041,34.29572],[-117.789878,34.295659],[-117.789632,34.296044],[-117.789938,34.297055],[-117.788954,34.296862],[-117.788636,34.296625],[-117.788618,34.296092],[-117.788138,34.295731],[-117.788236,34.294815],[-117.787919,34.294587],[-117.787535,34.294928],[-117.787484,34.29459],[-117.787059,34.294725],[-117.78693,34.295059],[-117.786915,34.296125],[-117.786195,34.296585],[-117.785944,34.296449],[-117.785197,34.293592],[-117.785323,34.292877],[-117.784538,34.293261],[-117.784776,34.294138],[-117.783977,34.294491],[-117.783905,34.295693],[-117.783476,34.296058],[-117.783662,34.2971],[-117.783431,34.297193],[-117.783078,34.296898],[-117.782955,34.297133],[-117.782608,34.296397],[-117.782005,34.296454],[-117.781764,34.295919],[-117.782289,34.29409],[-117.78152,34.292676],[-117.7812,34.293908],[-117.781457,34.29512],[-117.781188,34.295275],[-117.781018,34.295925],[-117.779909,34.296271],[-117.778688,34.296188],[-117.778273,34.296535],[-117.777837,34.296539],[-117.777197,34.297071],[-117.777548,34.297608],[-117.776965,34.297162],[-117.776921,34.297318],[-117.775941,34.297456],[-117.775762,34.297922],[-117.775457,34.297889],[-117.774454,34.297494],[-117.774164,34.296955],[-117.773789,34.296864],[-117.773678,34.297336],[-117.772812,34.29765],[-117.772652,34.298177],[-117.773056,34.298809],[-117.772506,34.298834],[-117.772385,34.299053],[-117.771848,34.298694],[-117.77176,34.297961],[-117.771312,34.297803],[-117.771019,34.297118],[-117.769889,34.297518],[-117.769106,34.29818],[-117.769894,34.297224],[-117.768496,34.29716],[-117.768138,34.297617],[-117.767227,34.296961],[-117.766936,34.297205],[-117.765973,34.297042],[-117.765356,34.297547],[-117.765864,34.298441],[-117.765651,34.298594],[-117.766419,34.299424],[-117.766182,34.299581],[-117.765526,34.299431],[-117.765491,34.299887],[-117.76634,34.300354],[-117.766292,34.300528],[-117.765802,34.300629],[-117.765485,34.300421],[-117.765271,34.300575],[-117.764492,34.299193],[-117.763965,34.299571],[-117.763316,34.30135],[-117.764049,34.301298],[-117.765063,34.30174],[-117.762938,34.302467],[-117.762052,34.303082],[-117.762291,34.303739],[-117.762108,34.304066],[-117.763273,34.304699],[-117.76356,34.305208],[-117.762823,34.305945],[-117.762715,34.306219],[-117.763069,34.30636],[-117.762771,34.306755],[-117.764452,34.307374],[-117.764863,34.30817],[-117.764674,34.308374],[-117.765471,34.309061],[-117.765244,34.309937],[-117.76546,34.310418],[-117.766435,34.311182],[-117.766056,34.311727],[-117.766863,34.312203],[-117.76666,34.312352],[-117.765684,34.312139],[-117.765109,34.312337],[-117.765106,34.312787],[-117.763898,34.313002],[-117.763209,34.314285],[-117.764808,34.314323],[-117.76723,34.313527],[-117.76787,34.314133],[-117.76755,34.31474],[-117.766042,34.314967],[-117.765494,34.315309],[-117.765174,34.315764],[-117.765357,34.316218],[-117.766453,34.316294],[-117.767916,34.315877],[-117.768007,34.315005],[-117.768372,34.314929],[-117.769835,34.316067],[-117.7702,34.316863],[-117.769835,34.317432],[-117.768921,34.317811],[-117.764489,34.317773],[-117.763758,34.31838],[-117.762021,34.319176],[-117.761244,34.320806],[-117.760605,34.321261],[-117.759691,34.321337],[-117.75896,34.320958],[-117.758549,34.320351],[-117.758092,34.320427],[-117.75832,34.322209],[-117.758868,34.322967],[-117.760102,34.323612],[-117.762067,34.323612],[-117.762798,34.323801],[-117.763026,34.322209],[-117.763392,34.322133],[-117.763849,34.322361],[-117.764214,34.323157],[-117.764946,34.323346],[-117.765585,34.323119],[-117.766271,34.321223],[-117.766956,34.320389],[-117.768053,34.320313],[-117.770429,34.320579],[-117.77116,34.320958],[-117.771845,34.322474],[-117.773079,34.323839],[-117.773124,34.32456],[-117.773033,34.325128],[-117.772256,34.326228],[-117.770931,34.326645],[-117.770383,34.327479],[-117.770292,34.329147],[-117.770748,34.329981],[-117.771297,34.332597],[-117.771297,34.333166],[-117.77052,34.333659],[-117.769515,34.333621],[-117.768144,34.33218],[-117.768098,34.331725],[-117.767641,34.331801],[-117.767367,34.332104],[-117.767322,34.333128],[-117.766682,34.334152],[-117.763895,34.334266],[-117.763072,34.333545],[-117.761884,34.333052],[-117.761656,34.332067],[-117.761747,34.330322],[-117.761472,34.32964],[-117.757959,34.331489],[-117.757701,34.331797],[-117.757407,34.333667],[-117.758061,34.333892],[-117.75825,34.334186],[-117.757915,34.334884],[-117.756697,34.335948],[-117.755901,34.336216],[-117.755523,34.337858],[-117.754646,34.339856],[-117.755018,34.340604],[-117.755092,34.341604],[-117.754328,34.342157],[-117.753422,34.342197],[-117.751613,34.341474],[-117.751359,34.341776],[-117.751517,34.342427],[-117.751861,34.342433],[-117.751566,34.343035],[-117.750262,34.343425],[-117.750515,34.344547],[-117.750772,34.344719],[-117.751474,34.344623],[-117.75179,34.344882],[-117.751811,34.345182],[-117.751129,34.345844],[-117.75159,34.346061],[-117.752611,34.346031],[-117.752989,34.346727],[-117.752703,34.347063],[-117.752186,34.346778],[-117.750227,34.347089],[-117.750061,34.347858],[-117.750371,34.348159],[-117.751375,34.347967],[-117.752302,34.347248],[-117.75238,34.348123],[-117.751843,34.34863],[-117.751013,34.348829],[-117.750742,34.349882],[-117.750292,34.350153],[-117.750184,34.349804],[-117.749887,34.350467],[-117.748682,34.350513],[-117.748796,34.349662],[-117.749404,34.349099],[-117.749015,34.349025],[-117.749304,34.34878],[-117.749136,34.348453],[-117.74822,34.348662],[-117.74723,34.349236],[-117.746096,34.349181],[-117.745619,34.349812],[-117.74581,34.350166],[-117.747444,34.350444],[-117.748403,34.351346],[-117.748969,34.351048],[-117.74909,34.35162],[-117.749528,34.351882],[-117.749954,34.351735],[-117.750775,34.352342],[-117.75073,34.353093],[-117.75121,34.352498],[-117.751719,34.352527],[-117.751346,34.353021],[-117.752155,34.354487],[-117.752749,34.35447],[-117.752976,34.35412],[-117.753321,34.354064],[-117.753048,34.354735],[-117.753651,34.356092],[-117.753394,34.356435],[-117.754177,34.358521],[-117.755037,34.358841],[-117.755059,34.359813],[-117.754423,34.36055],[-117.754181,34.360073],[-117.753372,34.359687],[-117.752913,34.35973],[-117.752842,34.360861],[-117.752154,34.361005],[-117.751959,34.361468],[-117.75308,34.361578],[-117.753207,34.36227],[-117.753595,34.36206],[-117.753958,34.362363],[-117.753835,34.362923],[-117.75461,34.363848],[-117.754868,34.363642],[-117.755799,34.36374],[-117.756202,34.364384],[-117.755879,34.364703],[-117.756264,34.364903],[-117.756711,34.367346],[-117.756567,34.367472],[-117.756064,34.36706],[-117.755945,34.36726],[-117.755582,34.367182],[-117.755076,34.366282],[-117.754634,34.366331],[-117.754653,34.367341],[-117.7542,34.368142],[-117.754742,34.368316],[-117.75491,34.369151],[-117.75429,34.369349],[-117.753179,34.368284],[-117.753253,34.367111],[-117.752446,34.367854],[-117.752408,34.368249],[-117.752121,34.368394],[-117.751915,34.368252],[-117.751379,34.368711],[-117.749745,34.369236],[-117.74938,34.369236],[-117.749277,34.368926],[-117.748886,34.369019],[-117.748882,34.368688],[-117.748403,34.368668],[-117.748925,34.368128],[-117.748854,34.367417],[-117.747865,34.368686],[-117.746836,34.368796],[-117.746474,34.36914],[-117.746727,34.369419],[-117.746507,34.369859],[-117.746206,34.370137],[-117.745843,34.370132],[-117.745566,34.370022],[-117.746079,34.369687],[-117.746015,34.369488],[-117.745671,34.36947],[-117.745264,34.369052],[-117.744825,34.369649],[-117.744456,34.369584],[-117.744578,34.36896],[-117.744896,34.368667],[-117.744125,34.368588],[-117.744429,34.368235],[-117.744261,34.367991],[-117.743522,34.367735],[-117.743531,34.367958],[-117.742505,34.367761],[-117.742561,34.367544],[-117.74213,34.367311],[-117.74232,34.367164],[-117.741772,34.367113],[-117.741787,34.366878],[-117.74107,34.366675],[-117.7411,34.366423],[-117.741541,34.366455],[-117.741327,34.366268],[-117.740029,34.366353],[-117.7397,34.366183],[-117.73934,34.365729],[-117.738779,34.365499],[-117.738912,34.365166],[-117.73829,34.364759],[-117.738555,34.364424],[-117.738286,34.364272],[-117.737663,34.364157],[-117.736702,34.364309],[-117.73648,34.364536],[-117.735654,34.364558],[-117.735622,34.365021],[-117.736631,34.365461],[-117.73679,34.365967],[-117.737085,34.366011],[-117.737238,34.367245],[-117.738,34.368098],[-117.737971,34.368338],[-117.73851,34.36866],[-117.738688,34.369231],[-117.738971,34.369174],[-117.739222,34.369536],[-117.740096,34.369284],[-117.740277,34.369705],[-117.741046,34.370281],[-117.741147,34.370499],[-117.740869,34.370802],[-117.741963,34.371665],[-117.741889,34.371938],[-117.742889,34.373723],[-117.742742,34.373898],[-117.743655,34.37492],[-117.743533,34.375183],[-117.743947,34.375317],[-117.744683,34.376095],[-117.744996,34.377337],[-117.743758,34.377997],[-117.742726,34.378153],[-117.741825,34.37799],[-117.741686,34.378408],[-117.742112,34.378739],[-117.743206,34.378351],[-117.743471,34.378803],[-117.74402,34.378447],[-117.744121,34.378643],[-117.745278,34.378464],[-117.745367,34.377876],[-117.746115,34.377658],[-117.746312,34.377289],[-117.74612,34.376434],[-117.746633,34.376306],[-117.746778,34.375894],[-117.747688,34.375963],[-117.748023,34.376321],[-117.748486,34.376165],[-117.748644,34.376485],[-117.748129,34.376503],[-117.748498,34.376986],[-117.749138,34.376733],[-117.749844,34.376895],[-117.750066,34.377558],[-117.751496,34.378241],[-117.751918,34.380328],[-117.753766,34.38061],[-117.754354,34.381121],[-117.755284,34.380873],[-117.755964,34.3816],[-117.756824,34.38197],[-117.75729,34.382439],[-117.757531,34.383057],[-117.757359,34.383842],[-117.757437,34.38399],[-117.757796,34.383881],[-117.75783,34.384066],[-117.75697,34.384882],[-117.756637,34.384856],[-117.756279,34.385303],[-117.755941,34.385133],[-117.755647,34.385576],[-117.755211,34.385715],[-117.755564,34.386585],[-117.755118,34.387026],[-117.755058,34.388079],[-117.75474,34.388257],[-117.754018,34.388064],[-117.753662,34.38736],[-117.752864,34.387491],[-117.752961,34.387877],[-117.752303,34.387745],[-117.752127,34.388049],[-117.751833,34.387784],[-117.751538,34.38783],[-117.751366,34.387436],[-117.750886,34.387792],[-117.751057,34.38855],[-117.752049,34.389108],[-117.751793,34.389449],[-117.75137,34.389425],[-117.751197,34.389822],[-117.751409,34.390109],[-117.751968,34.389894],[-117.752021,34.390316],[-117.75156,34.390535],[-117.75148,34.391204],[-117.752028,34.391583],[-117.752028,34.392379],[-117.751114,34.39291],[-117.750155,34.39454],[-117.749652,34.394616],[-117.748693,34.394237],[-117.748195,34.39225],[-117.748373,34.391697],[-117.747048,34.391052],[-117.746205,34.391477],[-117.746361,34.392112],[-117.746192,34.392199],[-117.74559,34.392285],[-117.74517,34.391804],[-117.743804,34.392114],[-117.74351,34.392454],[-117.743836,34.392799],[-117.743765,34.393105],[-117.743998,34.393157],[-117.743578,34.39358],[-117.743854,34.395017],[-117.743268,34.39515],[-117.742902,34.395544],[-117.742642,34.395423],[-117.742892,34.396191],[-117.742315,34.396224],[-117.742677,34.397049],[-117.742437,34.3972],[-117.742091,34.397051],[-117.741934,34.396363],[-117.741374,34.395901],[-117.741308,34.395238],[-117.741582,34.395069],[-117.741394,34.394695],[-117.740904,34.395151],[-117.741035,34.395488],[-117.740244,34.395182],[-117.741042,34.394491],[-117.741141,34.393703],[-117.740549,34.393379],[-117.740202,34.393702],[-117.739148,34.393728],[-117.738148,34.392806],[-117.737571,34.39271],[-117.736919,34.392256],[-117.736859,34.391997],[-117.736594,34.392022],[-117.736334,34.39255],[-117.734192,34.392313],[-117.734161,34.392571],[-117.733173,34.392795],[-117.730706,34.392293],[-117.729752,34.39139],[-117.729837,34.391044],[-117.730644,34.390403],[-117.730554,34.39007],[-117.729863,34.3901],[-117.729276,34.390552],[-117.728656,34.389618],[-117.728682,34.389118],[-117.727893,34.389492],[-117.727569,34.389201],[-117.727235,34.38931],[-117.726758,34.388753],[-117.726162,34.388776],[-117.725818,34.389145],[-117.726147,34.38988],[-117.72572,34.389897],[-117.723176,34.389289],[-117.72198,34.389365],[-117.721699,34.389053],[-117.720843,34.388858],[-117.720532,34.389113],[-117.719607,34.38897],[-117.719211,34.389185],[-117.71854,34.388835],[-117.717365,34.389188],[-117.716964,34.388807],[-117.715051,34.387999],[-117.713805,34.386885],[-117.712001,34.387195],[-117.7105,34.386928],[-117.709557,34.387101],[-117.709094,34.38642],[-117.709315,34.386123],[-117.709146,34.385893],[-117.708596,34.385472],[-117.707582,34.385367],[-117.707663,34.384425],[-117.707417,34.384361],[-117.707053,34.384724],[-117.707225,34.383984],[-117.707037,34.382849],[-117.706644,34.383821],[-117.705867,34.384093],[-117.703916,34.383828],[-117.703344,34.383415],[-117.702132,34.383598],[-117.702101,34.383875],[-117.702516,34.384288],[-117.704305,34.385044],[-117.706519,34.386908],[-117.706381,34.388449],[-117.706062,34.388932],[-117.705284,34.388881],[-117.704803,34.389093],[-117.704432,34.388889],[-117.70431,34.388564],[-117.704806,34.388099],[-117.704469,34.387913],[-117.703695,34.388101],[-117.703647,34.38846],[-117.705287,34.389895],[-117.705412,34.390594],[-117.70492,34.391936],[-117.706447,34.393208],[-117.706132,34.393569],[-117.705399,34.393808],[-117.705099,34.393175],[-117.704391,34.393354],[-117.704064,34.392967],[-117.703327,34.392938],[-117.70386,34.39364],[-117.704436,34.393546],[-117.704151,34.395024],[-117.704049,34.395176],[-117.703466,34.394748],[-117.703309,34.395453],[-117.702862,34.395154],[-117.701828,34.395379],[-117.701553,34.396546],[-117.701702,34.396733],[-117.701464,34.396955],[-117.70153,34.397887],[-117.701044,34.398084],[-117.701634,34.398675],[-117.701534,34.399024],[-117.700143,34.399368],[-117.700086,34.39905],[-117.699604,34.398847],[-117.69933,34.399258],[-117.698507,34.399164],[-117.698348,34.399232],[-117.698536,34.399466],[-117.697765,34.399668],[-117.697459,34.39947],[-117.697528,34.398986],[-117.697046,34.398768],[-117.696909,34.39898],[-117.696871,34.398639],[-117.69637,34.398371],[-117.695651,34.398239],[-117.695944,34.398795],[-117.695646,34.398639],[-117.695573,34.398846],[-117.695253,34.398389],[-117.694702,34.398511],[-117.694605,34.398224],[-117.694307,34.398179],[-117.693976,34.397143],[-117.691924,34.39632],[-117.691821,34.396862],[-117.690234,34.397361],[-117.68967,34.397976],[-117.689768,34.398636],[-117.689282,34.398907],[-117.688975,34.399682],[-117.689203,34.4001],[-117.69043,34.401044],[-117.690314,34.401238],[-117.687019,34.40165],[-117.687376,34.401915],[-117.687215,34.402199],[-117.686872,34.402371],[-117.686489,34.402159],[-117.686001,34.402311],[-117.685913,34.402727],[-117.684998,34.403058],[-117.684367,34.403654],[-117.684423,34.404228],[-117.684233,34.403891],[-117.684028,34.403936],[-117.684232,34.404963],[-117.685225,34.405787],[-117.685149,34.405969],[-117.685753,34.406101],[-117.685692,34.406544],[-117.685148,34.406876],[-117.685083,34.406616],[-117.684514,34.406618],[-117.684325,34.40624],[-117.683918,34.406315],[-117.683959,34.407204],[-117.68346,34.40734],[-117.68307,34.406863],[-117.682993,34.40718],[-117.682723,34.407152],[-117.681673,34.40847],[-117.680508,34.409412],[-117.679289,34.409748],[-117.678656,34.410168],[-117.678232,34.411136],[-117.677568,34.41101],[-117.67681,34.411355],[-117.676423,34.412009],[-117.676113,34.412014],[-117.675671,34.412626],[-117.675151,34.412785],[-117.673656,34.414493],[-117.673032,34.4141],[-117.672268,34.415296],[-117.67126,34.415508],[-117.670685,34.417355],[-117.669189,34.419664],[-117.668621,34.421319],[-117.668049,34.421738],[-117.666784,34.421928],[-117.665977,34.421676],[-117.663182,34.419955],[-117.662636,34.419473],[-117.662521,34.418618],[-117.662148,34.418643],[-117.662103,34.419109],[-117.661655,34.419269],[-117.661609,34.418979],[-117.660757,34.418601],[-117.660131,34.418588],[-117.659757,34.418258],[-117.659419,34.417688],[-117.659614,34.416065],[-117.659354,34.413133],[-117.659543,34.412175],[-117.659292,34.411929],[-117.658992,34.412154],[-117.658367,34.411971],[-117.658633,34.411199],[-117.658205,34.411081],[-117.65829,34.410701],[-117.657733,34.410974],[-117.657354,34.41041],[-117.657179,34.41078],[-117.656424,34.410515],[-117.656887,34.410828],[-117.656385,34.411248],[-117.656494,34.411923],[-117.65546,34.411962],[-117.654956,34.412535],[-117.654426,34.412493],[-117.65347,34.411807],[-117.653111,34.411934],[-117.653045,34.412372],[-117.652717,34.41238],[-117.652147,34.412103],[-117.651937,34.411565],[-117.650957,34.411685],[-117.649823,34.411453],[-117.64943,34.411547],[-117.6491,34.411985],[-117.649184,34.410324],[-117.64817,34.409184],[-117.648784,34.408084],[-117.64857,34.407465],[-117.647813,34.406891],[-117.6477,34.406041],[-117.647182,34.405609],[-117.647045,34.405015],[-117.645148,34.403144],[-117.645021,34.402587],[-117.644592,34.402697],[-117.644122,34.402321],[-117.643635,34.402343],[-117.642363,34.399633],[-117.64178,34.399258],[-117.641933,34.398988],[-117.642246,34.399056],[-117.64233,34.398137],[-117.643399,34.397557],[-117.643872,34.397602],[-117.643895,34.398466],[-117.644371,34.397863],[-117.646902,34.397975],[-117.647424,34.39844],[-117.647808,34.397998],[-117.648055,34.398068],[-117.648495,34.398897],[-117.649495,34.399472],[-117.649242,34.400355],[-117.649734,34.400535],[-117.650108,34.400254],[-117.650927,34.401357],[-117.651716,34.401029],[-117.651941,34.401854],[-117.652804,34.402192],[-117.653152,34.403336],[-117.654335,34.404489],[-117.654627,34.404134],[-117.654678,34.403117],[-117.655559,34.402212],[-117.655894,34.400977],[-117.656855,34.400258],[-117.657116,34.399359],[-117.65733,34.399367],[-117.657258,34.398722],[-117.657688,34.397954],[-117.657915,34.3978],[-117.658131,34.397926],[-117.658238,34.397622],[-117.658523,34.397587],[-117.658761,34.398069],[-117.659094,34.397567],[-117.659046,34.396578],[-117.659509,34.396737],[-117.65964,34.396294],[-117.660197,34.396462],[-117.660321,34.396305],[-117.659511,34.394928],[-117.659821,34.394423],[-117.660754,34.394373],[-117.660482,34.39396],[-117.660906,34.393596],[-117.660837,34.393183],[-117.660537,34.393264],[-117.660292,34.392421],[-117.660513,34.391608],[-117.660752,34.391488],[-117.659975,34.391176],[-117.659526,34.390654],[-117.65981,34.390251],[-117.661179,34.389855],[-117.660739,34.389641],[-117.660741,34.389374],[-117.660058,34.389163],[-117.659972,34.388543],[-117.659543,34.388278],[-117.657904,34.388257],[-117.657776,34.388006],[-117.658353,34.387301],[-117.659406,34.387376],[-117.659789,34.387117],[-117.660747,34.387529],[-117.661512,34.387463],[-117.661034,34.386624],[-117.660547,34.386484],[-117.660115,34.386637],[-117.660005,34.386301],[-117.659137,34.386814],[-117.658494,34.386454],[-117.65864,34.385938],[-117.658951,34.385932],[-117.659222,34.386273],[-117.660049,34.385705],[-117.660525,34.383522],[-117.661313,34.383368],[-117.66146,34.383125],[-117.660457,34.382295],[-117.658675,34.382094],[-117.658514,34.38177],[-117.657336,34.381876],[-117.656942,34.382578],[-117.656711,34.381607],[-117.656458,34.381584],[-117.656502,34.381843],[-117.655937,34.382192],[-117.655616,34.382881],[-117.655206,34.383],[-117.655039,34.382676],[-117.654807,34.382911],[-117.654471,34.382653],[-117.654463,34.381763],[-117.654011,34.381837],[-117.653789,34.381651],[-117.654218,34.380977],[-117.654057,34.380823],[-117.653413,34.380882],[-117.652789,34.381279],[-117.652982,34.381648],[-117.652458,34.382522],[-117.652242,34.382337],[-117.651593,34.382637],[-117.651537,34.381688],[-117.650961,34.381527],[-117.650238,34.380275],[-117.650427,34.379523],[-117.64894,34.377911],[-117.647466,34.377904],[-117.646336,34.378852],[-117.64643,34.379456],[-117.647309,34.380728],[-117.647199,34.381106]]]},"properties":{"name":"Bridge Fire (2024) perimeter"}}]}