{"type":"FeatureCollection","features":[{"type":"Feature","geometry":{"type":"MultiPolygon","coordinates":[[[[-105.155782,39.932502],[-105.153343,39.932337],[-105.150475,39.932498],[-105.150028,39.932113],[-105.147552,39.932811],[-105.146413,39.933569],[-105.146362,39.932877],[-105.147256,39.931133],[-105.148456,39.930951],[-105.149522,39.931236],[-105.151933,39.931403],[-105.153023,39.931222],[-105.15334,39.930413],[-105.151429,39.930248],[-105.151259,39.929796],[-105.152702,39.930171],[-105.156477,39.930144],[-105.160407,39.929571],[-105.161951,39.929737],[-105.164413,39.929328],[-105.165639,39.929377],[-105.166509,39.929834],[-105.166762,39.929242],[-105.167519,39.929317],[-105.167548,39.930151],[-105.169213,39.930124],[-105.169394,39.931051],[-105.17148,39.930359],[-105.172839,39.930688],[-105.174085,39.931875],[-105.176959,39.932799],[-105.177426,39.933544],[-105.179605,39.935461],[-105.182915,39.937456],[-105.183514,39.938231],[-105.183559,39.939214],[-105.18299,39.940502],[-105.180804,39.941478],[-105.180404,39.942383],[-105.180883,39.943118],[-105.188074,39.940569],[-105.191965,39.939693],[-105.193008,39.940027],[-105.192313,39.941436],[-105.188925,39.943405],[-105.191429,39.943099],[-105.198031,39.942918],[-105.198591,39.943722],[-105.199569,39.943709],[-105.199627,39.947944],[-105.201841,39.948361],[-105.203252,39.949013],[-105.205743,39.949465],[-105.205787,39.949919],[-105.207813,39.949405],[-105.20927,39.952445],[-105.210215,39.953129],[-105.212941,39.952512],[-105.215196,39.952566],[-105.215158,39.951937],[-105.218702,39.948194],[-105.219459,39.947059],[-105.222576,39.945543],[-105.219424,39.943595],[-105.218374,39.944027],[-105.218297,39.943622],[-105.217609,39.943398],[-105.216998,39.943511],[-105.216768,39.942932],[-105.216257,39.942746],[-105.214545,39.941266],[-105.213786,39.940983],[-105.212194,39.941093],[-105.209892,39.940265],[-105.207535,39.9401],[-105.206324,39.940558],[-105.20594,39.94136],[-105.203601,39.942099],[-105.203278,39.942418],[-105.200755,39.941896],[-105.198882,39.941913],[-105.198826,39.939586],[-105.20153,39.93922],[-105.203687,39.938392],[-105.205473,39.939025],[-105.206241,39.939603],[-105.209066,39.939853],[-105.210588,39.940278],[-105.210714,39.939873],[-105.212645,39.93956],[-105.211852,39.938597],[-105.210422,39.938496],[-105.210118,39.938243],[-105.208928,39.938233],[-105.208347,39.937788],[-105.207917,39.937829],[-105.206565,39.937288],[-105.207396,39.937045],[-105.209375,39.937374],[-105.211588,39.937171],[-105.211594,39.936371],[-105.212446,39.935686],[-105.212615,39.935089],[-105.213646,39.934897],[-105.214564,39.935046],[-105.21659,39.934825],[-105.21909,39.935383],[-105.220691,39.936206],[-105.221824,39.937113],[-105.227994,39.940198],[-105.228714,39.940829],[-105.228855,39.941517],[-105.229633,39.942498],[-105.231149,39.943087],[-105.232068,39.943827],[-105.231949,39.944068],[-105.233096,39.944668],[-105.233314,39.945049],[-105.23306,39.945857],[-105.230343,39.948464],[-105.229976,39.949411],[-105.230329,39.950426],[-105.23027,39.950829],[-105.229919,39.950925],[-105.23124,39.951801],[-105.231613,39.952857],[-105.230357,39.954391],[-105.230405,39.955366],[-105.231179,39.956339],[-105.229677,39.956482],[-105.228985,39.957419],[-105.228375,39.957564],[-105.227884,39.957294],[-105.227178,39.95931],[-105.224994,39.962364],[-105.223612,39.96328],[-105.22211,39.963656],[-105.220773,39.964916],[-105.21799,39.966936],[-105.219027,39.968208],[-105.21801,39.968641],[-105.216866,39.968159],[-105.215162,39.968699],[-105.214638,39.9692],[-105.214641,39.969631],[-105.212572,39.970972],[-105.207094,39.973628],[-105.206059,39.974472],[-105.205894,39.975899],[-105.204771,39.97681],[-105.204598,39.978146],[-105.203832,39.97899],[-105.202711,39.981433],[-105.201609,39.98184],[-105.20047,39.983315],[-105.200704,39.983724],[-105.200385,39.984029],[-105.199755,39.984073],[-105.198035,39.983381],[-105.197124,39.983571],[-105.195706,39.984759],[-105.194768,39.98498],[-105.193218,39.985861],[-105.192141,39.985813],[-105.189735,39.986356],[-105.188298,39.986162],[-105.187457,39.98638],[-105.187124,39.985364],[-105.186294,39.984496],[-105.185283,39.985366],[-105.183059,39.984895],[-105.180915,39.984166],[-105.18002,39.983117],[-105.179034,39.982793],[-105.178206,39.983386],[-105.177428,39.984546],[-105.17669,39.984294],[-105.176324,39.983207],[-105.175444,39.982943],[-105.175453,39.981777],[-105.176469,39.980891],[-105.177358,39.980833],[-105.177283,39.979924],[-105.173027,39.980495],[-105.172332,39.978676],[-105.171049,39.978671],[-105.170826,39.978887],[-105.169583,39.979003],[-105.16869,39.979366],[-105.166264,39.979391],[-105.165591,39.978286],[-105.163934,39.978832],[-105.163163,39.978126],[-105.162234,39.97786],[-105.161478,39.978855],[-105.160403,39.979396],[-105.159484,39.979186],[-105.15887,39.978533],[-105.157977,39.978638],[-105.15777,39.977555],[-105.15705,39.977226],[-105.156857,39.976393],[-105.158509,39.975632],[-105.159933,39.975261],[-105.160889,39.974453],[-105.162357,39.974153],[-105.164224,39.973214],[-105.16602,39.971573],[-105.167135,39.971353],[-105.167212,39.972041],[-105.167789,39.972425],[-105.168012,39.972998],[-105.170314,39.973344],[-105.17238,39.972544],[-105.173129,39.972847],[-105.172756,39.97339],[-105.173245,39.973825],[-105.174533,39.973637],[-105.175118,39.972093],[-105.181296,39.97156],[-105.183054,39.970596],[-105.182759,39.969435],[-105.183097,39.968296],[-105.184357,39.967232],[-105.184672,39.965892],[-105.187562,39.966939],[-105.190387,39.966912],[-105.190167,39.966431],[-105.188883,39.966316],[-105.18897,39.964482],[-105.186383,39.964676],[-105.18635,39.963509],[-105.184609,39.963752],[-105.184634,39.964174],[-105.184328,39.964454],[-105.183206,39.964156],[-105.182453,39.964311],[-105.178987,39.966263],[-105.17727,39.96444],[-105.174585,39.964869],[-105.171667,39.963934],[-105.170034,39.962435],[-105.16923,39.96037],[-105.16999,39.959385],[-105.164245,39.957478],[-105.160117,39.9555],[-105.158219,39.956181],[-105.155908,39.957688],[-105.155337,39.957479],[-105.154481,39.958312],[-105.152802,39.958598],[-105.15296,39.959746],[-105.155228,39.960166],[-105.157386,39.961076],[-105.1577,39.961596],[-105.156842,39.961772],[-105.154638,39.961643],[-105.152809,39.96258],[-105.151521,39.96204],[-105.150504,39.960385],[-105.148927,39.960476],[-105.148842,39.959723],[-105.146998,39.958846],[-105.145404,39.959344],[-105.144745,39.958827],[-105.143529,39.959243],[-105.142286,39.960157],[-105.141934,39.959321],[-105.140808,39.959405],[-105.140131,39.959086],[-105.136631,39.958946],[-105.134506,39.959179],[-105.131577,39.958785],[-105.131413,39.958351],[-105.132536,39.958236],[-105.131693,39.957528],[-105.134009,39.957766],[-105.135996,39.957555],[-105.137187,39.957774],[-105.13818,39.957406],[-105.1406,39.955567],[-105.142205,39.955457],[-105.144244,39.954073],[-105.146908,39.952769],[-105.148494,39.952833],[-105.148553,39.953871],[-105.149803,39.953687],[-105.150703,39.954066],[-105.151401,39.954089],[-105.152256,39.953791],[-105.152262,39.953091],[-105.153313,39.952288],[-105.153629,39.95174],[-105.152918,39.950572],[-105.150737,39.950314],[-105.150086,39.950964],[-105.147085,39.950169],[-105.146766,39.94753],[-105.14493,39.947141],[-105.146782,39.946092],[-105.148134,39.946678],[-105.151309,39.947206],[-105.163801,39.946809],[-105.16269,39.943338],[-105.161301,39.940683],[-105.161838,39.940434],[-105.162109,39.93988],[-105.161896,39.938826],[-105.162798,39.938364],[-105.163594,39.937358],[-105.16401,39.937326],[-105.164877,39.936687],[-105.1635,39.93588],[-105.157521,39.936686],[-105.157123,39.935362],[-105.15637,39.934412],[-105.155749,39.934268],[-105.155964,39.933639],[-105.156949,39.933129],[-105.155782,39.932502]]],[[[-105.133613,39.956527],[-105.133909,39.956604],[-105.133734,39.956735],[-105.133613,39.956527]]],[[[-105.165955,39.960943],[-105.165931,39.96033],[-105.166367,39.96034],[-105.166198,39.960954],[-105.165955,39.960943]]],[[[-105.160518,39.96131],[-105.160792,39.959691],[-105.161749,39.960021],[-105.162046,39.961301],[-105.161616,39.961889],[-105.162294,39.96233],[-105.1622,39.963386],[-105.161257,39.96374],[-105.160518,39.96131]]],[[[-105.16542,39.964379],[-105.167972,39.963555],[-105.168177,39.964429],[-105.166059,39.966453],[-105.164576,39.966175],[-105.16542,39.964379]]],[[[-105.155595,39.972012],[-105.154665,39.971954],[-105.154926,39.97132],[-105.155328,39.971354],[-105.155595,39.972012]]],[[[-105.158992,39.971676],[-105.160294,39.971225],[-105.160423,39.97093],[-105.160682,39.971147],[-105.161066,39.970851],[-105.161104,39.972542],[-105.157218,39.972801],[-105.156311,39.972625],[-105.156164,39.971161],[-105.156408,39.971152],[-105.156518,39.970803],[-105.157337,39.971718],[-105.158992,39.971676]]],[[[-105.152272,39.973852],[-105.152051,39.97395],[-105.15211,39.973734],[-105.152272,39.973852]]],[[[-105.154377,39.974076],[-105.153672,39.974146],[-105.153634,39.974937],[-105.153119,39.974864],[-105.153253,39.973808],[-105.153617,39.973705],[-105.15379,39.973997],[-105.154377,39.974076]]],[[[-105.154371,39.977796],[-105.154065,39.977631],[-105.154241,39.977269],[-105.154528,39.977277],[-105.154371,39.977796]]]]},"properties":{"name":"Marshall Fire (2021) perimeter"}}]}