{"type":"FeatureCollection","features":[{"type":"Feature","geometry":{"type":"MultiPolygon","coordinates":[[[[-122.432968,40.601924],[-122.433188,40.601986],[-122.433112,40.602143],[-122.432893,40.602081],[-122.432968,40.601924]]]]},"properties":{"occupancy":"Residential"}},{"type":"Feature","geometry":{"type":"MultiPolygon","coordinates":[[[[-122.433301,40.601957],[-122.433513,40.602076],[-122.433365,40.602228],[-122.433153,40.602109],[-122.433301,40.601957]]]]},"properties":{"occupancy":"Residential"}},{"type":"Feature","geometry":{"type":"MultiPolygon","coordinates":[[[[-122.433732,40.602099],[-122.433722,40.602199],[-122.433751,40.602201],[-122.433755,40.602168],[-122.433988,40.602181],[-122.433968,40.602381],[-122.433808,40.602372],[-122.433818,40.602272],[-122.433453,40.602251],[-122.433469,40.602084],[-122.433732,40.602099]]]]},"properties":{"occupancy":"Residential"}},{"type":"Feature","geometry":{"type":"MultiPolygon","coordinates":[[[[-122.43357,40.602592],[-122.433517,40.602765],[-122.433303,40.602727],[-122.433356,40.602553],[-122.43357,40.602592]]]]},"properties":{"occupancy":"Residential"}},{"type":"Feature","geometry":{"type":"MultiPolygon","coordinates":[[[[-122.432935,40.602657],[-122.432874,40.602829],[-122.432662,40.602785],[-122.432723,40.602613],[-122.432935,40.602657]]]]},"properties":{"occupancy":"Residential"}},{"type":"Feature","geometry":{"type":"MultiPolygon","coordinates":[[[[-122.434044,40.602715],[-122.43396,40.602869],[-122.433757,40.602805],[-122.433841,40.602651],[-122.434044,40.602715]]]]},"properties":{"occupancy":"Residential"}},{"type":"Feature","geometry":{"type":"MultiPolygon","coordinates":[[[[-122.432846,40.603059],[-122.432626,40.603065],[-122.432619,40.602898],[-122.432838,40.602892],[-122.432846,40.603059]]]]},"properties":{"occupancy":"Residential"}},{"type":"Feature","geometry":{"type":"MultiPolygon","coordinates":[[[[-122.433891,40.603111],[-122.433691,40.603077],[-122.433746,40.602892],[-122.433946,40.602926],[-122.433891,40.603111]]]]},"properties":{"occupancy":"Residential"}},{"type":"Feature","geometry":{"type":"MultiPolygon","coordinates":[[[[-122.433392,40.603233],[-122.433198,40.603183],[-122.433318,40.602909],[-122.433235,40.602887],[-122.433272,40.602803],[-122.433536,40.60287],[-122.433471,40.603018],[-122.43336,40.60299],[-122.433346,40.603021],[-122.433471,40.603053],[-122.433392,40.603233]]]]},"properties":{"occupancy":"Residential"}},{"type":"Feature","geometry":{"type":"MultiPolygon","coordinates":[[[[-122.432753,40.603245],[-122.432772,40.603299],[-122.432617,40.603331],[-122.43256,40.60317],[-122.432814,40.603117],[-122.432852,40.603225],[-122.432753,40.603245]]]]},"properties":{"occupancy":"Residential"}},{"type":"Feature","geometry":{"type":"MultiPolygon","coordinates":[[[[-122.433899,40.603319],[-122.43368,40.603327],[-122.43367,40.60316],[-122.433889,40.603152],[-122.433899,40.603319]]]]},"properties":{"occupancy":"Residential"}},{"type":"Feature","geometry":{"type":"MultiPolygon","coordinates":[[[[-122.433158,40.603373],[-122.433187,40.603253],[-122.433432,40.603287],[-122.433387,40.603473],[-122.433214,40.603449],[-122.43323,40.603383],[-122.433158,40.603373]]]]},"properties":{"occupancy":"Residential"}},{"type":"Feature","geometry":{"type":"MultiPolygon","coordinates":[[[[-122.432628,40.603352],[-122.432803,40.603344],[-122.432819,40.603533],[-122.432644,40.603541],[-122.432628,40.603352]]]]},"properties":{"occupancy":"Residential"}},{"type":"Feature","geometry":{"type":"MultiPolygon","coordinates":[[[[-122.433662,40.603379],[-122.433895,40.603359],[-122.433922,40.603547],[-122.43369,40.603567],[-122.433662,40.603379]]]]},"properties":{"occupancy":"Residential"}},{"type":"Feature","geometry":{"type":"MultiPolygon","coordinates":[[[[-122.433289,40.603577],[-122.433276,40.603488],[-122.433436,40.603475],[-122.433463,40.603652],[-122.433186,40.603676],[-122.433173,40.603587],[-122.433289,40.603577]]]]},"properties":{"occupancy":"Residential"}},{"type":"Feature","geometry":{"type":"MultiPolygon","coordinates":[[[[-122.432624,40.603623],[-122.432825,40.603594],[-122.43287,40.603769],[-122.432669,40.603799],[-122.432624,40.603623]]]]},"properties":{"occupancy":"Residential"}},{"type":"Feature","geometry":{"type":"MultiPolygon","coordinates":[[[[-122.433747,40.603641],[-122.433919,40.603612],[-122.433969,40.603787],[-122.433798,40.603815],[-122.433747,40.603641]]]]},"properties":{"occupancy":"Residential"}},{"type":"Feature","geometry":{"type":"MultiPolygon","coordinates":[[[[-122.433259,40.603831],[-122.433338,40.603801],[-122.433293,40.603731],[-122.433424,40.603682],[-122.43352,40.603833],[-122.43331,40.603911],[-122.433259,40.603831]]]]},"properties":{"occupancy":"Residential"}},{"type":"Feature","geometry":{"type":"MultiPolygon","coordinates":[[[[-122.433867,40.604079],[-122.433792,40.603898],[-122.434001,40.603848],[-122.434076,40.604028],[-122.433867,40.604079]]]]},"properties":{"occupancy":"Residential"}},{"type":"Feature","geometry":{"type":"MultiPolygon","coordinates":[[[[-122.433582,40.604105],[-122.433412,40.60414],[-122.433355,40.603978],[-122.433525,40.603943],[-122.433582,40.604105]]]]},"properties":{"occupancy":"Residential"}},{"type":"Feature","geometry":{"type":"MultiPolygon","coordinates":[[[[-122.432892,40.604024],[-122.432904,40.604101],[-122.433006,40.604092],[-122.433022,40.604192],[-122.43279,40.604213],[-122.432761,40.604036],[-122.432892,40.604024]]]]},"properties":{"occupancy":"Residential"}},{"type":"Feature","geometry":{"type":"MultiPolygon","coordinates":[[[[-122.434111,40.604211],[-122.433925,40.604242],[-122.433878,40.604079],[-122.434064,40.604047],[-122.434111,40.604211]]]]},"properties":{"occupancy":"Residential"}},{"type":"Feature","geometry":{"type":"MultiPolygon","coordinates":[[[[-122.433381,40.604274],[-122.433447,40.60425],[-122.433409,40.60419],[-122.433568,40.604132],[-122.433662,40.604283],[-122.433437,40.604365],[-122.433381,40.604274]]]]},"properties":{"occupancy":"Residential"}},{"type":"Feature","geometry":{"type":"MultiPolygon","coordinates":[[[[-122.433027,40.604449],[-122.432836,40.604451],[-122.432833,40.604261],[-122.433023,40.604259],[-122.433027,40.604449]]]]},"properties":{"occupancy":"Residential"}},{"type":"Feature","geometry":{"type":"MultiPolygon","coordinates":[[[[-122.433553,40.604504],[-122.433467,40.604515],[-122.433444,40.604417],[-122.433675,40.604386],[-122.433712,40.604551],[-122.433568,40.60457],[-122.433553,40.604504]]]]},"properties":{"occupancy":"Residential"}},{"type":"Feature","geometry":{"type":"MultiPolygon","coordinates":[[[[-122.433056,40.604558],[-122.433108,40.604721],[-122.432909,40.604757],[-122.432857,40.604595],[-122.433056,40.604558]]]]},"properties":{"occupancy":"Residential"}},{"type":"Feature","geometry":{"type":"MultiPolygon","coordinates":[[[[-122.433167,40.604805],[-122.433205,40.604789],[-122.433269,40.604876],[-122.433065,40.604963],[-122.432958,40.604817],[-122.433124,40.604747],[-122.433167,40.604805]]]]},"properties":{"occupancy":"Residential"}},{"type":"Feature","geometry":{"type":"MultiPolygon","coordinates":[[[[-122.435487,40.601781],[-122.435427,40.601632],[-122.435693,40.60157],[-122.435752,40.60172],[-122.435487,40.601781]]]]},"properties":{"occupancy":"Residential"}},{"type":"Feature","geometry":{"type":"MultiPolygon","coordinates":[[[[-122.434858,40.601809],[-122.435065,40.601725],[-122.435106,40.601784],[-122.435132,40.601774],[-122.435104,40.601735],[-122.435324,40.601646],[-122.435454,40.601833],[-122.435325,40.601885],[-122.43527,40.601806],[-122.434947,40.601937],[-122.434858,40.601809]]]]},"properties":{"occupancy":"Residential"}},{"type":"Feature","geometry":{"type":"MultiPolygon","coordinates":[[[[-122.43592,40.601736],[-122.436178,40.601699],[-122.436225,40.601885],[-122.435966,40.601922],[-122.43592,40.601736]]]]},"properties":{"occupancy":"Residential"}},{"type":"Feature","geometry":{"type":"MultiPolygon","coordinates":[[[[-122.434626,40.602004],[-122.434585,40.601874],[-122.434812,40.601832],[-122.434853,40.601962],[-122.434626,40.602004]]]]},"properties":{"occupancy":"Residential"}},{"type":"Feature","geometry":{"type":"MultiPolygon","coordinates":[[[[-122.434312,40.602181],[-122.434161,40.602093],[-122.434295,40.60196],[-122.434434,40.602041],[-122.434532,40.601944],[-122.43459,40.601978],[-122.434412,40.602155],[-122.434366,40.602128],[-122.434312,40.602181]]]]},"properties":{"occupancy":"Residential"}},{"type":"Feature","geometry":{"type":"MultiPolygon","coordinates":[[[[-122.43602,40.601946],[-122.436217,40.602042],[-122.436097,40.602183],[-122.435901,40.602086],[-122.43602,40.601946]]]]},"properties":{"occupancy":"Residential"}},{"type":"Feature","geometry":{"type":"MultiPolygon","coordinates":[[[[-122.43592,40.60216],[-122.435962,40.602289],[-122.435679,40.602344],[-122.435611,40.602138],[-122.435767,40.602108],[-122.435792,40.602184],[-122.43592,40.60216]]]]},"properties":{"occupancy":"Residential"}},{"type":"Feature","geometry":{"type":"MultiPolygon","coordinates":[[[[-122.43556,40.60234],[-122.43545,40.602309],[-122.43542,40.602372],[-122.435228,40.602318],[-122.435319,40.60213],[-122.435621,40.602215],[-122.43556,40.60234]]]]},"properties":{"occupancy":"Residential"}},{"type":"Feature","geometry":{"type":"MultiPolygon","coordinates":[[[[-122.434029,40.602425],[-122.434019,40.602191],[-122.434209,40.602186],[-122.434219,40.60242],[-122.434029,40.602425]]]]},"properties":{"occupancy":"Residential"}},{"type":"Feature","geometry":{"type":"MultiPolygon","coordinates":[[[[-122.434871,40.60226],[-122.434921,40.602341],[-122.434974,40.602322],[-122.434899,40.602201],[-122.434939,40.602186],[-122.434982,40.602257],[-122.435168,40.602191],[-122.435286,40.602383],[-122.435273,40.602387],[-122.435248,40.602347],[-122.435062,40.602413],[-122.435025,40.602353],[-122.434932,40.602386],[-122.434963,40.602436],[-122.434778,40.602503],[-122.434672,40.602331],[-122.434871,40.60226]]]]},"properties":{"occupancy":"Residential"}},{"type":"Feature","geometry":{"type":"MultiPolygon","coordinates":[[[[-122.434566,40.602617],[-122.434473,40.602584],[-122.434529,40.602493],[-122.434794,40.602588],[-122.434695,40.60275],[-122.434523,40.602688],[-122.434566,40.602617]]]]},"properties":{"occupancy":"Residential"}},{"type":"Feature","geometry":{"type":"MultiPolygon","coordinates":[[[[-122.43453,40.602735],[-122.434705,40.602791],[-122.43461,40.602966],[-122.434326,40.602876],[-122.434371,40.602794],[-122.434479,40.602828],[-122.43453,40.602735]]]]},"properties":{"occupancy":"Residential"}},{"type":"Feature","geometry":{"type":"MultiPolygon","coordinates":[[[[-122.434334,40.603107],[-122.434366,40.603057],[-122.434287,40.603028],[-122.434338,40.602948],[-122.434615,40.603049],[-122.434532,40.60318],[-122.434334,40.603107]]]]},"properties":{"occupancy":"Residential"}},{"type":"Feature","geometry":{"type":"MultiPolygon","coordinates":[[[[-122.434267,40.603224],[-122.43453,40.603208],[-122.434546,40.603364],[-122.434283,40.60338],[-122.434267,40.603224]]]]},"properties":{"occupancy":"Residential"}},{"type":"Feature","geometry":{"type":"MultiPolygon","coordinates":[[[[-122.434774,40.603517],[-122.434822,40.603366],[-122.435064,40.603411],[-122.435015,40.603562],[-122.434774,40.603517]]]]},"properties":{"occupancy":"Residential"}},{"type":"Feature","geometry":{"type":"MultiPolygon","coordinates":[[[[-122.434571,40.603587],[-122.434337,40.603601],[-122.434319,40.603423],[-122.434552,40.603409],[-122.434571,40.603587]]]]},"properties":{"occupancy":"Residential"}},{"type":"Feature","geometry":{"type":"MultiPolygon","coordinates":[[[[-122.435392,40.603551],[-122.435336,40.603616],[-122.435483,40.603689],[-122.435531,40.603633],[-122.435715,40.603724],[-122.435603,40.603855],[-122.435382,40.603746],[-122.43539,40.603736],[-122.435047,40.603566],[-122.435159,40.603435],[-122.435392,40.603551]]]]},"properties":{"occupancy":"Residential"}},{"type":"Feature","geometry":{"type":"MultiPolygon","coordinates":[[[[-122.43565,40.603899],[-122.435721,40.603777],[-122.435922,40.603844],[-122.435821,40.604018],[-122.435701,40.603977],[-122.43573,40.603926],[-122.43565,40.603899]]]]},"properties":{"occupancy":"Residential"}},{"type":"Feature","geometry":{"type":"MultiPolygon","coordinates":[[[[-122.43436,40.603919],[-122.434586,40.60384],[-122.434678,40.603992],[-122.434452,40.604071],[-122.43436,40.603919]]]]},"properties":{"occupancy":"Residential"}},{"type":"Feature","geometry":{"type":"MultiPolygon","coordinates":[[[[-122.434944,40.603899],[-122.43512,40.603901],[-122.435115,40.604113],[-122.434939,40.604111],[-122.434944,40.603899]]]]},"properties":{"occupancy":"Residential"}},{"type":"Feature","geometry":{"type":"MultiPolygon","coordinates":[[[[-122.436127,40.60394],[-122.436256,40.604102],[-122.436069,40.604189],[-122.43594,40.604027],[-122.436127,40.60394]]]]},"properties":{"occupancy":"Residential"}},{"type":"Feature","geometry":{"type":"MultiPolygon","coordinates":[[[[-122.435269,40.604244],[-122.435088,40.604131],[-122.435199,40.604027],[-122.43538,40.60414],[-122.435269,40.604244]]]]},"properties":{"occupancy":"Residential"}},{"type":"Feature","geometry":{"type":"MultiPolygon","coordinates":[[[[-122.43635,40.604148],[-122.436551,40.60426],[-122.436422,40.604395],[-122.436221,40.604283],[-122.43635,40.604148]]]]},"properties":{"occupancy":"Residential"}},{"type":"Feature","geometry":{"type":"MultiPolygon","coordinates":[[[[-122.434516,40.604195],[-122.434684,40.604155],[-122.434758,40.604336],[-122.434591,40.604376],[-122.434516,40.604195]]]]},"properties":{"occupancy":"Residential"}},{"type":"Feature","geometry":{"type":"MultiPolygon","coordinates":[[[[-122.436705,40.604383],[-122.436605,40.604302],[-122.436785,40.604171],[-122.436956,40.604309],[-122.436808,40.604416],[-122.436737,40.60436],[-122.436705,40.604383]]]]},"properties":{"occupancy":"Residential"}},{"type":"Feature","geometry":{"type":"MultiPolygon","coordinates":[[[[-122.435475,40.6042],[-122.435648,40.60432],[-122.43553,40.604419],[-122.435357,40.604299],[-122.435475,40.6042]]]]},"properties":{"occupancy":"Residential"}},{"type":"Feature","geometry":{"type":"MultiPolygon","coordinates":[[[[-122.433935,40.604323],[-122.434138,40.604301],[-122.434171,40.604478],[-122.433968,40.6045],[-122.433935,40.604323]]]]},"properties":{"occupancy":"Residential"}},{"type":"Feature","geometry":{"type":"MultiPolygon","coordinates":[[[[-122.435726,40.604569],[-122.43556,40.604499],[-122.435687,40.604323],[-122.435853,40.604393],[-122.435726,40.604569]]]]},"properties":{"occupancy":"Residential"}},{"type":"Feature","geometry":{"type":"MultiPolygon","coordinates":[[[[-122.434592,40.604597],[-122.434584,40.60443],[-122.434833,40.604423],[-122.434841,40.60459],[-122.434592,40.604597]]]]},"properties":{"occupancy":"Residential"}},{"type":"Feature","geometry":{"type":"MultiPolygon","coordinates":[[[[-122.436992,40.60461],[-122.436958,40.60449],[-122.437215,40.604448],[-122.437277,40.604666],[-122.437091,40.604696],[-122.437063,40.604598],[-122.436992,40.60461]]]]},"properties":{"occupancy":"Residential"}},{"type":"Feature","geometry":{"type":"MultiPolygon","coordinates":[[[[-122.435142,40.604629],[-122.435028,40.604649],[-122.435002,40.604562],[-122.435116,40.604542],[-122.435142,40.604629]]]]},"properties":{"occupancy":"Residential"}},{"type":"Feature","geometry":{"type":"MultiPolygon","coordinates":[[[[-122.436201,40.604827],[-122.436067,40.604694],[-122.436241,40.604592],[-122.436374,40.604725],[-122.436201,40.604827]]]]},"properties":{"occupancy":"Residential"}},{"type":"Feature","geometry":{"type":"MultiPolygon","coordinates":[[[[-122.43492,40.604792],[-122.434722,40.604832],[-122.434663,40.604659],[-122.434861,40.60462],[-122.43492,40.604792]]]]},"properties":{"occupancy":"Residential"}},{"type":"Feature","geometry":{"type":"MultiPolygon","coordinates":[[[[-122.436406,40.604734],[-122.436554,40.604643],[-122.436811,40.604886],[-122.436731,40.604935],[-122.436704,40.604909],[-122.436635,40.604951],[-122.436406,40.604734]]]]},"properties":{"occupancy":"Residential"}},{"type":"Feature","geometry":{"type":"MultiPolygon","coordinates":[[[[-122.436978,40.6047],[-122.437119,40.604882],[-122.436943,40.604961],[-122.436801,40.604779],[-122.436978,40.6047]]]]},"properties":{"occupancy":"Residential"}},{"type":"Feature","geometry":{"type":"MultiPolygon","coordinates":[[[[-122.434296,40.604867],[-122.434113,40.604905],[-122.434055,40.604744],[-122.434238,40.604705],[-122.434296,40.604867]]]]},"properties":{"occupancy":"Residential"}},{"type":"Feature","geometry":{"type":"MultiPolygon","coordinates":[[[[-122.435465,40.604728],[-122.435713,40.604711],[-122.435734,40.604888],[-122.435487,40.604905],[-122.435465,40.604728]]]]},"properties":{"occupancy":"Residential"}},{"type":"Feature","geometry":{"type":"MultiPolygon","coordinates":[[[[-122.434753,40.604863],[-122.43503,40.604872],[-122.435021,40.605039],[-122.434816,40.605032],[-122.43482,40.604965],[-122.434747,40.604963],[-122.434753,40.604863]]]]},"properties":{"occupancy":"Residential"}},{"type":"Feature","geometry":{"type":"MultiPolygon","coordinates":[[[[-122.434175,40.604976],[-122.434375,40.604943],[-122.434421,40.605107],[-122.434221,40.605139],[-122.434175,40.604976]]]]},"properties":{"occupancy":"Residential"}},{"type":"Feature","geometry":{"type":"MultiPolygon","coordinates":[[[[-122.436204,40.605151],[-122.436195,40.604962],[-122.436414,40.604955],[-122.436424,40.605145],[-122.436204,40.605151]]]]},"properties":{"occupancy":"Residential"}},{"type":"Feature","geometry":{"type":"MultiPolygon","coordinates":[[[[-122.435547,40.605129],[-122.43556,40.605018],[-122.435472,40.605012],[-122.435476,40.604979],[-122.435811,40.605001],[-122.435795,40.605145],[-122.435547,40.605129]]]]},"properties":{"occupancy":"Residential"}},{"type":"Feature","geometry":{"type":"MultiPolygon","coordinates":[[[[-122.435017,40.605249],[-122.435027,40.605183],[-122.43494,40.605175],[-122.434957,40.605064],[-122.435233,40.605088],[-122.435206,40.605265],[-122.435017,40.605249]]]]},"properties":{"occupancy":"Residential"}},{"type":"Feature","geometry":{"type":"MultiPolygon","coordinates":[[[[-122.434451,40.605391],[-122.434378,40.605175],[-122.434548,40.605142],[-122.434621,40.605358],[-122.434451,40.605391]]]]},"properties":{"occupancy":"Residential"}},{"type":"Feature","geometry":{"type":"MultiPolygon","coordinates":[[[[-122.435781,40.605188],[-122.43578,40.605255],[-122.435868,40.605256],[-122.435866,40.605356],[-122.435618,40.605354],[-122.43562,40.605187],[-122.435781,40.605188]]]]},"properties":{"occupancy":"Residential"}},{"type":"Feature","geometry":{"type":"MultiPolygon","coordinates":[[[[-122.436266,40.605425],[-122.436222,40.60525],[-122.436365,40.605229],[-122.436409,40.605404],[-122.436266,40.605425]]]]},"properties":{"occupancy":"Residential"}},{"type":"Feature","geometry":{"type":"MultiPolygon","coordinates":[[[[-122.435356,40.605449],[-122.435169,40.605513],[-122.435056,40.60532],[-122.435243,40.605256],[-122.435356,40.605449]]]]},"properties":{"occupancy":"Residential"}},{"type":"Feature","geometry":{"type":"MultiPolygon","coordinates":[[[[-122.435927,40.605588],[-122.435714,40.605628],[-122.435661,40.605466],[-122.435874,40.605426],[-122.435927,40.605588]]]]},"properties":{"occupancy":"Residential"}},{"type":"Feature","geometry":{"type":"MultiPolygon","coordinates":[[[[-122.434786,40.605581],[-122.434537,40.605578],[-122.434541,40.605433],[-122.434789,40.605436],[-122.434786,40.605581]]]]},"properties":{"occupancy":"Residential"}},{"type":"Feature","geometry":{"type":"MultiPolygon","coordinates":[[[[-122.436587,40.605427],[-122.436605,40.605605],[-122.436401,40.605617],[-122.436383,40.605439],[-122.436587,40.605427]]]]},"properties":{"occupancy":"Residential"}},{"type":"Feature","geometry":{"type":"MultiPolygon","coordinates":[[[[-122.435274,40.605712],[-122.435208,40.60553],[-122.435405,40.605488],[-122.435472,40.605671],[-122.435274,40.605712]]]]},"properties":{"occupancy":"Residential"}},{"type":"Feature","geometry":{"type":"MultiPolygon","coordinates":[[[[-122.434653,40.605708],[-122.434854,40.605678],[-122.434898,40.605853],[-122.434697,40.605883],[-122.434653,40.605708]]]]},"properties":{"occupancy":"Residential"}},{"type":"Feature","geometry":{"type":"MultiPolygon","coordinates":[[[[-122.436586,40.60577],[-122.436518,40.605941],[-122.436308,40.605893],[-122.436376,40.605722],[-122.436586,40.60577]]]]},"properties":{"occupancy":"Residential"}},{"type":"Feature","geometry":{"type":"MultiPolygon","coordinates":[[[[-122.435814,40.606093],[-122.435713,40.605908],[-122.435888,40.605852],[-122.43599,40.606037],[-122.435814,40.606093]]]]},"properties":{"occupancy":"Residential"}},{"type":"Feature","geometry":{"type":"MultiPolygon","coordinates":[[[[-122.436188,40.605858],[-122.43634,40.605978],[-122.436161,40.606109],[-122.436009,40.605989],[-122.436188,40.605858]]]]},"properties":{"occupancy":"Residential"}},{"type":"Feature","geometry":{"type":"MultiPolygon","coordinates":[[[[-122.435376,40.606196],[-122.435548,40.60617],[-122.435597,40.606356],[-122.435425,40.606382],[-122.435376,40.606196]]]]},"properties":{"occupancy":"Residential"}},{"type":"Feature","geometry":{"type":"MultiPolygon","coordinates":[[[[-122.434789,40.606371],[-122.434767,40.606193],[-122.434971,40.606179],[-122.434993,40.606356],[-122.434789,40.606371]]]]},"properties":{"occupancy":"Residential"}},{"type":"Feature","geometry":{"type":"MultiPolygon","coordinates":[[[[-122.435358,40.606586],[-122.435367,40.606419],[-122.435572,40.606425],[-122.435563,40.606593],[-122.435358,40.606586]]]]},"properties":{"occupancy":"Residential"}},{"type":"Feature","geometry":{"type":"MultiPolygon","coordinates":[[[[-122.434821,40.606464],[-122.434874,40.606603],[-122.434664,40.606649],[-122.434611,40.60651],[-122.434821,40.606464]]]]},"properties":{"occupancy":"Residential"}},{"type":"Feature","geometry":{"type":"MultiPolygon","coordinates":[[[[-122.434678,40.606678],[-122.434881,40.606695],[-122.434857,40.606861],[-122.434653,40.606844],[-122.434678,40.606678]]]]},"properties":{"occupancy":"Unclassified"}},{"type":"Feature","geometry":{"type":"MultiPolygon","coordinates":[[[[-122.435262,40.606768],[-122.435516,40.606714],[-122.435563,40.606843],[-122.435309,40.606897],[-122.435262,40.606768]]]]},"properties":{"occupancy":"Unclassified"}},{"type":"Feature","geometry":{"type":"MultiPolygon","coordinates":[[[[-122.426366,40.600535],[-122.426274,40.600723],[-122.426,40.600645],[-122.426118,40.600405],[-122.426228,40.600436],[-122.426202,40.600488],[-122.426366,40.600535]]]]},"properties":{"occupancy":"Residential"}},{"type":"Feature","geometry":{"type":"MultiPolygon","coordinates":[[[[-122.426694,40.600716],[-122.426579,40.600699],[-122.426621,40.600535],[-122.426879,40.600573],[-122.426803,40.600869],[-122.426502,40.600824],[-122.426522,40.600747],[-122.42668,40.600771],[-122.426694,40.600716]]]]},"properties":{"occupancy":"Residential"}},{"type":"Feature","geometry":{"type":"MultiPolygon","coordinates":[[[[-122.426519,40.600591],[-122.426464,40.600669],[-122.426335,40.600616],[-122.426391,40.600538],[-122.426519,40.600591]]]]},"properties":{"occupancy":"Residential"}},{"type":"Feature","geometry":{"type":"MultiPolygon","coordinates":[[[[-122.42488,40.600678],[-122.424861,40.600755],[-122.424919,40.600763],[-122.424941,40.600676],[-122.425056,40.600692],[-122.425001,40.600911],[-122.424742,40.600874],[-122.424794,40.600666],[-122.42488,40.600678]]]]},"properties":{"occupancy":"Residential"}},{"type":"Feature","geometry":{"type":"MultiPolygon","coordinates":[[[[-122.425518,40.600855],[-122.42545,40.601002],[-122.425174,40.600927],[-122.425267,40.600727],[-122.425391,40.600761],[-122.425367,40.600814],[-122.425518,40.600855]]]]},"properties":{"occupancy":"Residential"}},{"type":"Feature","geometry":{"type":"MultiPolygon","coordinates":[[[[-122.427089,40.600852],[-122.427066,40.60088],[-122.426979,40.60084],[-122.427054,40.600745],[-122.427392,40.6009],[-122.427279,40.601043],[-122.427166,40.600991],[-122.427106,40.601068],[-122.426993,40.601016],[-122.427114,40.600863],[-122.427089,40.600852]]]]},"properties":{"occupancy":"Residential"}},{"type":"Feature","geometry":{"type":"MultiPolygon","coordinates":[[[[-122.425777,40.601101],[-122.425505,40.60097],[-122.425606,40.600848],[-122.425879,40.600978],[-122.425777,40.601101]]]]},"properties":{"occupancy":"Residential"}},{"type":"Feature","geometry":{"type":"MultiPolygon","coordinates":[[[[-122.427583,40.601108],[-122.427592,40.601163],[-122.427461,40.601175],[-122.427426,40.600942],[-122.427716,40.600916],[-122.427743,40.601093],[-122.427583,40.601108]]]]},"properties":{"occupancy":"Residential"}},{"type":"Feature","geometry":{"type":"MultiPolygon","coordinates":[[[[-122.425989,40.600994],[-122.426098,40.601026],[-122.426066,40.601089],[-122.426216,40.601133],[-122.426146,40.601268],[-122.425888,40.601191],[-122.425989,40.600994]]]]},"properties":{"occupancy":"Residential"}},{"type":"Feature","geometry":{"type":"MultiPolygon","coordinates":[[[[-122.425826,40.601252],[-122.425894,40.601324],[-122.425799,40.601377],[-122.425731,40.601304],[-122.425826,40.601252]]]]},"properties":{"occupancy":"Residential"}},{"type":"Feature","geometry":{"type":"MultiPolygon","coordinates":[[[[-122.42656,40.601183],[-122.426514,40.601265],[-122.426649,40.601309],[-122.42658,40.601432],[-122.426338,40.601353],[-122.426452,40.601148],[-122.42656,40.601183]]]]},"properties":{"occupancy":"Residential"}},{"type":"Feature","geometry":{"type":"MultiPolygon","coordinates":[[[[-122.426661,40.601423],[-122.426743,40.601447],[-122.426683,40.601561],[-122.426601,40.601536],[-122.426661,40.601423]]]]},"properties":{"occupancy":"Residential"}},{"type":"Feature","geometry":{"type":"MultiPolygon","coordinates":[[[[-122.427041,40.601454],[-122.426962,40.601621],[-122.426714,40.601553],[-122.426843,40.601281],[-122.426953,40.601311],[-122.426904,40.601416],[-122.427041,40.601454]]]]},"properties":{"occupancy":"Residential"}},{"type":"Feature","geometry":{"type":"MultiPolygon","coordinates":[[[[-122.427733,40.601478],[-122.427743,40.601678],[-122.427524,40.601685],[-122.427514,40.601484],[-122.427733,40.601478]]]]},"properties":{"occupancy":"Residential"}},{"type":"Feature","geometry":{"type":"MultiPolygon","coordinates":[[[[-122.427424,40.601559],[-122.427425,40.601693],[-122.427147,40.601695],[-122.427144,40.601416],[-122.427305,40.601415],[-122.427307,40.60156],[-122.427424,40.601559]]]]},"properties":{"occupancy":"Residential"}},{"type":"Feature","geometry":{"type":"MultiPolygon","coordinates":[[[[-122.429656,40.600526],[-122.429722,40.600571],[-122.429644,40.600638],[-122.429578,40.600593],[-122.429656,40.600526]]]]},"properties":{"occupancy":"Unclassified"}},{"type":"Feature","geometry":{"type":"MultiPolygon","coordinates":[[[[-122.429173,40.60063],[-122.429161,40.600707],[-122.429248,40.600715],[-122.429232,40.600825],[-122.429086,40.600813],[-122.429115,40.600624],[-122.429173,40.60063]]]]},"properties":{"occupancy":"Unclassified"}},{"type":"Feature","geometry":{"type":"MultiPolygon","coordinates":[[[[-122.429219,40.600986],[-122.429121,40.600938],[-122.429312,40.600713],[-122.429557,40.600835],[-122.42943,40.600984],[-122.429283,40.600911],[-122.429219,40.600986]]]]},"properties":{"occupancy":"Residential"}},{"type":"Feature","geometry":{"type":"MultiPolygon","coordinates":[[[[-122.428367,40.600842],[-122.428684,40.600726],[-122.428823,40.600947],[-122.428718,40.600986],[-122.428673,40.600916],[-122.428462,40.600993],[-122.428367,40.600842]]]]},"properties":{"occupancy":"Residential"}},{"type":"Feature","geometry":{"type":"MultiPolygon","coordinates":[[[[-122.428058,40.601077],[-122.427898,40.60109],[-122.427878,40.600946],[-122.42814,40.600925],[-122.428169,40.601136],[-122.428067,40.601144],[-122.428058,40.601077]]]]},"properties":{"occupancy":"Residential"}},{"type":"Feature","geometry":{"type":"MultiPolygon","coordinates":[[[[-122.430274,40.601131],[-122.430217,40.601338],[-122.429988,40.601301],[-122.430046,40.601094],[-122.430274,40.601131]]]]},"properties":{"occupancy":"Residential"}},{"type":"Feature","geometry":{"type":"MultiPolygon","coordinates":[[[[-122.430476,40.601491],[-122.430376,40.601381],[-122.430544,40.601292],[-122.430703,40.601465],[-122.430427,40.601612],[-122.430368,40.601548],[-122.430476,40.601491]]]]},"properties":{"occupancy":"Residential"}},{"type":"Feature","geometry":{"type":"MultiPolygon","coordinates":[[[[-122.429486,40.601408],[-122.429406,40.601564],[-122.429134,40.601483],[-122.429213,40.601327],[-122.429486,40.601408]]]]},"properties":{"occupancy":"Residential"}},{"type":"Feature","geometry":{"type":"MultiPolygon","coordinates":[[[[-122.428837,40.601338],[-122.428854,40.601437],[-122.429014,40.601421],[-122.429043,40.601587],[-122.428782,40.601613],[-122.428736,40.601348],[-122.428837,40.601338]]]]},"properties":{"occupancy":"Residential"}},{"type":"Feature","geometry":{"type":"MultiPolygon","coordinates":[[[[-122.428492,40.601391],[-122.428621,40.601526],[-122.428397,40.601651],[-122.428267,40.601516],[-122.428492,40.601391]]]]},"properties":{"occupancy":"Residential"}},{"type":"Feature","geometry":{"type":"MultiPolygon","coordinates":[[[[-122.428025,40.601417],[-122.428031,40.601462],[-122.42822,40.601448],[-122.428245,40.601636],[-122.427968,40.601657],[-122.427938,40.601424],[-122.428025,40.601417]]]]},"properties":{"occupancy":"Residential"}},{"type":"Feature","geometry":{"type":"MultiPolygon","coordinates":[[[[-122.429661,40.6015],[-122.429753,40.60164],[-122.429871,40.601595],[-122.429917,40.601664],[-122.429669,40.601759],[-122.429596,40.60165],[-122.429544,40.60167],[-122.429478,40.60157],[-122.429661,40.6015]]]]},"properties":{"occupancy":"Residential"}},{"type":"Feature","geometry":{"type":"MultiPolygon","coordinates":[[[[-122.43044,40.601841],[-122.430629,40.601827],[-122.430613,40.601705],[-122.430787,40.601691],[-122.430814,40.601891],[-122.43045,40.601919],[-122.43044,40.601841]]]]},"properties":{"occupancy":"Residential"}},{"type":"Feature","geometry":{"type":"MultiPolygon","coordinates":[[[[-122.429879,40.601894],[-122.429879,40.602005],[-122.430026,40.602005],[-122.430026,40.602083],[-122.429704,40.602083],[-122.429704,40.601894],[-122.429879,40.601894]]]]},"properties":{"occupancy":"Residential"}},{"type":"Feature","geometry":{"type":"MultiPolygon","coordinates":[[[[-122.429203,40.602392],[-122.429238,40.602272],[-122.429124,40.602252],[-122.42915,40.602165],[-122.429521,40.602229],[-122.429469,40.602403],[-122.429298,40.602374],[-122.429288,40.602406],[-122.429203,40.602392]]]]},"properties":{"occupancy":"Residential"}},{"type":"Feature","geometry":{"type":"MultiPolygon","coordinates":[[[[-122.428604,40.602348],[-122.428572,40.602422],[-122.428711,40.602457],[-122.42866,40.602574],[-122.428396,40.602507],[-122.428507,40.602253],[-122.428771,40.60232],[-122.428743,40.602383],[-122.428604,40.602348]]]]},"properties":{"occupancy":"Residential"}},{"type":"Feature","geometry":{"type":"MultiPolygon","coordinates":[[[[-122.429871,40.602486],[-122.429743,40.60246],[-122.429721,40.602525],[-122.429608,40.602502],[-122.429686,40.602276],[-122.429927,40.602324],[-122.429871,40.602486]]]]},"properties":{"occupancy":"Residential"}},{"type":"Feature","geometry":{"type":"MultiPolygon","coordinates":[[[[-122.430383,40.602488],[-122.43026,40.602452],[-122.430314,40.602348],[-122.430613,40.602438],[-122.430517,40.602624],[-122.43034,40.602571],[-122.430383,40.602488]]]]},"properties":{"occupancy":"Residential"}},{"type":"Feature","geometry":{"type":"MultiPolygon","coordinates":[[[[-122.429326,40.602725],[-122.429287,40.602856],[-122.429016,40.602809],[-122.429078,40.602602],[-122.429206,40.602625],[-122.429184,40.602701],[-122.429326,40.602725]]]]},"properties":{"occupancy":"Residential"}},{"type":"Feature","geometry":{"type":"MultiPolygon","coordinates":[[[[-122.43015,40.602726],[-122.430265,40.602744],[-122.430288,40.602656],[-122.430403,40.602674],[-122.430331,40.602947],[-122.430102,40.602912],[-122.43015,40.602726]]]]},"properties":{"occupancy":"Residential"}},{"type":"Feature","geometry":{"type":"MultiPolygon","coordinates":[[[[-122.429561,40.602973],[-122.429346,40.602902],[-122.42948,40.602667],[-122.429694,40.602738],[-122.429561,40.602973]]]]},"properties":{"occupancy":"Residential"}},{"type":"Feature","geometry":{"type":"MultiPolygon","coordinates":[[[[-122.429973,40.603147],[-122.430078,40.602975],[-122.430303,40.603055],[-122.430198,40.603227],[-122.429973,40.603147]]]]},"properties":{"occupancy":"Unclassified"}},{"type":"Feature","geometry":{"type":"MultiPolygon","coordinates":[[[[-122.424723,40.599535],[-122.424782,40.599486],[-122.425041,40.599667],[-122.424981,40.599716],[-122.424723,40.599535]]]]},"properties":{"occupancy":"Unclassified"}},{"type":"Feature","geometry":{"type":"MultiPolygon","coordinates":[[[[-122.424653,40.600056],[-122.424696,40.599869],[-122.424811,40.599885],[-122.424768,40.600071],[-122.424653,40.600056]]]]},"properties":{"occupancy":"Residential"}},{"type":"Feature","geometry":{"type":"MultiPolygon","coordinates":[[[[-122.424473,40.600053],[-122.424484,40.599898],[-122.424601,40.599903],[-122.424589,40.600058],[-122.424473,40.600053]]]]},"properties":{"occupancy":"Residential"}},{"type":"Feature","geometry":{"type":"MultiPolygon","coordinates":[[[[-122.422618,40.599917],[-122.422431,40.599891],[-122.422405,40.600001],[-122.422563,40.600022],[-122.42254,40.600121],[-122.422065,40.600056],[-122.422129,40.599782],[-122.422633,40.599851],[-122.422618,40.599917]]]]},"properties":{"occupancy":"Residential"}},{"type":"Feature","geometry":{"type":"MultiPolygon","coordinates":[[[[-122.424347,40.600268],[-122.424158,40.60028],[-122.424138,40.600091],[-122.424474,40.600071],[-122.424492,40.600248],[-122.424375,40.600255],[-122.424368,40.600189],[-122.424339,40.600191],[-122.424347,40.600268]]]]},"properties":{"occupancy":"Residential"}},{"type":"Feature","geometry":{"type":"MultiPolygon","coordinates":[[[[-122.423928,40.600212],[-122.423924,40.600256],[-122.42372,40.600246],[-122.423743,40.599979],[-122.423977,40.599991],[-122.423965,40.600124],[-122.423834,40.600118],[-122.423826,40.600207],[-122.423928,40.600212]]]]},"properties":{"occupancy":"Residential"}},{"type":"Feature","geometry":{"type":"MultiPolygon","coordinates":[[[[-122.424904,40.60011],[-122.425051,40.600112],[-122.425047,40.600312],[-122.424754,40.600309],[-122.42476,40.600041],[-122.424906,40.600043],[-122.424904,40.60011]]]]},"properties":{"occupancy":"Residential"}},{"type":"Feature","geometry":{"type":"MultiPolygon","coordinates":[[[[-122.425344,40.600448],[-122.42521,40.600403],[-122.425356,40.600148],[-122.425611,40.600232],[-122.425499,40.600427],[-122.425379,40.600386],[-122.425344,40.600448]]]]},"properties":{"occupancy":"Residential"}},{"type":"Feature","geometry":{"type":"MultiPolygon","coordinates":[[[[-122.425667,40.600547],[-122.425779,40.60033],[-122.42601,40.600399],[-122.42593,40.600554],[-122.425821,40.600522],[-122.425789,40.600584],[-122.425667,40.600547]]]]},"properties":{"occupancy":"Residential"}},{"type":"Feature","geometry":{"type":"MultiPolygon","coordinates":[[[[-122.423427,40.60058],[-122.423448,40.600769],[-122.423171,40.600786],[-122.42315,40.600597],[-122.423427,40.60058]]]]},"properties":{"occupancy":"Residential"}},{"type":"Feature","geometry":{"type":"MultiPolygon","coordinates":[[[[-122.423812,40.60063],[-122.4239,40.600629],[-122.423904,40.600851],[-122.423641,40.600854],[-122.423636,40.60062],[-122.423753,40.600619],[-122.423755,40.600697],[-122.423813,40.600696],[-122.423812,40.60063]]]]},"properties":{"occupancy":"Residential"}},{"type":"Feature","geometry":{"type":"MultiPolygon","coordinates":[[[[-122.424446,40.600634],[-122.424563,40.600642],[-122.424554,40.60072],[-122.424699,40.600729],[-122.424684,40.600863],[-122.424422,40.600845],[-122.424446,40.600634]]]]},"properties":{"occupancy":"Residential"}},{"type":"Feature","geometry":{"type":"MultiPolygon","coordinates":[[[[-122.424249,40.600648],[-122.42425,40.600883],[-122.424016,40.600883],[-122.424015,40.600649],[-122.424249,40.600648]]]]},"properties":{"occupancy":"Residential"}},{"type":"Feature","geometry":{"type":"MultiPolygon","coordinates":[[[[-122.421059,40.595434],[-122.420992,40.595457],[-122.42095,40.595386],[-122.421017,40.595363],[-122.421059,40.595434]]]]},"properties":{"occupancy":"Residential"}},{"type":"Feature","geometry":{"type":"MultiPolygon","coordinates":[[[[-122.420748,40.595561],[-122.420831,40.595394],[-122.420968,40.595433],[-122.420885,40.5956],[-122.420748,40.595561]]]]},"properties":{"occupancy":"Residential"}},{"type":"Feature","geometry":{"type":"MultiPolygon","coordinates":[[[[-122.421497,40.59552],[-122.421515,40.595608],[-122.421284,40.595636],[-122.421266,40.595547],[-122.421497,40.59552]]]]},"properties":{"occupancy":"Residential"}},{"type":"Feature","geometry":{"type":"MultiPolygon","coordinates":[[[[-122.421496,40.607824],[-122.421262,40.607823],[-122.421263,40.607656],[-122.421497,40.607657],[-122.421496,40.607824]]]]},"properties":{"occupancy":"Residential"}},{"type":"Feature","geometry":{"type":"MultiPolygon","coordinates":[[[[-122.42062,40.608005],[-122.420825,40.608012],[-122.420815,40.608179],[-122.420611,40.608172],[-122.42062,40.608005]]]]},"properties":{"occupancy":"Residential"}},{"type":"Feature","geometry":{"type":"MultiPolygon","coordinates":[[[[-122.421034,40.608047],[-122.421237,40.60807],[-122.421209,40.608214],[-122.421006,40.608191],[-122.421034,40.608047]]]]},"properties":{"occupancy":"Residential"}},{"type":"Feature","geometry":{"type":"MultiPolygon","coordinates":[[[[-122.421324,40.608115],[-122.421572,40.608117],[-122.421571,40.608228],[-122.421322,40.608226],[-122.421324,40.608115]]]]},"properties":{"occupancy":"Residential"}},{"type":"Feature","geometry":{"type":"MultiPolygon","coordinates":[[[[-122.420867,40.608626],[-122.420648,40.608617],[-122.420658,40.608472],[-122.420877,40.608481],[-122.420867,40.608626]]]]},"properties":{"occupancy":"Residential"}},{"type":"Feature","geometry":{"type":"MultiPolygon","coordinates":[[[[-122.421253,40.608498],[-122.421438,40.608533],[-122.421385,40.608695],[-122.4212,40.60866],[-122.421253,40.608498]]]]},"properties":{"occupancy":"Residential"}},{"type":"Feature","geometry":{"type":"MultiPolygon","coordinates":[[[[-122.421445,40.608731],[-122.421533,40.608731],[-122.421533,40.608797],[-122.421445,40.608797],[-122.421445,40.608731]]]]},"properties":{"occupancy":"Residential"}},{"type":"Feature","geometry":{"type":"MultiPolygon","coordinates":[[[[-122.421433,40.608941],[-122.421214,40.60894],[-122.421215,40.608783],[-122.421434,40.608785],[-122.421433,40.608941]]]]},"properties":{"occupancy":"Residential"}}]}