{"type":"FeatureCollection","features":[{"type":"Feature","geometry":{"type":"Polygon","coordinates":[[[-117.678345,34.382074],[-117.678049,34.382067],[-117.678053,34.381978],[-117.678349,34.381985],[-117.678345,34.382074]]]},"properties":{"occupancy":"Residential"}},{"type":"Feature","geometry":{"type":"Polygon","coordinates":[[[-117.683313,34.375762],[-117.683257,34.375824],[-117.683181,34.375777],[-117.683238,34.375715],[-117.683313,34.375762]]]},"properties":{"occupancy":"Residential"}},{"type":"Feature","geometry":{"type":"Polygon","coordinates":[[[-117.69053,34.376462],[-117.690542,34.37654],[-117.690636,34.37653],[-117.690641,34.376563],[-117.690494,34.376579],[-117.690437,34.376213],[-117.690917,34.376162],[-117.690957,34.376416],[-117.69053,34.376462]]]},"properties":{"occupancy":"Unclassified"}},{"type":"Feature","geometry":{"type":"Polygon","coordinates":[[[-117.684252,34.376337],[-117.684318,34.376299],[-117.684403,34.376399],[-117.684337,34.376437],[-117.684252,34.376337]]]},"properties":{"occupancy":"Residential"}},{"type":"Feature","geometry":{"type":"Polygon","coordinates":[[[-117.68456,34.376592],[-117.684433,34.376528],[-117.684461,34.37649],[-117.684588,34.376553],[-117.68456,34.376592]]]},"properties":{"occupancy":"Residential"}},{"type":"Feature","geometry":{"type":"Polygon","coordinates":[[[-117.684848,34.376669],[-117.684765,34.376757],[-117.684585,34.37664],[-117.68461,34.376614],[-117.684705,34.376676],[-117.684763,34.376614],[-117.684848,34.376669]]]},"properties":{"occupancy":"Residential"}},{"type":"Feature","geometry":{"type":"Polygon","coordinates":[[[-117.684995,34.376852],[-117.685155,34.376732],[-117.685272,34.376839],[-117.685113,34.376959],[-117.684995,34.376852]]]},"properties":{"occupancy":"Residential"}},{"type":"Feature","geometry":{"type":"Polygon","coordinates":[[[-117.684236,34.376754],[-117.6843,34.376825],[-117.684159,34.376912],[-117.684095,34.37684],[-117.684236,34.376754]]]},"properties":{"occupancy":"Residential"}},{"type":"Feature","geometry":{"type":"Polygon","coordinates":[[[-117.689628,34.379017],[-117.689634,34.378973],[-117.689473,34.378959],[-117.689486,34.378859],[-117.689861,34.378892],[-117.689842,34.379036],[-117.689628,34.379017]]]},"properties":{"occupancy":"Residential"}},{"type":"Feature","geometry":{"type":"Polygon","coordinates":[[[-117.687129,34.379026],[-117.687165,34.378942],[-117.687343,34.378993],[-117.687307,34.379078],[-117.687129,34.379026]]]},"properties":{"occupancy":"Residential"}},{"type":"Feature","geometry":{"type":"Polygon","coordinates":[[[-117.681171,34.381995],[-117.681279,34.381995],[-117.681278,34.381906],[-117.681372,34.381905],[-117.681374,34.382095],[-117.681172,34.382096],[-117.681171,34.381995]]]},"properties":{"occupancy":"Residential"}},{"type":"Feature","geometry":{"type":"Polygon","coordinates":[[[-117.681988,34.382108],[-117.681778,34.382008],[-117.681845,34.381911],[-117.682055,34.382011],[-117.681988,34.382108]]]},"properties":{"occupancy":"Residential"}},{"type":"Feature","geometry":{"type":"Polygon","coordinates":[[[-117.681466,34.382083],[-117.681472,34.381938],[-117.681647,34.381944],[-117.681641,34.382089],[-117.681466,34.382083]]]},"properties":{"occupancy":"Residential"}},{"type":"Feature","geometry":{"type":"Polygon","coordinates":[[[-117.682247,34.382333],[-117.682136,34.382573],[-117.681922,34.382505],[-117.682033,34.382265],[-117.682247,34.382333]]]},"properties":{"occupancy":"Residential"}},{"type":"Feature","geometry":{"type":"Polygon","coordinates":[[[-117.682989,34.382668],[-117.682879,34.38257],[-117.682997,34.382479],[-117.683107,34.382577],[-117.682989,34.382668]]]},"properties":{"occupancy":"Residential"}},{"type":"Feature","geometry":{"type":"Polygon","coordinates":[[[-117.682757,34.382968],[-117.68281,34.383107],[-117.682656,34.383147],[-117.682603,34.383009],[-117.682526,34.383029],[-117.68249,34.382933],[-117.682541,34.382919],[-117.6824,34.382547],[-117.682528,34.382513],[-117.682617,34.382748],[-117.682681,34.382731],[-117.682706,34.382795],[-117.682667,34.382805],[-117.682732,34.382975],[-117.682757,34.382968]]]},"properties":{"occupancy":"Residential"}},{"type":"Feature","geometry":{"type":"Polygon","coordinates":[[[-117.689377,34.382652],[-117.689366,34.382574],[-117.689553,34.382555],[-117.689564,34.382633],[-117.689377,34.382652]]]},"properties":{"occupancy":"Unclassified"}},{"type":"Feature","geometry":{"type":"Polygon","coordinates":[[[-117.689141,34.383577],[-117.68906,34.38358],[-117.689055,34.383491],[-117.689136,34.383488],[-117.689141,34.383577]]]},"properties":{"occupancy":"Unclassified"}},{"type":"Feature","geometry":{"type":"Polygon","coordinates":[[[-117.689267,34.38367],[-117.689353,34.383724],[-117.68932,34.38376],[-117.689234,34.383705],[-117.689267,34.38367]]]},"properties":{"occupancy":"Unclassified"}},{"type":"Feature","geometry":{"type":"Polygon","coordinates":[[[-117.689534,34.383782],[-117.689572,34.383723],[-117.689643,34.383755],[-117.689605,34.383814],[-117.689534,34.383782]]]},"properties":{"occupancy":"Unclassified"}},{"type":"Feature","geometry":{"type":"Polygon","coordinates":[[[-117.686428,34.384656],[-117.686601,34.384674],[-117.686576,34.38484],[-117.686403,34.384822],[-117.686428,34.384656]]]},"properties":{"occupancy":"Unclassified"}},{"type":"Feature","geometry":{"type":"Polygon","coordinates":[[[-117.686444,34.385112],[-117.686368,34.385133],[-117.686351,34.385091],[-117.686427,34.385069],[-117.686444,34.385112]]]},"properties":{"occupancy":"Unclassified"}}]}