{"type":"FeatureCollection","features":[{"type":"Feature","geometry":{"type":"MultiPolygon","coordinates":[[[[-121.742155,39.904431],[-121.742182,39.904344],[-121.742295,39.904366],[-121.742267,39.904452],[-121.742155,39.904431]]]]},"properties":{"occupancy":"Residential"}},{"type":"Feature","geometry":{"type":"MultiPolygon","coordinates":[[[[-121.741463,39.90385],[-121.741479,39.903661],[-121.74158,39.903666],[-121.741559,39.903921],[-121.7414,39.903914],[-121.741406,39.903847],[-121.741463,39.90385]]]]},"properties":{"occupancy":"Residential"}},{"type":"Feature","geometry":{"type":"MultiPolygon","coordinates":[[[[-121.741128,39.904498],[-121.741044,39.904481],[-121.741098,39.90432],[-121.741182,39.904336],[-121.741128,39.904498]]]]},"properties":{"occupancy":"Residential"}},{"type":"Feature","geometry":{"type":"MultiPolygon","coordinates":[[[[-121.740869,39.907259],[-121.740816,39.907351],[-121.740737,39.907324],[-121.740789,39.907232],[-121.740869,39.907259]]]]},"properties":{"occupancy":"Residential"}},{"type":"Feature","geometry":{"type":"MultiPolygon","coordinates":[[[[-121.740423,39.909747],[-121.740303,39.909666],[-121.74037,39.909607],[-121.74049,39.909688],[-121.740423,39.909747]]]]},"properties":{"occupancy":"Residential"}},{"type":"Feature","geometry":{"type":"MultiPolygon","coordinates":[[[[-121.738789,39.911021],[-121.738915,39.911129],[-121.738872,39.911158],[-121.738746,39.91105],[-121.738789,39.911021]]]]},"properties":{"occupancy":"Residential"}},{"type":"Feature","geometry":{"type":"MultiPolygon","coordinates":[[[[-121.738535,39.911213],[-121.738554,39.911068],[-121.738713,39.911081],[-121.738708,39.911114],[-121.738579,39.911104],[-121.738564,39.911215],[-121.738535,39.911213]]]]},"properties":{"occupancy":"Residential"}},{"type":"Feature","geometry":{"type":"MultiPolygon","coordinates":[[[[-121.731896,39.904106],[-121.731982,39.904118],[-121.731922,39.90437],[-121.731837,39.904358],[-121.731896,39.904106]]]]},"properties":{"occupancy":"Residential"}},{"type":"Feature","geometry":{"type":"MultiPolygon","coordinates":[[[[-121.73241,39.906264],[-121.732493,39.906247],[-121.732524,39.906333],[-121.73244,39.90635],[-121.73241,39.906264]]]]},"properties":{"occupancy":"Residential"}},{"type":"Feature","geometry":{"type":"MultiPolygon","coordinates":[[[[-121.732185,39.906452],[-121.732177,39.906296],[-121.732235,39.906295],[-121.732243,39.90645],[-121.732185,39.906452]]]]},"properties":{"occupancy":"Residential"}},{"type":"Feature","geometry":{"type":"MultiPolygon","coordinates":[[[[-121.733632,39.907709],[-121.733717,39.907696],[-121.733742,39.907795],[-121.733656,39.907807],[-121.733632,39.907709]]]]},"properties":{"occupancy":"Residential"}},{"type":"Feature","geometry":{"type":"MultiPolygon","coordinates":[[[[-121.736194,39.909939],[-121.736129,39.909963],[-121.736042,39.909822],[-121.736146,39.909784],[-121.73629,39.910015],[-121.736251,39.91003],[-121.736194,39.909939]]]]},"properties":{"occupancy":"Residential"}},{"type":"Feature","geometry":{"type":"MultiPolygon","coordinates":[[[[-121.731888,39.910068],[-121.731794,39.910097],[-121.731778,39.910066],[-121.731872,39.910037],[-121.731888,39.910068]]]]},"properties":{"occupancy":"Residential"}},{"type":"Feature","geometry":{"type":"MultiPolygon","coordinates":[[[[-121.733937,39.910635],[-121.733836,39.910629],[-121.733865,39.91034],[-121.733966,39.910346],[-121.733937,39.910635]]]]},"properties":{"occupancy":"Residential"}},{"type":"Feature","geometry":{"type":"MultiPolygon","coordinates":[[[[-121.736825,39.911002],[-121.736857,39.911134],[-121.736801,39.911142],[-121.736768,39.911011],[-121.736825,39.911002]]]]},"properties":{"occupancy":"Residential"}},{"type":"Feature","geometry":{"type":"MultiPolygon","coordinates":[[[[-121.736927,39.911711],[-121.736956,39.911511],[-121.737043,39.911519],[-121.737013,39.911718],[-121.736927,39.911711]]]]},"properties":{"occupancy":"Residential"}},{"type":"Feature","geometry":{"type":"MultiPolygon","coordinates":[[[[-121.738224,39.912365],[-121.738115,39.91231],[-121.738242,39.912161],[-121.738351,39.912216],[-121.738224,39.912365]]]]},"properties":{"occupancy":"Residential"}},{"type":"Feature","geometry":{"type":"MultiPolygon","coordinates":[[[[-121.735548,39.912261],[-121.735382,39.912351],[-121.735315,39.912279],[-121.735481,39.912188],[-121.735548,39.912261]]]]},"properties":{"occupancy":"Residential"}},{"type":"Feature","geometry":{"type":"MultiPolygon","coordinates":[[[[-121.73178,39.914031],[-121.731913,39.913989],[-121.731969,39.914092],[-121.731835,39.914134],[-121.73178,39.914031]]]]},"properties":{"occupancy":"Residential"}},{"type":"Feature","geometry":{"type":"MultiPolygon","coordinates":[[[[-121.73239,39.914004],[-121.732404,39.914126],[-121.732317,39.914132],[-121.732303,39.914009],[-121.73239,39.914004]]]]},"properties":{"occupancy":"Residential"}},{"type":"Feature","geometry":{"type":"MultiPolygon","coordinates":[[[[-121.732094,39.914079],[-121.732136,39.91402],[-121.732199,39.914047],[-121.732158,39.914105],[-121.732094,39.914079]]]]},"properties":{"occupancy":"Residential"}},{"type":"Feature","geometry":{"type":"MultiPolygon","coordinates":[[[[-121.727575,39.907987],[-121.727613,39.908208],[-121.727484,39.908221],[-121.727446,39.908],[-121.727575,39.907987]]]]},"properties":{"occupancy":"Residential"}},{"type":"Feature","geometry":{"type":"MultiPolygon","coordinates":[[[[-121.727534,39.911816],[-121.727428,39.91171],[-121.727496,39.911669],[-121.727603,39.911775],[-121.727534,39.911816]]]]},"properties":{"occupancy":"Residential"}},{"type":"Feature","geometry":{"type":"MultiPolygon","coordinates":[[[[-121.72746,39.911295],[-121.727575,39.911288],[-121.727586,39.9114],[-121.72747,39.911406],[-121.72746,39.911295]]]]},"properties":{"occupancy":"Residential"}},{"type":"Feature","geometry":{"type":"MultiPolygon","coordinates":[[[[-121.727381,39.907924],[-121.727497,39.907918],[-121.727503,39.907985],[-121.727387,39.907991],[-121.727381,39.907924]]]]},"properties":{"occupancy":"Residential"}},{"type":"Feature","geometry":{"type":"MultiPolygon","coordinates":[[[[-121.726676,39.912953],[-121.72652,39.91293],[-121.726536,39.912864],[-121.726693,39.912887],[-121.726676,39.912953]]]]},"properties":{"occupancy":"Residential"}},{"type":"Feature","geometry":{"type":"MultiPolygon","coordinates":[[[[-121.726397,39.912764],[-121.726476,39.912792],[-121.726428,39.912873],[-121.726349,39.912845],[-121.726397,39.912764]]]]},"properties":{"occupancy":"Residential"}},{"type":"Feature","geometry":{"type":"MultiPolygon","coordinates":[[[[-121.725826,39.910638],[-121.725673,39.910741],[-121.72553,39.910615],[-121.725683,39.910512],[-121.725826,39.910638]]]]},"properties":{"occupancy":"Residential"}},{"type":"Feature","geometry":{"type":"MultiPolygon","coordinates":[[[[-121.725725,39.909629],[-121.725773,39.909837],[-121.725659,39.909853],[-121.725611,39.909644],[-121.725725,39.909629]]]]},"properties":{"occupancy":"Residential"}},{"type":"Feature","geometry":{"type":"MultiPolygon","coordinates":[[[[-121.72564,39.910753],[-121.725727,39.910751],[-121.725734,39.910896],[-121.725647,39.910898],[-121.72564,39.910753]]]]},"properties":{"occupancy":"Residential"}},{"type":"Feature","geometry":{"type":"MultiPolygon","coordinates":[[[[-121.725743,39.913665],[-121.72564,39.913743],[-121.725478,39.913616],[-121.725581,39.913538],[-121.725743,39.913665]]]]},"properties":{"occupancy":"Residential"}},{"type":"Feature","geometry":{"type":"MultiPolygon","coordinates":[[[[-121.725564,39.913502],[-121.725529,39.913563],[-121.72545,39.913536],[-121.725485,39.913475],[-121.725564,39.913502]]]]},"properties":{"occupancy":"Residential"}},{"type":"Feature","geometry":{"type":"MultiPolygon","coordinates":[[[[-121.725329,39.9117],[-121.725411,39.911569],[-121.725554,39.911622],[-121.725472,39.911753],[-121.725329,39.9117]]]]},"properties":{"occupancy":"Residential"}},{"type":"Feature","geometry":{"type":"MultiPolygon","coordinates":[[[[-121.725265,39.910809],[-121.725246,39.910744],[-121.725302,39.910734],[-121.725321,39.9108],[-121.725265,39.910809]]]]},"properties":{"occupancy":"Residential"}},{"type":"Feature","geometry":{"type":"MultiPolygon","coordinates":[[[[-121.725083,39.912369],[-121.725232,39.912475],[-121.725153,39.912541],[-121.725004,39.912435],[-121.725083,39.912369]]]]},"properties":{"occupancy":"Residential"}},{"type":"Feature","geometry":{"type":"MultiPolygon","coordinates":[[[[-121.725142,39.909077],[-121.725162,39.909165],[-121.725077,39.909177],[-121.725057,39.909089],[-121.725142,39.909077]]]]},"properties":{"occupancy":"Residential"}},{"type":"Feature","geometry":{"type":"MultiPolygon","coordinates":[[[[-121.724821,39.91184],[-121.724656,39.91191],[-121.724628,39.911871],[-121.724793,39.911801],[-121.724821,39.91184]]]]},"properties":{"occupancy":"Residential"}}]}