{"type":"FeatureCollection","features":[{"type":"Feature","geometry":{"type":"MultiPolygon","coordinates":[[[[-122.408317,40.594886],[-122.408692,40.594907],[-122.408564,40.595268],[-122.408315,40.595077],[-122.408317,40.594886]]],[[[-122.409179,40.596435],[-122.409604,40.596399],[-122.409501,40.596761],[-122.409202,40.596626],[-122.409179,40.596435]]],[[[-122.545856,40.606777],[-122.546366,40.60664],[-122.546906,40.607259],[-122.546906,40.607623],[-122.546306,40.607508],[-122.545856,40.606777]]],[[[-122.420555,40.615086],[-122.419954,40.615083],[-122.419482,40.615453],[-122.419187,40.614865],[-122.418396,40.615133],[-122.418304,40.614975],[-122.418834,40.614491],[-122.418388,40.613888],[-122.420316,40.614484],[-122.42089,40.615445],[-122.420555,40.615086]]],[[[-122.421301,40.615662],[-122.421657,40.615664],[-122.42156,40.616064],[-122.421185,40.61599],[-122.421301,40.615662]]],[[[-122.432585,40.621417],[-122.43068,40.621002],[-122.431484,40.620327],[-122.432216,40.618877],[-122.432399,40.61939],[-122.432204,40.620295],[-122.43242,40.620618],[-122.432243,40.621153],[-122.432585,40.621417]]],[[[-122.435935,40.621494],[-122.435958,40.620965],[-122.436145,40.62108],[-122.436271,40.621639],[-122.435935,40.621494]]],[[[-122.43667,40.62114],[-122.4381,40.620618],[-122.438508,40.621249],[-122.438203,40.621777],[-122.437619,40.622103],[-122.437266,40.621672],[-122.436592,40.621469],[-122.43667,40.62114]]],[[[-122.395387,40.622161],[-122.395791,40.621762],[-122.396541,40.6219],[-122.397159,40.622685],[-122.396306,40.622928],[-122.395387,40.622161]]],[[[-122.565851,40.620232],[-122.566602,40.620095],[-122.567323,40.620647],[-122.567413,40.62099],[-122.566242,40.621013],[-122.565851,40.620232]]],[[[-122.431372,40.624522],[-122.428355,40.624412],[-122.427763,40.624075],[-122.427391,40.623692],[-122.428132,40.62304],[-122.427508,40.622787],[-122.427343,40.621928],[-122.426891,40.621818],[-122.426085,40.620968],[-122.425065,40.621356],[-122.424112,40.621173],[-122.424068,40.620839],[-122.424476,40.620698],[-122.424951,40.620081],[-122.424781,40.619746],[-122.423431,40.620371],[-122.42312,40.620119],[-122.42325,40.619584],[-122.422818,40.618926],[-122.422615,40.618806],[-122.422269,40.619066],[-122.421314,40.619181],[-122.42088,40.618785],[-122.42115,40.618286],[-122.422579,40.617602],[-122.422549,40.617423],[-122.42208,40.617397],[-122.42054,40.618271],[-122.420371,40.617936],[-122.42058,40.617222],[-122.421162,40.61688],[-122.422148,40.616777],[-122.422417,40.616469],[-122.422359,40.61592],[-122.422847,40.615506],[-122.424228,40.61572],[-122.424317,40.616278],[-122.423912,40.617549],[-122.42402,40.618093],[-122.424709,40.618654],[-122.425243,40.618533],[-122.425048,40.618361],[-122.425444,40.618103],[-122.425722,40.616599],[-122.425262,40.61623],[-122.424711,40.616223],[-122.424121,40.61509],[-122.422868,40.614569],[-122.422757,40.614397],[-122.423434,40.614171],[-122.423606,40.613857],[-122.422276,40.61355],[-122.421878,40.614006],[-122.421634,40.613976],[-122.42224,40.613393],[-122.422055,40.613092],[-122.421019,40.61353],[-122.419454,40.613496],[-122.419311,40.61322],[-122.418564,40.613103],[-122.418143,40.611856],[-122.416429,40.611473],[-122.417139,40.610836],[-122.416278,40.610517],[-122.416629,40.609737],[-122.415927,40.609867],[-122.415487,40.609724],[-122.415935,40.60899],[-122.413845,40.607682],[-122.414075,40.60715],[-122.414928,40.606849],[-122.414854,40.606677],[-122.414206,40.606368],[-122.413653,40.606728],[-122.413153,40.606687],[-122.412631,40.606284],[-122.412587,40.605598],[-122.412004,40.60529],[-122.411279,40.60539],[-122.410971,40.605515],[-122.411061,40.605871],[-122.409346,40.606023],[-122.410023,40.606398],[-122.41016,40.606991],[-122.410919,40.607483],[-122.410861,40.60808],[-122.411529,40.608186],[-122.410589,40.609307],[-122.409294,40.609153],[-122.408173,40.60837],[-122.407668,40.608439],[-122.407089,40.609851],[-122.40667,40.610187],[-122.406228,40.609808],[-122.406775,40.609798],[-122.406645,40.609413],[-122.405782,40.60934],[-122.40532,40.609558],[-122.404277,40.608743],[-122.403526,40.607328],[-122.402769,40.600996],[-122.401927,40.599195],[-122.402411,40.59847],[-122.403047,40.598786],[-122.409682,40.598508],[-122.411605,40.598769],[-122.411539,40.596774],[-122.411846,40.596619],[-122.412486,40.5947],[-122.411956,40.594054],[-122.411979,40.593577],[-122.413496,40.593369],[-122.416683,40.593575],[-122.419005,40.594177],[-122.419707,40.59399],[-122.420359,40.594149],[-122.420775,40.593777],[-122.42115,40.593826],[-122.421578,40.594495],[-122.425827,40.594955],[-122.42768,40.594774],[-122.429203,40.595086],[-122.430173,40.595701],[-122.432584,40.594664],[-122.433834,40.594709],[-122.435102,40.59563],[-122.434895,40.596487],[-122.435442,40.596909],[-122.435943,40.596797],[-122.437151,40.59585],[-122.438971,40.596622],[-122.443394,40.600266],[-122.443613,40.600992],[-122.444283,40.601662],[-122.444716,40.603743],[-122.445848,40.606036],[-122.446264,40.60795],[-122.446079,40.608326],[-122.445653,40.608457],[-122.445939,40.610137],[-122.445355,40.611164],[-122.444956,40.610971],[-122.445239,40.610076],[-122.444744,40.609444],[-122.44503,40.60813],[-122.444707,40.607843],[-122.443757,40.607762],[-122.443696,40.609058],[-122.444189,40.609919],[-122.444298,40.61194],[-122.445095,40.612326],[-122.444848,40.613466],[-122.44502,40.613811],[-122.444431,40.615409],[-122.444654,40.615735],[-122.444225,40.616171],[-122.444697,40.616574],[-122.444685,40.618023],[-122.444181,40.61844],[-122.443304,40.61855],[-122.443185,40.617825],[-122.442082,40.618087],[-122.441985,40.617724],[-122.44131,40.617568],[-122.440405,40.617764],[-122.440199,40.617649],[-122.440561,40.617179],[-122.43926,40.616605],[-122.439014,40.616904],[-122.439657,40.61746],[-122.439561,40.617632],[-122.438894,40.617719],[-122.438647,40.618046],[-122.438018,40.618182],[-122.436846,40.618023],[-122.436409,40.618665],[-122.436245,40.618049],[-122.435795,40.618047],[-122.435784,40.617147],[-122.434902,40.617113],[-122.43401,40.61821],[-122.433923,40.619697],[-122.434034,40.619869],[-122.434674,40.619614],[-122.43501,40.619873],[-122.434761,40.620502],[-122.434889,40.620959],[-122.434344,40.620929],[-122.434247,40.621286],[-122.433608,40.62144],[-122.433606,40.621626],[-122.433253,40.621224],[-122.432717,40.621425],[-122.432785,40.621021],[-122.433368,40.620895],[-122.433521,40.620581],[-122.433131,40.620136],[-122.432602,40.620016],[-122.432553,40.619704],[-122.433292,40.618778],[-122.43335,40.618156],[-122.432932,40.617713],[-122.431456,40.618361],[-122.431003,40.618335],[-122.430788,40.617821],[-122.430997,40.617119],[-122.430201,40.616984],[-122.429635,40.617351],[-122.429522,40.61772],[-122.430253,40.6182],[-122.430389,40.618761],[-122.430085,40.621346],[-122.431372,40.624522]]],[[[-122.57447,40.621859],[-122.574891,40.621833],[-122.574861,40.622338],[-122.57417,40.622564],[-122.57396,40.622316],[-122.57447,40.621859]]],[[[-122.568164,40.623574],[-122.569816,40.623666],[-122.569816,40.623985],[-122.568824,40.62449],[-122.567954,40.623987],[-122.568164,40.623574]]],[[[-122.445184,40.630471],[-122.444838,40.629139],[-122.445725,40.628529],[-122.446195,40.62846],[-122.446336,40.627712],[-122.445815,40.627466],[-122.445842,40.627275],[-122.446271,40.626801],[-122.447014,40.627062],[-122.447202,40.626948],[-122.446906,40.626432],[-122.446492,40.626602],[-122.446099,40.6264],[-122.445141,40.626481],[-122.444449,40.626302],[-122.444717,40.627098],[-122.44434,40.627278],[-122.44423,40.627829],[-122.443735,40.627875],[-122.443336,40.627683],[-122.443165,40.627148],[-122.443571,40.626521],[-122.442945,40.626575],[-122.442621,40.626344],[-122.443659,40.625991],[-122.443867,40.625597],[-122.443279,40.625509],[-122.442574,40.62602],[-122.442124,40.625884],[-122.442603,40.625467],[-122.442586,40.624533],[-122.442864,40.62421],[-122.442958,40.624935],[-122.44398,40.625455],[-122.444781,40.62462],[-122.445118,40.624779],[-122.445225,40.625494],[-122.445565,40.625224],[-122.445551,40.624667],[-122.445215,40.624408],[-122.445426,40.623894],[-122.445258,40.623764],[-122.444843,40.623948],[-122.444545,40.623689],[-122.444285,40.623373],[-122.444516,40.622888],[-122.443243,40.623754],[-122.44297,40.623486],[-122.44459,40.622568],[-122.444405,40.622379],[-122.443372,40.622597],[-122.443261,40.622425],[-122.443874,40.621489],[-122.443978,40.621036],[-122.443674,40.620913],[-122.444344,40.620653],[-122.444409,40.6203],[-122.443814,40.620357],[-122.443675,40.619772],[-122.442794,40.620493],[-122.44184,40.619443],[-122.442549,40.618899],[-122.443513,40.619122],[-122.444561,40.618661],[-122.44507,40.619215],[-122.445008,40.619916],[-122.44594,40.620693],[-122.445654,40.62122],[-122.445952,40.621508],[-122.445852,40.622237],[-122.446,40.622408],[-122.446456,40.621825],[-122.446662,40.621926],[-122.447963,40.623491],[-122.44765,40.623777],[-122.448316,40.623936],[-122.448057,40.625751],[-122.448244,40.625866],[-122.448686,40.624624],[-122.449342,40.624699],[-122.449534,40.624156],[-122.449911,40.623958],[-122.452336,40.625857],[-122.452834,40.626904],[-122.452733,40.627819],[-122.451694,40.628586],[-122.450121,40.628135],[-122.449651,40.628247],[-122.448817,40.629173],[-122.448479,40.629186],[-122.44825,40.629642],[-122.447782,40.629525],[-122.447309,40.629952],[-122.446615,40.62992],[-122.446482,40.630077],[-122.446816,40.630551],[-122.446173,40.631091],[-122.445742,40.63106],[-122.445184,40.630471]]],[[[-122.556932,40.637297],[-122.557443,40.637479],[-122.557293,40.637938],[-122.556872,40.637846],[-122.556932,40.637297]]],[[[-122.577148,40.638121],[-122.578229,40.637778],[-122.578409,40.637891],[-122.578408,40.638166],[-122.577207,40.638576],[-122.577148,40.638121]]],[[[-122.553117,40.63899],[-122.554529,40.6389],[-122.554679,40.639356],[-122.554079,40.63947],[-122.553087,40.639286],[-122.553117,40.63899]]],[[[-122.553057,40.640066],[-122.553567,40.639861],[-122.553808,40.640361],[-122.553177,40.640476],[-122.553057,40.640066]]],[[[-122.587573,40.64505],[-122.587212,40.645003],[-122.586432,40.64537],[-122.585981,40.645143],[-122.585981,40.644913],[-122.586672,40.644799],[-122.586731,40.644614],[-122.586071,40.644206],[-122.58607,40.643999],[-122.586582,40.643862],[-122.586431,40.642649],[-122.588023,40.642898],[-122.588834,40.642649],[-122.588954,40.643059],[-122.588143,40.643381],[-122.588143,40.643655],[-122.588895,40.643748],[-122.589044,40.644019],[-122.587783,40.644091],[-122.587753,40.644478],[-122.588384,40.644823],[-122.588384,40.645255],[-122.587754,40.645438],[-122.587573,40.64505]]],[[[-122.536703,40.934361],[-122.534911,40.931986],[-122.533925,40.931207],[-122.533887,40.930628],[-122.53301,40.930438],[-122.531546,40.929674],[-122.531112,40.930186],[-122.529524,40.93027],[-122.52783,40.931374],[-122.525928,40.931182],[-122.525505,40.931474],[-122.523796,40.931437],[-122.523389,40.932605],[-122.523008,40.932695],[-122.522376,40.93212],[-122.522088,40.930846],[-122.521004,40.929373],[-122.519347,40.929744],[-122.51913,40.929326],[-122.517929,40.929165],[-122.517705,40.928821],[-122.519433,40.928657],[-122.520514,40.927915],[-122.523174,40.927212],[-122.524555,40.926985],[-122.526322,40.927199],[-122.529918,40.926351],[-122.531327,40.924541],[-122.531173,40.923906],[-122.531949,40.92356],[-122.532724,40.922336],[-122.533099,40.920648],[-122.532521,40.919883],[-122.533,40.919632],[-122.531376,40.918044],[-122.532075,40.916393],[-122.531451,40.914761],[-122.531561,40.913445],[-122.532015,40.913187],[-122.53217,40.912571],[-122.533887,40.911453],[-122.534269,40.910768],[-122.534046,40.910405],[-122.532968,40.910019],[-122.533275,40.909257],[-122.53134,40.905589],[-122.529721,40.904487],[-122.529943,40.904156],[-122.529517,40.903531],[-122.527698,40.902161],[-122.526795,40.901883],[-122.526618,40.901622],[-122.52446,40.901194],[-122.523008,40.900425],[-122.522792,40.899938],[-122.521493,40.899685],[-122.521071,40.899433],[-122.521074,40.899066],[-122.520117,40.898693],[-122.517251,40.899882],[-122.516157,40.901236],[-122.51337,40.902297],[-122.511062,40.90218],[-122.502981,40.900536],[-122.501987,40.90006],[-122.501114,40.898723],[-122.499548,40.89812],[-122.497832,40.896516],[-122.495875,40.895688],[-122.495672,40.895019],[-122.492829,40.893634],[-122.490642,40.892075],[-122.490395,40.891509],[-122.489861,40.891132],[-122.489763,40.890546],[-122.488917,40.889744],[-122.489136,40.889211],[-122.488675,40.888457],[-122.489549,40.887136],[-122.491131,40.885665],[-122.492248,40.883334],[-122.492189,40.882762],[-122.491717,40.882409],[-122.492137,40.881631],[-122.492089,40.879449],[-122.491337,40.878725],[-122.492042,40.877382],[-122.49211,40.876636],[-122.493352,40.874863],[-122.493257,40.8741],[-122.493577,40.873687],[-122.493154,40.872419],[-122.492882,40.87192],[-122.492322,40.871579],[-122.492344,40.871154],[-122.491412,40.869411],[-122.490757,40.869246],[-122.488742,40.866821],[-122.487987,40.866772],[-122.487763,40.866466],[-122.487915,40.866314],[-122.48846,40.86643],[-122.488391,40.866228],[-122.487394,40.865175],[-122.48672,40.864917],[-122.486716,40.864211],[-122.483699,40.862305],[-122.483131,40.861272],[-122.482283,40.860704],[-122.481441,40.859155],[-122.481532,40.858588],[-122.481184,40.85761],[-122.477466,40.855395],[-122.477204,40.855615],[-122.472549,40.850936],[-122.471595,40.850302],[-122.471348,40.849753],[-122.47157,40.84942],[-122.470646,40.847748],[-122.470899,40.847081],[-122.470745,40.846675],[-122.470054,40.84608],[-122.469089,40.846019],[-122.469,40.845118],[-122.468532,40.844687],[-122.467282,40.844061],[-122.465769,40.844865],[-122.464797,40.844741],[-122.4648,40.84436],[-122.465588,40.843958],[-122.465527,40.843696],[-122.464547,40.842926],[-122.464025,40.843117],[-122.462739,40.843039],[-122.462873,40.842015],[-122.461999,40.841391],[-122.461184,40.841316],[-122.45711,40.844144],[-122.452641,40.845862],[-122.450416,40.845848],[-122.444711,40.843405],[-122.443213,40.84333],[-122.442899,40.843612],[-122.442178,40.843442],[-122.440115,40.842407],[-122.439524,40.841809],[-122.435614,40.845655],[-122.433114,40.846525],[-122.429114,40.847395],[-122.427214,40.846795],[-122.426021,40.847001],[-122.425115,40.846814],[-122.423974,40.847072],[-122.421049,40.847081],[-122.420114,40.846845],[-122.41994,40.846305],[-122.418526,40.845613],[-122.417514,40.845795],[-122.416614,40.845625],[-122.416178,40.84475],[-122.412877,40.841986],[-122.412288,40.841125],[-122.413011,40.841033],[-122.413654,40.841566],[-122.415104,40.841723],[-122.418306,40.843407],[-122.420614,40.843385],[-122.421814,40.842595],[-122.422814,40.839835],[-122.422225,40.838125],[-122.422503,40.837655],[-122.421654,40.836674],[-122.421476,40.835505],[-122.424524,40.835044],[-122.426351,40.834195],[-122.427951,40.834298],[-122.430517,40.833914],[-122.429314,40.8334],[-122.427306,40.833343],[-122.425434,40.832094],[-122.424757,40.830613],[-122.42476,40.830232],[-122.425395,40.829424],[-122.424468,40.827751],[-122.423282,40.826935],[-122.423038,40.826171],[-122.422164,40.825642],[-122.420224,40.825061],[-122.418968,40.825102],[-122.417773,40.82543],[-122.416885,40.826474],[-122.415878,40.826802],[-122.414364,40.827748],[-122.411081,40.82792],[-122.411003,40.828398],[-122.410168,40.828748],[-122.410178,40.829034],[-122.409105,40.829794],[-122.409064,40.830438],[-122.40846,40.831117],[-122.407087,40.831335],[-122.406565,40.830749],[-122.407655,40.829559],[-122.406691,40.828887],[-122.407179,40.828472],[-122.407179,40.827518],[-122.408039,40.826047],[-122.407105,40.825302],[-122.407009,40.824327],[-122.406596,40.824144],[-122.406556,40.823882],[-122.40753,40.823005],[-122.408126,40.822064],[-122.407248,40.822081],[-122.405758,40.821609],[-122.405293,40.819878],[-122.403521,40.818481],[-122.40328,40.817818],[-122.407912,40.816249],[-122.407743,40.815769],[-122.40928,40.814845],[-122.408465,40.814622],[-122.407786,40.814704],[-122.407613,40.814414],[-122.406739,40.814266],[-122.406146,40.814425],[-122.405648,40.814081],[-122.403693,40.814237],[-122.408469,40.811069],[-122.409059,40.809914],[-122.412032,40.808035],[-122.412172,40.807575],[-122.413466,40.807551],[-122.413817,40.807851],[-122.413739,40.808226],[-122.415198,40.809091],[-122.417074,40.809815],[-122.419405,40.808683],[-122.420547,40.807211],[-122.423195,40.805699],[-122.425582,40.805329],[-122.426706,40.806002],[-122.428128,40.806317],[-122.427961,40.805776],[-122.428528,40.805516],[-122.429059,40.805733],[-122.429245,40.80602],[-122.429075,40.806526],[-122.42941,40.8066],[-122.430076,40.805746],[-122.429991,40.804744],[-122.428044,40.801302],[-122.427268,40.798557],[-122.428528,40.797896],[-122.429067,40.797232],[-122.42907,40.79685],[-122.428634,40.796387],[-122.426604,40.795854],[-122.426174,40.794755],[-122.426568,40.792683],[-122.426131,40.792384],[-122.425854,40.79159],[-122.426165,40.791048],[-122.426573,40.791064],[-122.426105,40.790203],[-122.427527,40.789651],[-122.427763,40.788716],[-122.428082,40.788692],[-122.427483,40.787851],[-122.427454,40.787435],[-122.427712,40.787255],[-122.426524,40.786821],[-122.427325,40.785917],[-122.426348,40.785436],[-122.426418,40.78465],[-122.426017,40.78379],[-122.425582,40.783502],[-122.426207,40.782512],[-122.427476,40.782034],[-122.427136,40.78184],[-122.426563,40.781989],[-122.425299,40.781787],[-122.424368,40.782399],[-122.423647,40.782324],[-122.423332,40.781865],[-122.424189,40.780775],[-122.423144,40.780462],[-122.422472,40.779593],[-122.423035,40.778139],[-122.423005,40.777538],[-122.421433,40.777574],[-122.421267,40.777303],[-122.42147,40.776823],[-122.420464,40.77644],[-122.419177,40.777058],[-122.418676,40.777079],[-122.418648,40.776698],[-122.418993,40.776326],[-122.417521,40.775874],[-122.41766,40.775359],[-122.418297,40.774727],[-122.418369,40.774058],[-122.418077,40.773787],[-122.417189,40.774391],[-122.416382,40.774633],[-122.416049,40.774508],[-122.415956,40.773592],[-122.414947,40.773409],[-122.41357,40.771135],[-122.413482,40.770386],[-122.414477,40.770617],[-122.414598,40.770075],[-122.41529,40.76984],[-122.415591,40.769248],[-122.416552,40.768917],[-122.416444,40.768052],[-122.41735,40.7673],[-122.41657,40.766678],[-122.417991,40.765707],[-122.416931,40.76501],[-122.416997,40.764653],[-122.417652,40.764196],[-122.417255,40.763733],[-122.415488,40.763385],[-122.415261,40.76314],[-122.416074,40.762694],[-122.4173,40.76274],[-122.416971,40.762272],[-122.417048,40.761305],[-122.41583,40.761412],[-122.414536,40.760674],[-122.414218,40.758666],[-122.414637,40.758123],[-122.414434,40.757637],[-122.415025,40.757135],[-122.414538,40.756538],[-122.414941,40.756019],[-122.414327,40.755374],[-122.415244,40.753656],[-122.415683,40.753563],[-122.41743,40.754549],[-122.417957,40.755171],[-122.419551,40.755432],[-122.419709,40.755259],[-122.421589,40.755435],[-122.42221,40.75601],[-122.423522,40.756589],[-122.423612,40.757168],[-122.423987,40.75749],[-122.424957,40.757661],[-122.426517,40.758551],[-122.427741,40.758367],[-122.429649,40.758805],[-122.430403,40.758642],[-122.431491,40.759648],[-122.434243,40.760448],[-122.435245,40.760549],[-122.435247,40.760358],[-122.433816,40.759112],[-122.432972,40.758774],[-122.432249,40.757759],[-122.429733,40.75745],[-122.429409,40.757342],[-122.429206,40.756874],[-122.428186,40.756751],[-122.427551,40.755748],[-122.427651,40.755374],[-122.428093,40.755108],[-122.426675,40.754849],[-122.426675,40.754291],[-122.425327,40.753359],[-122.425066,40.753965],[-122.424393,40.753521],[-122.424869,40.752582],[-122.422615,40.752654],[-122.42152,40.751946],[-122.420859,40.751858],[-122.419809,40.750248],[-122.419987,40.749959],[-122.420749,40.749701],[-122.419348,40.748841],[-122.420489,40.747546],[-122.421674,40.74758],[-122.421896,40.746918],[-122.422978,40.74724],[-122.423714,40.746739],[-122.424239,40.746701],[-122.424937,40.745671],[-122.425684,40.745528],[-122.425573,40.74503],[-122.426113,40.744862],[-122.426209,40.744374],[-122.427061,40.744557],[-122.427712,40.744344],[-122.429123,40.744946],[-122.429703,40.744305],[-122.430306,40.744351],[-122.430727,40.744014],[-122.43079,40.744756],[-122.431701,40.744452],[-122.431999,40.745491],[-122.432868,40.745617],[-122.432937,40.744872],[-122.434212,40.744217],[-122.435061,40.744315],[-122.436107,40.745225],[-122.437333,40.743699],[-122.437038,40.74329],[-122.437562,40.742664],[-122.438873,40.742538],[-122.439252,40.742059],[-122.440026,40.742173],[-122.44073,40.741873],[-122.440622,40.74146],[-122.442655,40.741549],[-122.44264,40.741091],[-122.444102,40.740433],[-122.445046,40.740529],[-122.445604,40.740919],[-122.447549,40.741195],[-122.447614,40.740894],[-122.445611,40.73946],[-122.445402,40.738834],[-122.445708,40.738457],[-122.446993,40.738646],[-122.447528,40.738364],[-122.448601,40.7384],[-122.448892,40.73868],[-122.450419,40.738807],[-122.452735,40.740021],[-122.452968,40.739701],[-122.45344,40.739749],[-122.453625,40.739116],[-122.454474,40.739214],[-122.455785,40.738516],[-122.456717,40.739384],[-122.457447,40.739313],[-122.45895,40.739841],[-122.458939,40.74007],[-122.460145,40.740718],[-122.460532,40.741569],[-122.461822,40.74193],[-122.462746,40.741692],[-122.462505,40.741051],[-122.461664,40.740943],[-122.461634,40.740189],[-122.460699,40.739541],[-122.460329,40.738872],[-122.459467,40.738457],[-122.459251,40.738051],[-122.458351,40.737747],[-122.457394,40.737755],[-122.457245,40.737412],[-122.456572,40.737342],[-122.456754,40.737009],[-122.456309,40.736893],[-122.455049,40.736844],[-122.454163,40.73714],[-122.45343,40.737108],[-122.451238,40.736254],[-122.449893,40.73519],[-122.450139,40.734919],[-122.450929,40.734894],[-122.450789,40.733621],[-122.451114,40.733225],[-122.451914,40.733695],[-122.452414,40.734385],[-122.454714,40.734825],[-122.461914,40.732595],[-122.463914,40.732875],[-122.46569,40.731848],[-122.466879,40.732092],[-122.467659,40.732572],[-122.46816,40.732551],[-122.469796,40.7317],[-122.470648,40.730965],[-122.473374,40.730954],[-122.474981,40.729793],[-122.47646,40.729061],[-122.478467,40.728784],[-122.478721,40.728308],[-122.481054,40.726555],[-122.483787,40.725542],[-122.485114,40.724094],[-122.488714,40.722805],[-122.488914,40.721875],[-122.489314,40.721555],[-122.489445,40.72022],[-122.488814,40.718315],[-122.490147,40.716887],[-122.4905,40.716621],[-122.491302,40.716549],[-122.495681,40.714184],[-122.49691,40.71398],[-122.497594,40.713415],[-122.50094,40.714608],[-122.502646,40.71431],[-122.503019,40.714769],[-122.503693,40.715058],[-122.505597,40.715104],[-122.506031,40.715489],[-122.507871,40.716029],[-122.509387,40.717752],[-122.511811,40.718773],[-122.513864,40.719029],[-122.515702,40.717779],[-122.516303,40.717838],[-122.522444,40.721715],[-122.526126,40.721451],[-122.527159,40.721696],[-122.527829,40.722433],[-122.529953,40.722992],[-122.530888,40.723651],[-122.531123,40.723712],[-122.531438,40.723415],[-122.531907,40.723507],[-122.532301,40.72324],[-122.533193,40.723322],[-122.533691,40.723896],[-122.532896,40.724141],[-122.533781,40.724348],[-122.533328,40.725319],[-122.534274,40.724903],[-122.535368,40.725277],[-122.535905,40.726864],[-122.534837,40.727241],[-122.53494,40.727636],[-122.536106,40.727903],[-122.536379,40.728172],[-122.535671,40.728497],[-122.534707,40.7282],[-122.533823,40.729545],[-122.533966,40.730756],[-122.534206,40.730786],[-122.534515,40.731492],[-122.535872,40.731692],[-122.536709,40.733078],[-122.537527,40.733384],[-122.538795,40.733058],[-122.538309,40.732703],[-122.538343,40.732298],[-122.537906,40.732129],[-122.53819,40.731844],[-122.539373,40.731539],[-122.539332,40.730871],[-122.539656,40.730684],[-122.539418,40.730191],[-122.539597,40.729603],[-122.53908,40.729183],[-122.539364,40.728715],[-122.537435,40.726786],[-122.537704,40.7259],[-122.538325,40.725846],[-122.538477,40.725517],[-122.538216,40.725216],[-122.537522,40.72507],[-122.537831,40.724193],[-122.537028,40.724147],[-122.536004,40.72479],[-122.535892,40.724627],[-122.536366,40.724044],[-122.536124,40.723713],[-122.536328,40.723381],[-122.535567,40.723163],[-122.536659,40.72238],[-122.537337,40.72225],[-122.537415,40.721903],[-122.538269,40.721596],[-122.538559,40.721301],[-122.538569,40.720759],[-122.538938,40.720835],[-122.539047,40.72137],[-122.539273,40.721304],[-122.540334,40.719534],[-122.539659,40.719181],[-122.538678,40.719081],[-122.538555,40.718723],[-122.540481,40.71891],[-122.541202,40.71871],[-122.541401,40.71911],[-122.542262,40.719036],[-122.541581,40.717888],[-122.541162,40.717625],[-122.54118,40.717226],[-122.540518,40.717061],[-122.540284,40.71629],[-122.540908,40.71582],[-122.541328,40.715959],[-122.541275,40.716321],[-122.541675,40.716532],[-122.542277,40.716192],[-122.542333,40.715902],[-122.542764,40.715944],[-122.542769,40.714068],[-122.543049,40.71382],[-122.542364,40.713662],[-122.542861,40.712924],[-122.542246,40.712889],[-122.542014,40.713287],[-122.541413,40.713328],[-122.541318,40.712807],[-122.540594,40.712599],[-122.541501,40.713837],[-122.541344,40.713991],[-122.540624,40.713905],[-122.53985,40.714937],[-122.539384,40.71508],[-122.539169,40.715535],[-122.538457,40.71592],[-122.538311,40.715404],[-122.539785,40.714166],[-122.540112,40.713128],[-122.539915,40.71268],[-122.538679,40.713089],[-122.538071,40.712671],[-122.537489,40.712654],[-122.53741,40.711816],[-122.537876,40.711272],[-122.537377,40.711388],[-122.536826,40.712187],[-122.536318,40.712256],[-122.535534,40.711958],[-122.536139,40.712445],[-122.535082,40.713454],[-122.534832,40.713477],[-122.534566,40.713066],[-122.533685,40.713316],[-122.533782,40.71184],[-122.533338,40.711143],[-122.532159,40.710395],[-122.530057,40.709972],[-122.530228,40.708991],[-122.529745,40.708558],[-122.528367,40.708421],[-122.527632,40.707275],[-122.526374,40.706934],[-122.52597,40.706492],[-122.526618,40.705696],[-122.52782,40.706653],[-122.528218,40.70665],[-122.529525,40.705977],[-122.528797,40.705253],[-122.529082,40.704753],[-122.528856,40.704403],[-122.529442,40.703928],[-122.529151,40.703202],[-122.527306,40.703614],[-122.52707,40.703298],[-122.526747,40.703288],[-122.526628,40.702902],[-122.52638,40.702922],[-122.526405,40.703486],[-122.526774,40.703791],[-122.526209,40.704066],[-122.525539,40.703759],[-122.525579,40.703387],[-122.525217,40.703147],[-122.524384,40.703467],[-122.519584,40.7036],[-122.519578,40.703255],[-122.518532,40.702992],[-122.519379,40.701916],[-122.519135,40.701343],[-122.519303,40.700922],[-122.519761,40.700774],[-122.519822,40.700099],[-122.518382,40.700291],[-122.518161,40.700106],[-122.518217,40.699541],[-122.519467,40.699257],[-122.520174,40.698299],[-122.520057,40.698037],[-122.520711,40.696685],[-122.519949,40.696389],[-122.519947,40.69561],[-122.519759,40.695697],[-122.518858,40.694656],[-122.51817,40.694487],[-122.517845,40.694032],[-122.516889,40.694088],[-122.516243,40.693689],[-122.515568,40.694119],[-122.514589,40.694193],[-122.513555,40.693914],[-122.512733,40.69416],[-122.512236,40.692858],[-122.511038,40.69227],[-122.510314,40.692371],[-122.509116,40.691234],[-122.508546,40.691588],[-122.508379,40.692088],[-122.508864,40.692391],[-122.508909,40.692963],[-122.508104,40.693418],[-122.506653,40.693183],[-122.505634,40.692168],[-122.504457,40.692067],[-122.504024,40.691772],[-122.503915,40.692462],[-122.504875,40.693359],[-122.504492,40.693777],[-122.503253,40.693299],[-122.503049,40.692931],[-122.503194,40.692012],[-122.502955,40.691696],[-122.502056,40.691954],[-122.501774,40.692636],[-122.501359,40.692845],[-122.500811,40.692238],[-122.501127,40.69153],[-122.49999,40.691236],[-122.499615,40.690736],[-122.49966,40.689274],[-122.500023,40.68873],[-122.499869,40.68773],[-122.499049,40.687896],[-122.497937,40.688916],[-122.497454,40.688888],[-122.497146,40.688571],[-122.497,40.687207],[-122.497944,40.68661],[-122.498715,40.686514],[-122.498966,40.686793],[-122.499746,40.686927],[-122.499632,40.686188],[-122.500639,40.686635],[-122.501246,40.686642],[-122.49924,40.68528],[-122.498767,40.685769],[-122.498232,40.685711],[-122.498611,40.684863],[-122.498501,40.684475],[-122.496819,40.683264],[-122.4969,40.682895],[-122.497839,40.682875],[-122.498092,40.682602],[-122.497717,40.682458],[-122.497058,40.682657],[-122.496434,40.682369],[-122.496453,40.680104],[-122.496109,40.679187],[-122.495884,40.679129],[-122.495581,40.679433],[-122.496023,40.680712],[-122.495164,40.681643],[-122.49566,40.682293],[-122.495142,40.682531],[-122.494899,40.683122],[-122.494655,40.683106],[-122.494677,40.682494],[-122.494357,40.682326],[-122.493727,40.682749],[-122.493761,40.683274],[-122.494173,40.683448],[-122.494056,40.683991],[-122.494576,40.684779],[-122.494292,40.685078],[-122.493842,40.685005],[-122.493719,40.685704],[-122.492821,40.685787],[-122.492444,40.686131],[-122.49451,40.686199],[-122.495445,40.686859],[-122.494825,40.687368],[-122.496109,40.687559],[-122.495947,40.688226],[-122.496353,40.688442],[-122.495763,40.688767],[-122.496078,40.689247],[-122.495491,40.689788],[-122.494711,40.689807],[-122.4941,40.690346],[-122.492673,40.690548],[-122.492263,40.690999],[-122.491542,40.691067],[-122.491156,40.6897],[-122.490728,40.689549],[-122.490379,40.688111],[-122.489516,40.688032],[-122.489136,40.688703],[-122.488532,40.688986],[-122.487767,40.688296],[-122.487569,40.687223],[-122.488494,40.686626],[-122.488729,40.6857],[-122.487665,40.684492],[-122.48778,40.68412],[-122.487142,40.68406],[-122.486828,40.683389],[-122.484789,40.682527],[-122.483679,40.682443],[-122.483489,40.682785],[-122.483701,40.683221],[-122.482557,40.683347],[-122.483367,40.683803],[-122.484527,40.683713],[-122.485112,40.684298],[-122.485622,40.683825],[-122.485904,40.68384],[-122.486646,40.684962],[-122.486535,40.68514],[-122.485679,40.684935],[-122.484785,40.68538],[-122.48484,40.685631],[-122.486082,40.685739],[-122.485578,40.686119],[-122.486131,40.686562],[-122.486098,40.686764],[-122.485591,40.686848],[-122.485796,40.687278],[-122.485419,40.687391],[-122.485367,40.687734],[-122.485165,40.687847],[-122.48491,40.687466],[-122.484346,40.688002],[-122.48518,40.688172],[-122.485459,40.68846],[-122.485235,40.68915],[-122.484883,40.689397],[-122.486413,40.689553],[-122.486506,40.689725],[-122.484869,40.689806],[-122.484906,40.690181],[-122.485812,40.690514],[-122.48584,40.690814],[-122.484945,40.69207],[-122.483939,40.692542],[-122.483843,40.692275],[-122.482907,40.692391],[-122.482745,40.693147],[-122.482055,40.693258],[-122.481488,40.693608],[-122.481373,40.693961],[-122.480032,40.694358],[-122.479179,40.695046],[-122.478333,40.694904],[-122.478034,40.694418],[-122.478444,40.69411],[-122.477954,40.693812],[-122.478089,40.692659],[-122.477548,40.692204],[-122.477251,40.693908],[-122.475623,40.693117],[-122.475449,40.692218],[-122.476054,40.692198],[-122.477122,40.69153],[-122.476295,40.691402],[-122.476349,40.690887],[-122.475697,40.690989],[-122.475441,40.690721],[-122.474673,40.690786],[-122.473556,40.690459],[-122.47338,40.689675],[-122.473715,40.6894],[-122.473344,40.688633],[-122.472482,40.688473],[-122.472333,40.688196],[-122.472728,40.688013],[-122.473773,40.68826],[-122.473884,40.687764],[-122.474328,40.687871],[-122.474572,40.687622],[-122.474338,40.687191],[-122.474928,40.687347],[-122.475302,40.68705],[-122.476268,40.687025],[-122.476218,40.686767],[-122.475456,40.686574],[-122.47552,40.686393],[-122.476247,40.686348],[-122.476499,40.686054],[-122.475136,40.685886],[-122.475113,40.685533],[-122.47429,40.685129],[-122.473088,40.685028],[-122.473996,40.684222],[-122.473885,40.684059],[-122.472768,40.684388],[-122.47253,40.684367],[-122.472371,40.683913],[-122.470859,40.68386],[-122.470756,40.684241],[-122.470154,40.684333],[-122.469755,40.684103],[-122.469883,40.683741],[-122.470411,40.683514],[-122.470716,40.682906],[-122.472545,40.683476],[-122.472689,40.683262],[-122.473301,40.683484],[-122.473867,40.683201],[-122.47557,40.684124],[-122.476666,40.684319],[-122.477116,40.684691],[-122.477248,40.685764],[-122.477832,40.685456],[-122.47814,40.685628],[-122.478741,40.686882],[-122.479117,40.687074],[-122.479549,40.686478],[-122.480307,40.686625],[-122.480692,40.687071],[-122.481941,40.686964],[-122.482091,40.68642],[-122.482751,40.686351],[-122.483008,40.686071],[-122.482489,40.684474],[-122.481914,40.684093],[-122.479496,40.684322],[-122.478528,40.684091],[-122.478481,40.68387],[-122.477671,40.683468],[-122.475937,40.683007],[-122.478416,40.682159],[-122.47709,40.681761],[-122.476577,40.680151],[-122.475828,40.679876],[-122.474999,40.68013],[-122.475063,40.679244],[-122.47458,40.678436],[-122.472721,40.677636],[-122.472434,40.678623],[-122.471775,40.678882],[-122.471151,40.67857],[-122.470969,40.67783],[-122.471033,40.677639],[-122.47259,40.677547],[-122.473061,40.675872],[-122.47366,40.675518],[-122.474806,40.675601],[-122.475441,40.676485],[-122.476658,40.675933],[-122.477331,40.675021],[-122.477921,40.672456],[-122.477764,40.671396],[-122.478473,40.670408],[-122.480032,40.669348],[-122.480046,40.668883],[-122.479204,40.668508],[-122.477932,40.665924],[-122.478437,40.665412],[-122.481258,40.665228],[-122.481672,40.665058],[-122.481712,40.664577],[-122.480744,40.664045],[-122.480866,40.663249],[-122.48044,40.663119],[-122.480103,40.662563],[-122.479057,40.662843],[-122.478493,40.662163],[-122.477899,40.661926],[-122.47796,40.661735],[-122.477154,40.661662],[-122.476806,40.661146],[-122.476351,40.661044],[-122.476297,40.660715],[-122.475842,40.661256],[-122.474514,40.660578],[-122.474015,40.659546],[-122.47565,40.658727],[-122.476003,40.657679],[-122.475634,40.656772],[-122.474032,40.656591],[-122.47379,40.657163],[-122.47321,40.657304],[-122.472698,40.657092],[-122.472905,40.657618],[-122.473906,40.657694],[-122.474653,40.658245],[-122.474459,40.658936],[-122.473474,40.659071],[-122.472669,40.658739],[-122.472773,40.658475],[-122.471488,40.658636],[-122.47052,40.658369],[-122.470844,40.656941],[-122.470028,40.656838],[-122.469752,40.656507],[-122.469884,40.656183],[-122.470983,40.655273],[-122.472296,40.655434],[-122.47224,40.654611],[-122.472692,40.654224],[-122.471769,40.654268],[-122.471232,40.654826],[-122.470778,40.654931],[-122.470343,40.654512],[-122.471615,40.653945],[-122.470497,40.65334],[-122.470089,40.653529],[-122.469338,40.653454],[-122.468875,40.654052],[-122.468609,40.654051],[-122.468212,40.653425],[-122.468438,40.652544],[-122.465818,40.651388],[-122.464232,40.650165],[-122.463335,40.648826],[-122.462585,40.648751],[-122.46237,40.648226],[-122.46181,40.647842],[-122.461683,40.647146],[-122.460501,40.647168],[-122.460155,40.647429],[-122.460772,40.648433],[-122.460023,40.648763],[-122.459872,40.647523],[-122.459082,40.646434],[-122.45965,40.646288],[-122.459008,40.646151],[-122.456216,40.639112],[-122.456519,40.637319],[-122.457404,40.636108],[-122.457291,40.634606],[-122.455217,40.633893],[-122.453757,40.631622],[-122.453055,40.631714],[-122.4527,40.63142],[-122.452059,40.631358],[-122.452378,40.630656],[-122.453117,40.630195],[-122.454487,40.631012],[-122.457301,40.63112],[-122.458773,40.63102],[-122.459574,40.630583],[-122.460447,40.630897],[-122.462342,40.630655],[-122.464653,40.629272],[-122.465921,40.62917],[-122.466016,40.629004],[-122.465408,40.628751],[-122.464422,40.62883],[-122.462692,40.629954],[-122.45858,40.629756],[-122.45673,40.630164],[-122.454158,40.629115],[-122.454705,40.627223],[-122.454526,40.626114],[-122.454798,40.625412],[-122.454392,40.625303],[-122.452981,40.623782],[-122.451485,40.62312],[-122.449562,40.621771],[-122.44959,40.621409],[-122.450356,40.620933],[-122.449167,40.621025],[-122.448645,40.620603],[-122.448305,40.619824],[-122.4485,40.618877],[-122.447807,40.619055],[-122.446861,40.617535],[-122.446774,40.616784],[-122.447204,40.61588],[-122.447627,40.615703],[-122.449065,40.615841],[-122.449333,40.615628],[-122.447443,40.615249],[-122.447072,40.614783],[-122.447169,40.614426],[-122.447733,40.614309],[-122.447113,40.613603],[-122.447812,40.61226],[-122.446624,40.610323],[-122.447294,40.60873],[-122.446215,40.604946],[-122.445506,40.603704],[-122.44527,40.601986],[-122.444161,40.599907],[-122.442051,40.597966],[-122.438984,40.595954],[-122.438354,40.594993],[-122.437806,40.593322],[-122.43656,40.592696],[-122.433874,40.592373],[-122.430804,40.593001],[-122.426008,40.59317],[-122.424244,40.593014],[-122.422426,40.593196],[-122.422269,40.592911],[-122.421083,40.592619],[-122.421614,40.591922],[-122.42144,40.591761],[-122.419941,40.591658],[-122.420413,40.591207],[-122.420578,40.590255],[-122.421703,40.590332],[-122.422049,40.590048],[-122.42215,40.589238],[-122.422401,40.589168],[-122.422991,40.589671],[-122.423771,40.589648],[-122.42317,40.590578],[-122.423355,40.590912],[-122.424326,40.590727],[-122.425426,40.590017],[-122.426141,40.590497],[-122.427861,40.590458],[-122.428266,40.590722],[-122.428205,40.591114],[-122.428606,40.591333],[-122.428464,40.591523],[-122.431169,40.591285],[-122.431515,40.591024],[-122.431402,40.589617],[-122.430934,40.58952],[-122.430615,40.590233],[-122.430179,40.59004],[-122.430684,40.58822],[-122.430103,40.587871],[-122.428384,40.587863],[-122.427669,40.587335],[-122.427641,40.586953],[-122.42802,40.58655],[-122.429307,40.585984],[-122.429405,40.585412],[-122.428783,40.585076],[-122.427282,40.58514],[-122.426847,40.584732],[-122.426406,40.585159],[-122.426244,40.585874],[-122.425306,40.585845],[-122.424715,40.585485],[-122.424474,40.584363],[-122.425417,40.583796],[-122.426418,40.583777],[-122.427704,40.583235],[-122.428705,40.583168],[-122.428639,40.583573],[-122.427694,40.584451],[-122.429006,40.584529],[-122.429384,40.584244],[-122.429359,40.583128],[-122.431563,40.581366],[-122.431442,40.580841],[-122.430754,40.580909],[-122.430341,40.581724],[-122.428491,40.582643],[-122.428296,40.58241],[-122.428811,40.581715],[-122.428601,40.58076],[-122.428132,40.580687],[-122.427063,40.581444],[-122.426281,40.58144],[-122.426158,40.581273],[-122.426881,40.580776],[-122.427326,40.57992],[-122.428324,40.580259],[-122.429739,40.579217],[-122.42997,40.577859],[-122.430944,40.577244],[-122.430829,40.5761],[-122.431048,40.575982],[-122.431703,40.576175],[-122.432049,40.575891],[-122.432609,40.576275],[-122.433109,40.576302],[-122.433425,40.575826],[-122.433989,40.57571],[-122.433732,40.576543],[-122.434197,40.576974],[-122.435232,40.576646],[-122.435828,40.577154],[-122.437025,40.577384],[-122.438023,40.576902],[-122.438119,40.576466],[-122.437616,40.574936],[-122.43785,40.573102],[-122.437572,40.572168],[-122.438267,40.571941],[-122.437595,40.571792],[-122.43816,40.571643],[-122.43787,40.570247],[-122.438165,40.569949],[-122.438298,40.567695],[-122.441497,40.567748],[-122.442856,40.567158],[-122.444508,40.566069],[-122.44296,40.566302],[-122.440362,40.566041],[-122.438589,40.565728],[-122.437893,40.56521],[-122.438352,40.562628],[-122.439731,40.562272],[-122.440214,40.561639],[-122.441733,40.562034],[-122.441798,40.561682],[-122.441244,40.561108],[-122.441607,40.560613],[-122.442259,40.560406],[-122.441889,40.559737],[-122.442092,40.559395],[-122.44234,40.55972],[-122.442565,40.559626],[-122.442545,40.559035],[-122.443071,40.558999],[-122.443417,40.559401],[-122.44432,40.559024],[-122.444893,40.55937],[-122.445185,40.560268],[-122.44493,40.560953],[-122.445177,40.561278],[-122.444845,40.562173],[-122.445215,40.563033],[-122.445584,40.562375],[-122.445706,40.560496],[-122.446227,40.560472],[-122.446522,40.559796],[-122.447253,40.559259],[-122.447416,40.558064],[-122.448746,40.557914],[-122.450011,40.556671],[-122.450188,40.555073],[-122.450604,40.554784],[-122.453807,40.554249],[-122.45433,40.553438],[-122.453457,40.55175],[-122.453577,40.551266],[-122.45408,40.551871],[-122.454978,40.552259],[-122.454913,40.552611],[-122.456492,40.552968],[-122.457233,40.552182],[-122.456563,40.551917],[-122.455857,40.551054],[-122.457005,40.550219],[-122.458623,40.550446],[-122.459177,40.550311],[-122.461223,40.548783],[-122.463118,40.548651],[-122.464025,40.549894],[-122.464286,40.549853],[-122.465153,40.551398],[-122.465265,40.55223],[-122.466251,40.551717],[-122.466726,40.548801],[-122.467392,40.547286],[-122.46912,40.546822],[-122.470417,40.547333],[-122.470783,40.548251],[-122.471102,40.548249],[-122.471445,40.547764],[-122.472541,40.54771],[-122.47336,40.548266],[-122.473052,40.548921],[-122.472571,40.549178],[-122.47268,40.54969],[-122.472863,40.549967],[-122.473994,40.550034],[-122.474312,40.549452],[-122.474289,40.54804],[-122.474585,40.54696],[-122.474292,40.54669],[-122.474238,40.544965],[-122.4768,40.543488],[-122.479251,40.542559],[-122.481529,40.542499],[-122.481952,40.543168],[-122.483382,40.543216],[-122.483817,40.54272],[-122.483723,40.54164],[-122.486437,40.542138],[-122.487067,40.542466],[-122.487588,40.542158],[-122.486786,40.541648],[-122.485486,40.541368],[-122.48481,40.540833],[-122.484613,40.540238],[-122.485369,40.538352],[-122.486847,40.538362],[-122.487304,40.538996],[-122.487952,40.538534],[-122.487495,40.537908],[-122.487268,40.536648],[-122.486585,40.536854],[-122.486318,40.536704],[-122.486049,40.537121],[-122.485052,40.536917],[-122.484717,40.536693],[-122.484992,40.536381],[-122.48482,40.536159],[-122.483766,40.536003],[-122.483525,40.535687],[-122.483649,40.535416],[-122.485208,40.535381],[-122.48621,40.535089],[-122.489487,40.53513],[-122.49011,40.534657],[-122.48947,40.53391],[-122.488889,40.53374],[-122.488938,40.53337],[-122.48958,40.533218],[-122.489805,40.532385],[-122.489383,40.532359],[-122.488566,40.533011],[-122.487848,40.532984],[-122.488619,40.532261],[-122.488248,40.531639],[-122.488346,40.531103],[-122.489191,40.53094],[-122.488935,40.531785],[-122.489276,40.532049],[-122.489911,40.531746],[-122.490034,40.531403],[-122.489235,40.530484],[-122.489737,40.529658],[-122.489609,40.529387],[-122.488453,40.529259],[-122.487558,40.528611],[-122.487433,40.527867],[-122.486457,40.528006],[-122.485859,40.527433],[-122.486054,40.527246],[-122.485945,40.526225],[-122.487126,40.525848],[-122.488922,40.524313],[-122.49067,40.524141],[-122.490691,40.523955],[-122.489549,40.523693],[-122.489599,40.522063],[-122.49005,40.521936],[-122.49048,40.522124],[-122.49128,40.522814],[-122.491116,40.523316],[-122.491969,40.523375],[-122.492339,40.524034],[-122.493442,40.524382],[-122.4941,40.524214],[-122.49478,40.524486],[-122.49548,40.524055],[-122.495712,40.523074],[-122.496562,40.522177],[-122.495663,40.522173],[-122.494697,40.523542],[-122.49404,40.52361],[-122.495254,40.521628],[-122.496715,40.521777],[-122.49701,40.522422],[-122.497645,40.522682],[-122.49814,40.52174],[-122.498813,40.521929],[-122.502193,40.521326],[-122.504079,40.52056],[-122.505637,40.518707],[-122.505296,40.517638],[-122.506351,40.516765],[-122.507075,40.51694],[-122.507571,40.517362],[-122.508297,40.517231],[-122.50873,40.517632],[-122.509241,40.517245],[-122.509769,40.517605],[-122.510343,40.517621],[-122.511122,40.516938],[-122.512193,40.517458],[-122.512892,40.517537],[-122.513297,40.517262],[-122.513102,40.516701],[-122.5138,40.516454],[-122.512737,40.515921],[-122.512814,40.515472],[-122.513507,40.515382],[-122.515135,40.515718],[-122.516129,40.515594],[-122.517827,40.51405],[-122.517877,40.513704],[-122.515941,40.511408],[-122.516977,40.510697],[-122.515044,40.510212],[-122.514814,40.509675],[-122.514845,40.507542],[-122.514398,40.506682],[-122.512219,40.50533],[-122.508969,40.503846],[-122.508002,40.503783],[-122.507791,40.502723],[-122.506766,40.502025],[-122.505654,40.502414],[-122.503539,40.502073],[-122.502544,40.501473],[-122.502583,40.500424],[-122.50203,40.49923],[-122.501889,40.497132],[-122.50118,40.495913],[-122.501183,40.49546],[-122.50194,40.494438],[-122.50241,40.494226],[-122.503145,40.494273],[-122.504227,40.493447],[-122.50538,40.493471],[-122.506294,40.492694],[-122.506792,40.492904],[-122.507296,40.492505],[-122.508032,40.492337],[-122.509593,40.49243],[-122.510179,40.492828],[-122.511225,40.492911],[-122.513779,40.493684],[-122.514616,40.494546],[-122.515338,40.493989],[-122.516387,40.493588],[-122.5159,40.493955],[-122.515945,40.494289],[-122.5171,40.494234],[-122.51759,40.494801],[-122.518826,40.495255],[-122.519166,40.495733],[-122.519363,40.49986],[-122.520752,40.500294],[-122.521013,40.500125],[-122.521817,40.500271],[-122.52227,40.500745],[-122.523384,40.500978],[-122.525239,40.500698],[-122.526965,40.500965],[-122.527711,40.501397],[-122.529072,40.503412],[-122.529996,40.504055],[-122.531454,40.504867],[-122.533808,40.504927],[-122.534906,40.506391],[-122.536339,40.506504],[-122.536324,40.506828],[-122.535712,40.506901],[-122.536323,40.507253],[-122.537207,40.507395],[-122.537032,40.507931],[-122.538199,40.508579],[-122.53721,40.509266],[-122.537064,40.510005],[-122.536583,40.510291],[-122.536747,40.51079],[-122.537185,40.510697],[-122.537548,40.510054],[-122.538171,40.510283],[-122.538457,40.509581],[-122.538862,40.50969],[-122.538954,40.510048],[-122.540697,40.509679],[-122.541446,40.50972],[-122.541794,40.509989],[-122.541693,40.51016],[-122.540744,40.510099],[-122.540543,40.510213],[-122.540666,40.510575],[-122.541635,40.511266],[-122.541805,40.511637],[-122.543651,40.512361],[-122.544671,40.512049],[-122.54598,40.512095],[-122.545606,40.511586],[-122.545808,40.511263],[-122.546604,40.511686],[-122.547334,40.510983],[-122.548057,40.511081],[-122.547875,40.512187],[-122.54862,40.512933],[-122.547971,40.513702],[-122.549286,40.515953],[-122.549044,40.517215],[-122.54979,40.517707],[-122.550377,40.518686],[-122.550108,40.519198],[-122.550281,40.520141],[-122.54989,40.520702],[-122.550463,40.521038],[-122.55056,40.521391],[-122.551246,40.521594],[-122.551406,40.521937],[-122.552155,40.522074],[-122.553923,40.523053],[-122.554741,40.523981],[-122.555098,40.525147],[-122.55644,40.525942],[-122.55634,40.526928],[-122.55705,40.528276],[-122.556951,40.529033],[-122.555374,40.529442],[-122.555317,40.529628],[-122.556515,40.529861],[-122.556265,40.530804],[-122.555773,40.531403],[-122.556166,40.531491],[-122.556024,40.532022],[-122.555637,40.532189],[-122.555912,40.533062],[-122.556801,40.533321],[-122.556448,40.532172],[-122.557076,40.531621],[-122.557058,40.530668],[-122.557888,40.529756],[-122.557167,40.529238],[-122.558189,40.527726],[-122.558268,40.527168],[-122.559675,40.526859],[-122.559896,40.526398],[-122.560897,40.525823],[-122.562312,40.525921],[-122.563581,40.526764],[-122.565769,40.526453],[-122.567474,40.526645],[-122.568837,40.527394],[-122.56983,40.527527],[-122.570919,40.527202],[-122.571649,40.527262],[-122.57169,40.526733],[-122.572421,40.52675],[-122.573335,40.527482],[-122.574438,40.527873],[-122.574567,40.528231],[-122.575711,40.528106],[-122.576141,40.528322],[-122.576387,40.530955],[-122.57755,40.531824],[-122.577861,40.531245],[-122.578846,40.531197],[-122.578853,40.531975],[-122.57928,40.532374],[-122.580191,40.532577],[-122.58086,40.533552],[-122.580281,40.533805],[-122.580216,40.534353],[-122.581278,40.534356],[-122.582502,40.5347],[-122.582599,40.535208],[-122.582967,40.535392],[-122.582881,40.536077],[-122.583165,40.536726],[-122.584063,40.537155],[-122.584977,40.53714],[-122.584982,40.538418],[-122.586463,40.539626],[-122.587223,40.539703],[-122.587619,40.540315],[-122.588581,40.540481],[-122.588854,40.540777],[-122.591928,40.54085],[-122.593101,40.541102],[-122.593012,40.541619],[-122.593487,40.541409],[-122.594235,40.541764],[-122.594357,40.542098],[-122.595877,40.542214],[-122.59776,40.54401],[-122.598745,40.54397],[-122.598749,40.543213],[-122.598956,40.54312],[-122.600577,40.543319],[-122.600919,40.544184],[-122.601758,40.544902],[-122.601956,40.544681],[-122.601998,40.545316],[-122.603118,40.545514],[-122.604173,40.54528],[-122.604059,40.544852],[-122.603656,40.54476],[-122.603679,40.544107],[-122.604478,40.54378],[-122.605263,40.544217],[-122.606,40.544264],[-122.606265,40.543955],[-122.605981,40.543621],[-122.608065,40.542644],[-122.608714,40.541794],[-122.60887,40.540977],[-122.608655,40.539965],[-122.609583,40.538942],[-122.607856,40.535695],[-122.608212,40.535368],[-122.607631,40.535156],[-122.607039,40.534337],[-122.605879,40.534156],[-122.605368,40.533804],[-122.605277,40.53331],[-122.60568,40.533228],[-122.605844,40.532193],[-122.606867,40.53089],[-122.607032,40.530318],[-122.610137,40.528493],[-122.611907,40.528199],[-122.612788,40.528577],[-122.6125,40.529063],[-122.613164,40.529075],[-122.613588,40.529894],[-122.614005,40.530058],[-122.615211,40.529354],[-122.615708,40.527693],[-122.616307,40.527218],[-122.616171,40.524043],[-122.61731,40.522471],[-122.617026,40.522022],[-122.616296,40.521902],[-122.616549,40.52127],[-122.61627,40.520831],[-122.615177,40.519938],[-122.613932,40.520154],[-122.613189,40.519007],[-122.613194,40.518245],[-122.613604,40.517459],[-122.614962,40.517251],[-122.614668,40.516321],[-122.614821,40.515962],[-122.615858,40.515626],[-122.621351,40.515882],[-122.622534,40.516263],[-122.628328,40.516197],[-122.629195,40.514909],[-122.630228,40.514647],[-122.630852,40.514739],[-122.630994,40.515023],[-122.634886,40.517038],[-122.638502,40.515843],[-122.638735,40.515419],[-122.641469,40.5151],[-122.642366,40.515282],[-122.642758,40.514925],[-122.64651,40.514251],[-122.647356,40.514624],[-122.648772,40.51412],[-122.650374,40.514219],[-122.652748,40.513138],[-122.654248,40.513009],[-122.65542,40.513318],[-122.656016,40.514101],[-122.655762,40.514502],[-122.657202,40.515245],[-122.658049,40.514921],[-122.65869,40.51515],[-122.660069,40.514359],[-122.659994,40.514062],[-122.660365,40.513809],[-122.661741,40.513451],[-122.661965,40.513528],[-122.661995,40.514033],[-122.662942,40.514721],[-122.664892,40.517531],[-122.664584,40.518626],[-122.665264,40.519639],[-122.665633,40.519634],[-122.66604,40.518954],[-122.666649,40.519114],[-122.667002,40.519607],[-122.668002,40.519377],[-122.668508,40.519648],[-122.669159,40.51859],[-122.66973,40.519312],[-122.669664,40.519692],[-122.670121,40.519759],[-122.670042,40.520139],[-122.670769,40.520429],[-122.67131,40.519333],[-122.672209,40.519478],[-122.67219,40.518842],[-122.672713,40.518523],[-122.673064,40.518619],[-122.673266,40.519331],[-122.673802,40.51917],[-122.674075,40.518768],[-122.674515,40.518925],[-122.674354,40.519486],[-122.675113,40.519538],[-122.675343,40.519171],[-122.676038,40.519292],[-122.676013,40.518877],[-122.676828,40.518547],[-122.67745,40.518522],[-122.678908,40.517919],[-122.680446,40.517854],[-122.68091,40.517624],[-122.681012,40.51711],[-122.679487,40.516446],[-122.679884,40.51589],[-122.678901,40.514977],[-122.679248,40.514263],[-122.679033,40.513547],[-122.67941,40.513119],[-122.679132,40.512403],[-122.679322,40.511879],[-122.682741,40.508838],[-122.683526,40.507863],[-122.683158,40.506503],[-122.684172,40.506255],[-122.684744,40.505868],[-122.685187,40.504991],[-122.686217,40.504339],[-122.686796,40.5034],[-122.687498,40.502988],[-122.68839,40.503144],[-122.688949,40.502654],[-122.690388,40.502134],[-122.691765,40.501303],[-122.692484,40.501162],[-122.694108,40.501166],[-122.695011,40.501836],[-122.69551,40.501885],[-122.695914,40.502363],[-122.695691,40.503292],[-122.694278,40.504981],[-122.692299,40.505753],[-122.69284,40.506383],[-122.692741,40.507513],[-122.691817,40.508783],[-122.692123,40.509869],[-122.691654,40.511486],[-122.691241,40.511842],[-122.689439,40.512367],[-122.688101,40.514079],[-122.690615,40.513342],[-122.691121,40.513444],[-122.692715,40.513191],[-122.693336,40.512634],[-122.693916,40.512693],[-122.693656,40.512249],[-122.69437,40.511894],[-122.694203,40.511507],[-122.694904,40.509764],[-122.695838,40.510116],[-122.695265,40.508592],[-122.696048,40.508501],[-122.695655,40.508009],[-122.695858,40.507575],[-122.696197,40.507472],[-122.695773,40.506981],[-122.695824,40.50667],[-122.696407,40.506395],[-122.696263,40.505898],[-122.696467,40.505488],[-122.696963,40.505406],[-122.696946,40.504953],[-122.697596,40.504796],[-122.697236,40.504351],[-122.697308,40.503754],[-122.697592,40.503843],[-122.697863,40.503575],[-122.697632,40.503246],[-122.698248,40.502967],[-122.698016,40.502553],[-122.698314,40.501845],[-122.699614,40.501515],[-122.699714,40.501015],[-122.700514,40.500085],[-122.701014,40.500545],[-122.703106,40.500903],[-122.702914,40.501515],[-122.703414,40.504905],[-122.704314,40.505305],[-122.705697,40.50737],[-122.706788,40.507826],[-122.707752,40.50871],[-122.709124,40.509167],[-122.709496,40.509883],[-122.709523,40.510836],[-122.711266,40.512247],[-122.711076,40.512795],[-122.711293,40.513248],[-122.712507,40.514204],[-122.713003,40.515088],[-122.713812,40.515781],[-122.712777,40.516803],[-122.712461,40.517518],[-122.712489,40.518304],[-122.713453,40.519379],[-122.713046,40.519593],[-122.712079,40.519422],[-122.711267,40.51989],[-122.710081,40.5211],[-122.709868,40.522074],[-122.710219,40.523569],[-122.709442,40.524037],[-122.709509,40.525747],[-122.708731,40.526717],[-122.70935,40.527901],[-122.707747,40.531507],[-122.706007,40.532777],[-122.704413,40.535056],[-122.702927,40.535738],[-122.701438,40.536836],[-122.700805,40.538622],[-122.6999,40.54005],[-122.698802,40.54112],[-122.698211,40.542191],[-122.696906,40.543143],[-122.696733,40.544056],[-122.693773,40.547299],[-122.693258,40.54835],[-122.693713,40.548588],[-122.692394,40.549943],[-122.692392,40.550467],[-122.691673,40.550513],[-122.690544,40.55132],[-122.68957,40.552486],[-122.689379,40.553272],[-122.688251,40.55396],[-122.688092,40.554532],[-122.687346,40.554699],[-122.68672,40.55517],[-122.686648,40.557077],[-122.686208,40.5576],[-122.685758,40.557355],[-122.68532,40.557497],[-122.68619,40.558596],[-122.685811,40.559548],[-122.689194,40.5629],[-122.692038,40.564147],[-122.693737,40.565767],[-122.696517,40.566303],[-122.697928,40.566972],[-122.698688,40.569207],[-122.700616,40.569394],[-122.701008,40.569959],[-122.702425,40.57094],[-122.703302,40.570951],[-122.704524,40.571487],[-122.705581,40.571232],[-122.703861,40.570295],[-122.703755,40.569762],[-122.703123,40.569717],[-122.702741,40.569145],[-122.705015,40.569064],[-122.705262,40.569307],[-122.706133,40.56925],[-122.706515,40.569369],[-122.706679,40.570166],[-122.707107,40.570665],[-122.706977,40.570911],[-122.707674,40.571573],[-122.70983,40.571793],[-122.710063,40.572121],[-122.709705,40.57218],[-122.709469,40.572754],[-122.711189,40.573655],[-122.711825,40.573492],[-122.71158,40.5731],[-122.712217,40.572904],[-122.712288,40.572604],[-122.712913,40.572635],[-122.712911,40.573052],[-122.714048,40.57234],[-122.714418,40.572429],[-122.714635,40.572042],[-122.715104,40.571877],[-122.716844,40.571704],[-122.717312,40.572008],[-122.717633,40.572905],[-122.716454,40.572841],[-122.715952,40.573294],[-122.716342,40.573734],[-122.717519,40.573808],[-122.718532,40.574437],[-122.71875,40.575575],[-122.719042,40.575792],[-122.719855,40.575781],[-122.719993,40.577342],[-122.720554,40.577749],[-122.721799,40.578139],[-122.721538,40.578821],[-122.723811,40.578065],[-122.723766,40.576883],[-122.724095,40.575949],[-122.7239,40.574786],[-122.724328,40.574081],[-122.724729,40.573853],[-122.725955,40.573761],[-122.726833,40.573038],[-122.728875,40.572605],[-122.731741,40.571372],[-122.732916,40.571413],[-122.733365,40.571681],[-122.733412,40.572539],[-122.735183,40.57363],[-122.735934,40.573536],[-122.736861,40.572871],[-122.737361,40.572891],[-122.73786,40.573331],[-122.739811,40.573164],[-122.740385,40.573489],[-122.740956,40.57452],[-122.740573,40.575282],[-122.740867,40.575637],[-122.74025,40.575949],[-122.740223,40.576521],[-122.740614,40.577343],[-122.741257,40.580675],[-122.742742,40.581934],[-122.743558,40.582163],[-122.747036,40.584945],[-122.74741,40.585332],[-122.747414,40.586385],[-122.747814,40.587455],[-122.748731,40.588224],[-122.748355,40.588395],[-122.748014,40.589165],[-122.747944,40.589989],[-122.748347,40.590526],[-122.748319,40.591851],[-122.74754,40.592822],[-122.74843,40.593343],[-122.747999,40.593428],[-122.747284,40.594137],[-122.746081,40.594821],[-122.745855,40.595144],[-122.746003,40.595564],[-122.745256,40.59634],[-122.745588,40.596542],[-122.74533,40.598576],[-122.745993,40.598535],[-122.746062,40.598741],[-122.745131,40.59913],[-122.745216,40.599835],[-122.744963,40.600133],[-122.745689,40.602752],[-122.745428,40.603174],[-122.745978,40.604223],[-122.746039,40.605241],[-122.74568,40.605443],[-122.746107,40.606161],[-122.746427,40.608899],[-122.745862,40.611136],[-122.746079,40.611471],[-122.745452,40.612017],[-122.745262,40.612589],[-122.745383,40.61371],[-122.743649,40.614281],[-122.743929,40.615249],[-122.744534,40.614828],[-122.745316,40.614711],[-122.745595,40.615545],[-122.745131,40.615766],[-122.745194,40.616028],[-122.745847,40.616826],[-122.746154,40.616452],[-122.746842,40.616621],[-122.746609,40.618408],[-122.747124,40.61879],[-122.746496,40.619337],[-122.746511,40.619683],[-122.745821,40.620182],[-122.746258,40.620302],[-122.746634,40.620124],[-122.74682,40.620661],[-122.746427,40.621268],[-122.747597,40.62189],[-122.747781,40.62282],[-122.747138,40.623331],[-122.746216,40.623115],[-122.746041,40.623841],[-122.745076,40.624703],[-122.745261,40.625586],[-122.743659,40.62706],[-122.74428,40.628444],[-122.74406,40.628777],[-122.744339,40.629302],[-122.744056,40.629611],[-122.743086,40.629752],[-122.743302,40.630658],[-122.741862,40.630774],[-122.741452,40.631495],[-122.740609,40.631728],[-122.739558,40.631745],[-122.737858,40.631055],[-122.736756,40.631434],[-122.736463,40.631341],[-122.735317,40.632506],[-122.735782,40.63362],[-122.735535,40.634081],[-122.736478,40.633633],[-122.73776,40.633523],[-122.738633,40.633677],[-122.739641,40.633435],[-122.740112,40.63367],[-122.741216,40.633638],[-122.741962,40.634076],[-122.745758,40.639379],[-122.746185,40.639477],[-122.746558,40.63995],[-122.746313,40.640141],[-122.747213,40.641378],[-122.747339,40.642634],[-122.747839,40.643495],[-122.747645,40.64502],[-122.746765,40.646114],[-122.746763,40.646496],[-122.747136,40.647259],[-122.748757,40.648931],[-122.748312,40.650646],[-122.748517,40.651715],[-122.749166,40.652327],[-122.753999,40.65383],[-122.760132,40.654034],[-122.76025,40.654469],[-122.764471,40.65564],[-122.766131,40.656356],[-122.766987,40.657729],[-122.767729,40.657968],[-122.768079,40.658654],[-122.76886,40.659014],[-122.769821,40.658241],[-122.770583,40.658689],[-122.77168,40.658274],[-122.772697,40.658217],[-122.775083,40.65846],[-122.776021,40.658849],[-122.776265,40.659241],[-122.776192,40.660235],[-122.775818,40.660845],[-122.776169,40.661233],[-122.775346,40.661738],[-122.776515,40.66317],[-122.776669,40.663736],[-122.776354,40.664481],[-122.776664,40.665196],[-122.776229,40.666864],[-122.775524,40.666952],[-122.774936,40.667368],[-122.774815,40.668172],[-122.773285,40.66948],[-122.773324,40.669659],[-122.774217,40.669833],[-122.775018,40.66877],[-122.775468,40.668814],[-122.775353,40.669715],[-122.774278,40.670943],[-122.77431,40.672616],[-122.774007,40.673245],[-122.774325,40.673746],[-122.77402,40.675032],[-122.774301,40.675333],[-122.774315,40.676592],[-122.77512,40.677537],[-122.775212,40.678095],[-122.77444,40.678537],[-122.773761,40.679522],[-122.772782,40.680064],[-122.771594,40.681263],[-122.771856,40.681578],[-122.772284,40.681636],[-122.772151,40.681075],[-122.773668,40.681049],[-122.773844,40.680715],[-122.775468,40.68054],[-122.775704,40.680645],[-122.775501,40.681082],[-122.775798,40.681404],[-122.776236,40.681262],[-122.777486,40.682134],[-122.779317,40.68215],[-122.780692,40.683141],[-122.781537,40.68331],[-122.7813,40.683798],[-122.781737,40.684204],[-122.781266,40.684835],[-122.780994,40.686574],[-122.781132,40.687516],[-122.782221,40.689556],[-122.78217,40.690748],[-122.782669,40.691261],[-122.782479,40.691976],[-122.783512,40.692073],[-122.783543,40.692252],[-122.782775,40.692584],[-122.782239,40.693596],[-122.782692,40.694014],[-122.784037,40.694493],[-122.783174,40.695028],[-122.783357,40.695708],[-122.781364,40.697163],[-122.780875,40.698414],[-122.779948,40.699294],[-122.780023,40.700295],[-122.77927,40.700758],[-122.778511,40.702423],[-122.778896,40.704941],[-122.778703,40.70649],[-122.778933,40.707801],[-122.780038,40.710056],[-122.782588,40.710764],[-122.782389,40.711211],[-122.782665,40.711855],[-122.781881,40.712163],[-122.78066,40.711922],[-122.779876,40.712398],[-122.779718,40.712755],[-122.781063,40.713258],[-122.781469,40.713712],[-122.780995,40.714783],[-122.780356,40.715338],[-122.778945,40.715979],[-122.778472,40.715849],[-122.777854,40.71699],[-122.77499,40.718848],[-122.772125,40.720009],[-122.770401,40.721495],[-122.770619,40.721806],[-122.770415,40.722118],[-122.769489,40.722399],[-122.768384,40.723207],[-122.767673,40.723259],[-122.767463,40.723886],[-122.766888,40.724131],[-122.766669,40.724874],[-122.765981,40.724914],[-122.764247,40.725809],[-122.764477,40.726645],[-122.763407,40.727763],[-122.76275,40.727905],[-122.761762,40.72853],[-122.759611,40.728106],[-122.758935,40.727377],[-122.757521,40.72759],[-122.756177,40.726729],[-122.755675,40.726775],[-122.755097,40.727368],[-122.754159,40.726949],[-122.753219,40.726888],[-122.753073,40.727869],[-122.749921,40.729205],[-122.749525,40.730157],[-122.748818,40.730811],[-122.746309,40.731461],[-122.745071,40.732303],[-122.745021,40.733028],[-122.74394,40.733846],[-122.743509,40.735098],[-122.742429,40.735864],[-122.740123,40.735782],[-122.737938,40.736693],[-122.736208,40.736841],[-122.733316,40.736419],[-122.732698,40.736795],[-122.732675,40.736278],[-122.731176,40.736376],[-122.730863,40.736431],[-122.73026,40.737184],[-122.729236,40.737512],[-122.726902,40.738097],[-122.725898,40.7379],[-122.725117,40.738256],[-122.724365,40.738218],[-122.723841,40.738738],[-122.722969,40.738477],[-122.722514,40.738607],[-122.722371,40.739143],[-122.721908,40.739344],[-122.721706,40.739858],[-122.721003,40.740009],[-122.720424,40.739803],[-122.71905,40.741693],[-122.718607,40.743639],[-122.717511,40.744365],[-122.717586,40.745325],[-122.716956,40.745979],[-122.716586,40.746958],[-122.715381,40.747318],[-122.714465,40.747277],[-122.713222,40.748018],[-122.712401,40.748092],[-122.711738,40.748568],[-122.71094,40.748691],[-122.710169,40.749148],[-122.709147,40.749088],[-122.708914,40.749395],[-122.708275,40.749205],[-122.705979,40.749613],[-122.705622,40.749829],[-122.705101,40.751461],[-122.704235,40.752382],[-122.70324,40.753123],[-122.702272,40.753331],[-122.701091,40.754609],[-122.700108,40.755262],[-122.700302,40.755739],[-122.700969,40.755532],[-122.701674,40.755713],[-122.70218,40.756399],[-122.702214,40.757561],[-122.701309,40.758168],[-122.701516,40.759776],[-122.702129,40.760491],[-122.70493,40.761959],[-122.705471,40.762975],[-122.705026,40.76572],[-122.705642,40.766708],[-122.705611,40.767535],[-122.704933,40.768606],[-122.704899,40.769154],[-122.70696,40.770947],[-122.707508,40.771092],[-122.708469,40.77368],[-122.708691,40.776529],[-122.709563,40.778069],[-122.709737,40.780014],[-122.710352,40.780514],[-122.710584,40.781241],[-122.709509,40.783086],[-122.710086,40.783874],[-122.709812,40.785613],[-122.710462,40.786245],[-122.711345,40.786487],[-122.712122,40.787147],[-122.713661,40.787349],[-122.718886,40.790175],[-122.720391,40.790155],[-122.721705,40.790968],[-122.722423,40.79178],[-122.722041,40.793066],[-122.723793,40.794096],[-122.725047,40.794122],[-122.726487,40.794817],[-122.726924,40.795485],[-122.72692,40.796439],[-122.727951,40.797228],[-122.728782,40.799449],[-122.731732,40.800931],[-122.731792,40.801503],[-122.732542,40.802244],[-122.732416,40.80241],[-122.731161,40.802431],[-122.729871,40.801816],[-122.729195,40.801871],[-122.726783,40.801102],[-122.722785,40.801521],[-122.721846,40.800947],[-122.717426,40.800436],[-122.715841,40.799955],[-122.713908,40.800627],[-122.712909,40.801553],[-122.71247,40.801671],[-122.710152,40.800998],[-122.709592,40.799781],[-122.709007,40.799038],[-122.708732,40.799118],[-122.708721,40.799635],[-122.709307,40.800347],[-122.709242,40.800883],[-122.710493,40.801905],[-122.710022,40.801975],[-122.709202,40.80168],[-122.708782,40.801895],[-122.708957,40.802414],[-122.709518,40.80245],[-122.709855,40.80295],[-122.707479,40.803778],[-122.706961,40.80498],[-122.705156,40.806928],[-122.704701,40.807033],[-122.70167,40.806664],[-122.701686,40.807207],[-122.703125,40.808923],[-122.703031,40.810152],[-122.703495,40.810691],[-122.703621,40.81252],[-122.704538,40.813192],[-122.704485,40.813897],[-122.705662,40.814339],[-122.706037,40.814836],[-122.706147,40.818173],[-122.705015,40.818837],[-122.704103,40.820723],[-122.703293,40.821542],[-122.703291,40.821924],[-122.70282,40.822018],[-122.702457,40.821695],[-122.697135,40.824022],[-122.693242,40.823602],[-122.692706,40.824431],[-122.692062,40.824537],[-122.692107,40.825097],[-122.691417,40.824988],[-122.691294,40.824475],[-122.690696,40.824795],[-122.690489,40.82551],[-122.689876,40.825806],[-122.688903,40.825708],[-122.688387,40.825325],[-122.689818,40.824662],[-122.689741,40.824316],[-122.688689,40.824528],[-122.687368,40.825323],[-122.685004,40.827426],[-122.683572,40.828339],[-122.682488,40.828801],[-122.681076,40.828726],[-122.678671,40.829661],[-122.678588,40.830495],[-122.679527,40.831105],[-122.679868,40.831976],[-122.6793,40.832558],[-122.679077,40.833261],[-122.679693,40.83412],[-122.679063,40.83469],[-122.679407,40.834953],[-122.67928,40.835263],[-122.678202,40.834812],[-122.677075,40.834786],[-122.676927,40.83289],[-122.675787,40.831922],[-122.674877,40.831824],[-122.673916,40.832656],[-122.67452,40.833057],[-122.673813,40.833075],[-122.673331,40.833524],[-122.672596,40.833564],[-122.669826,40.831959],[-122.668901,40.83179],[-122.667792,40.830285],[-122.667416,40.830677],[-122.666185,40.830881],[-122.665826,40.8319],[-122.665164,40.832315],[-122.664019,40.832396],[-122.663291,40.833549],[-122.662569,40.833555],[-122.662626,40.834315],[-122.662041,40.834019],[-122.659338,40.833776],[-122.657874,40.834666],[-122.657286,40.835658],[-122.657204,40.836795],[-122.656553,40.837493],[-122.656558,40.838009],[-122.656951,40.838392],[-122.656752,40.839279],[-122.655127,40.841508],[-122.654712,40.841736],[-122.650693,40.843197],[-122.648855,40.843146],[-122.647527,40.843702],[-122.645849,40.843968],[-122.644025,40.843647],[-122.640118,40.845166],[-122.638971,40.844407],[-122.638777,40.845836],[-122.639015,40.849822],[-122.638345,40.852418],[-122.638522,40.854312],[-122.636669,40.856137],[-122.635661,40.856773],[-122.63575,40.858081],[-122.635074,40.859688],[-122.634601,40.860193],[-122.633625,40.861147],[-122.631737,40.862136],[-122.631487,40.862699],[-122.631046,40.862643],[-122.629965,40.863459],[-122.629947,40.863964],[-122.630349,40.864154],[-122.629818,40.864738],[-122.628938,40.865269],[-122.628044,40.864894],[-122.62725,40.865903],[-122.62667,40.865899],[-122.626285,40.866181],[-122.62589,40.86697],[-122.626354,40.86827],[-122.626034,40.869371],[-122.625425,40.87002],[-122.625445,40.870256],[-122.626112,40.87059],[-122.62555,40.872206],[-122.626344,40.872979],[-122.62577,40.873904],[-122.626006,40.875171],[-122.625571,40.876948],[-122.624482,40.878184],[-122.622498,40.879179],[-122.618356,40.878712],[-122.617347,40.879329],[-122.616329,40.880585],[-122.61369,40.881748],[-122.610747,40.882444],[-122.60905,40.882208],[-122.609596,40.8829],[-122.608884,40.883349],[-122.608414,40.885251],[-122.608012,40.885569],[-122.607136,40.88726],[-122.607074,40.888842],[-122.605398,40.890652],[-122.605299,40.891577],[-122.60454,40.892539],[-122.604381,40.895411],[-122.604724,40.895901],[-122.604733,40.897033],[-122.603832,40.898007],[-122.599838,40.900241],[-122.601244,40.901815],[-122.601071,40.903181],[-122.601983,40.906102],[-122.599997,40.910385],[-122.598743,40.911547],[-122.599497,40.911617],[-122.599775,40.91235],[-122.599528,40.912514],[-122.59851,40.911826],[-122.598076,40.912133],[-122.596642,40.912376],[-122.5934,40.915549],[-122.591354,40.921446],[-122.590576,40.921888],[-122.589629,40.923135],[-122.588437,40.923901],[-122.586394,40.923456],[-122.583198,40.923997],[-122.580426,40.925017],[-122.579063,40.925851],[-122.575923,40.92542],[-122.574378,40.925788],[-122.572489,40.923958],[-122.571084,40.923495],[-122.570305,40.923454],[-122.567888,40.923941],[-122.566803,40.923834],[-122.565926,40.924093],[-122.565648,40.924466],[-122.564237,40.924804],[-122.562924,40.925753],[-122.560552,40.925915],[-122.55955,40.926503],[-122.558174,40.926898],[-122.557659,40.927353],[-122.55436,40.928275],[-122.554479,40.929153],[-122.553469,40.929812],[-122.553541,40.930293],[-122.552173,40.931889],[-122.551794,40.932136],[-122.549086,40.932681],[-122.542506,40.937381],[-122.540423,40.936744],[-122.539447,40.93613],[-122.538243,40.935743],[-122.536703,40.934361]]],[[[-122.625505,40.724758],[-122.626426,40.724632],[-122.62801,40.723808],[-122.629121,40.723789],[-122.6289,40.723182],[-122.629502,40.722405],[-122.629008,40.721869],[-122.629405,40.721413],[-122.629202,40.720868],[-122.629393,40.720311],[-122.628984,40.720339],[-122.629377,40.719774],[-122.629581,40.719901],[-122.631997,40.718446],[-122.635181,40.717778],[-122.63712,40.71646],[-122.637692,40.715075],[-122.638914,40.714921],[-122.639872,40.715082],[-122.641089,40.715958],[-122.641355,40.716805],[-122.642531,40.716949],[-122.643093,40.717294],[-122.643733,40.717081],[-122.644164,40.717269],[-122.645316,40.716371],[-122.645615,40.716644],[-122.645462,40.717187],[-122.645879,40.717401],[-122.646266,40.717091],[-122.646312,40.714397],[-122.645662,40.712965],[-122.646023,40.711541],[-122.646946,40.711093],[-122.648214,40.711312],[-122.648398,40.712135],[-122.648959,40.712637],[-122.649899,40.712532],[-122.650386,40.712942],[-122.650798,40.71004],[-122.649966,40.70784],[-122.649699,40.7057],[-122.649173,40.705134],[-122.648571,40.705173],[-122.648043,40.705514],[-122.647985,40.7057],[-122.648867,40.705932],[-122.648073,40.706887],[-122.64764,40.707072],[-122.647434,40.706971],[-122.647831,40.706486],[-122.64774,40.705914],[-122.647458,40.705927],[-122.646985,40.706612],[-122.64674,40.706626],[-122.646198,40.706009],[-122.646921,40.704395],[-122.646584,40.704108],[-122.645549,40.704477],[-122.645563,40.705378],[-122.64494,40.705948],[-122.644899,40.706506],[-122.642896,40.707248],[-122.643487,40.707763],[-122.642701,40.708386],[-122.642115,40.708027],[-122.641458,40.706506],[-122.640717,40.705967],[-122.639307,40.706052],[-122.638133,40.70584],[-122.63747,40.70548],[-122.637435,40.704735],[-122.638851,40.703548],[-122.638504,40.702444],[-122.639649,40.70072],[-122.639071,40.698901],[-122.639729,40.697947],[-122.639281,40.698075],[-122.638594,40.697816],[-122.638318,40.698341],[-122.637115,40.698323],[-122.636496,40.699243],[-122.63637,40.703338],[-122.635808,40.703943],[-122.634984,40.703554],[-122.634183,40.70429],[-122.634716,40.706446],[-122.634377,40.70651],[-122.634474,40.710324],[-122.634973,40.712054],[-122.63473,40.713632],[-122.634016,40.714482],[-122.632915,40.714268],[-122.6327,40.714744],[-122.631773,40.714722],[-122.6317,40.714379],[-122.632102,40.714247],[-122.631637,40.713257],[-122.631239,40.713044],[-122.631471,40.712747],[-122.631142,40.712491],[-122.631316,40.712341],[-122.630298,40.712059],[-122.628937,40.711046],[-122.629281,40.711647],[-122.63063,40.712417],[-122.630871,40.712729],[-122.63073,40.713089],[-122.629374,40.714416],[-122.628452,40.713984],[-122.627368,40.714588],[-122.626608,40.714507],[-122.627267,40.715382],[-122.627222,40.715719],[-122.628004,40.716478],[-122.629608,40.716844],[-122.63021,40.716333],[-122.63111,40.716812],[-122.63033,40.717286],[-122.628273,40.717957],[-122.62781,40.71835],[-122.6282,40.719195],[-122.627579,40.719443],[-122.627035,40.719094],[-122.626247,40.719783],[-122.626319,40.720327],[-122.625445,40.721504],[-122.624987,40.721517],[-122.624637,40.721895],[-122.624461,40.722526],[-122.62499,40.722246],[-122.62634,40.722784],[-122.626817,40.722729],[-122.626714,40.723072],[-122.624434,40.724583],[-122.624957,40.725128],[-122.625505,40.724758]]],[[[-122.557261,40.653496],[-122.557261,40.652307],[-122.557592,40.651916],[-122.557261,40.650339],[-122.557712,40.649449],[-122.557231,40.649037],[-122.556841,40.647913],[-122.557682,40.647777],[-122.557532,40.647249],[-122.557081,40.646905],[-122.557232,40.646379],[-122.556721,40.646039],[-122.557112,40.645396],[-122.556361,40.644961],[-122.556391,40.644479],[-122.556751,40.644368],[-122.556992,40.643909],[-122.556031,40.643406],[-122.55546,40.643818],[-122.554619,40.643702],[-122.553117,40.642354],[-122.553117,40.642102],[-122.553568,40.642054],[-122.553146,40.641323],[-122.553207,40.641116],[-122.554468,40.640751],[-122.554799,40.640225],[-122.556,40.639767],[-122.556361,40.64025],[-122.55624,40.641118],[-122.557322,40.64155],[-122.557472,40.640754],[-122.557893,40.640544],[-122.558103,40.639333],[-122.557142,40.639244],[-122.557022,40.638969],[-122.557773,40.638899],[-122.558224,40.638622],[-122.558644,40.638168],[-122.558795,40.63748],[-122.559606,40.637478],[-122.559245,40.636679],[-122.559306,40.636382],[-122.560026,40.635926],[-122.559846,40.634984],[-122.560867,40.634961],[-122.560988,40.634756],[-122.556347,40.632548],[-122.556658,40.631966],[-122.561457,40.634213],[-122.562159,40.633659],[-122.561948,40.632902],[-122.56273,40.632675],[-122.56372,40.631738],[-122.564291,40.6316],[-122.564861,40.632011],[-122.565102,40.632675],[-122.563721,40.633521],[-122.564231,40.633933],[-122.564952,40.633751],[-122.565643,40.63478],[-122.566784,40.635145],[-122.567205,40.635556],[-122.567325,40.635972],[-122.567024,40.636722],[-122.567715,40.637],[-122.569097,40.638969],[-122.569127,40.639609],[-122.569848,40.639904],[-122.569999,40.640341],[-122.57102,40.6413],[-122.571291,40.641346],[-122.57141,40.640865],[-122.571891,40.640615],[-122.572342,40.640616],[-122.572942,40.641253],[-122.573483,40.640476],[-122.574414,40.639925],[-122.574685,40.640291],[-122.574715,40.641782],[-122.575046,40.641689],[-122.575466,40.640889],[-122.575766,40.640795],[-122.576698,40.641097],[-122.577599,40.641825],[-122.578049,40.641871],[-122.578289,40.640773],[-122.579311,40.640772],[-122.57931,40.640317],[-122.579701,40.640269],[-122.580122,40.641001],[-122.579371,40.64139],[-122.57925,40.642263],[-122.580122,40.642766],[-122.580152,40.643154],[-122.57823,40.645534],[-122.578591,40.645878],[-122.579642,40.644868],[-122.580573,40.6448],[-122.581054,40.645166],[-122.581114,40.645463],[-122.580243,40.646244],[-122.581115,40.64654],[-122.581175,40.64718],[-122.581926,40.647273],[-122.582257,40.647639],[-122.582257,40.648414],[-122.582767,40.649195],[-122.582557,40.649901],[-122.583279,40.650039],[-122.583339,40.650566],[-122.582889,40.651114],[-122.583669,40.651437],[-122.58367,40.651779],[-122.583971,40.65196],[-122.585171,40.651321],[-122.585202,40.651068],[-122.584601,40.650818],[-122.58466,40.650382],[-122.585201,40.650086],[-122.585953,40.650657],[-122.585983,40.651071],[-122.586553,40.651366],[-122.587816,40.651433],[-122.587785,40.650884],[-122.586764,40.649786],[-122.586102,40.649513],[-122.586102,40.649053],[-122.586703,40.648871],[-122.588025,40.649606],[-122.588296,40.649147],[-122.588596,40.649103],[-122.590068,40.649419],[-122.590068,40.649194],[-122.589046,40.648825],[-122.588836,40.648207],[-122.588235,40.647912],[-122.588235,40.64752],[-122.589046,40.647316],[-122.589407,40.647957],[-122.589827,40.647981],[-122.590157,40.647797],[-122.590068,40.647018],[-122.590788,40.646741],[-122.591449,40.646721],[-122.592741,40.647293],[-122.594183,40.648254],[-122.594515,40.650083],[-122.594995,40.649923],[-122.594965,40.649143],[-122.595415,40.64887],[-122.595957,40.649647],[-122.596017,40.650196],[-122.596257,40.650563],[-122.596468,40.650518],[-122.596737,40.649123],[-122.597759,40.649122],[-122.598119,40.649325],[-122.59788,40.649946],[-122.59803,40.650492],[-122.599503,40.651385],[-122.599533,40.651754],[-122.600043,40.651796],[-122.602056,40.65056],[-122.602627,40.650495],[-122.602746,40.649805],[-122.603768,40.649305],[-122.604188,40.64832],[-122.604908,40.647998],[-122.607522,40.64811],[-122.608184,40.648387],[-122.608964,40.648295],[-122.610467,40.649003],[-122.611368,40.648934],[-122.61269,40.649367],[-122.61311,40.648291],[-122.614581,40.648017],[-122.615214,40.648794],[-122.615904,40.648796],[-122.616867,40.649777],[-122.618135,40.650064],[-122.618707,40.649752],[-122.619508,40.64968],[-122.62048,40.648923],[-122.620476,40.647445],[-122.620797,40.647334],[-122.621281,40.64744],[-122.622543,40.648701],[-122.623205,40.648861],[-122.624076,40.648904],[-122.624857,40.648425],[-122.625609,40.648352],[-122.625877,40.647627],[-122.626207,40.647763],[-122.626239,40.648699],[-122.623394,40.650254],[-122.62329,40.651265],[-122.623701,40.651459],[-122.625103,40.651276],[-122.624828,40.650961],[-122.623722,40.65101],[-122.623735,40.650352],[-122.624636,40.649989],[-122.626167,40.649766],[-122.627695,40.648752],[-122.627427,40.648624],[-122.62762,40.648316],[-122.626856,40.648055],[-122.627291,40.647309],[-122.627138,40.647027],[-122.626238,40.646681],[-122.624315,40.647486],[-122.623237,40.647664],[-122.622288,40.647026],[-122.622812,40.646481],[-122.622006,40.646841],[-122.621222,40.646168],[-122.619807,40.646391],[-122.619237,40.646276],[-122.619058,40.647487],[-122.618578,40.648656],[-122.618278,40.648746],[-122.616414,40.648131],[-122.616564,40.647834],[-122.617345,40.647535],[-122.617345,40.647306],[-122.616865,40.647191],[-122.615122,40.647307],[-122.613379,40.647035],[-122.611458,40.647628],[-122.610826,40.647423],[-122.610376,40.647562],[-122.608813,40.647034],[-122.604908,40.646786],[-122.604246,40.646077],[-122.603015,40.646856],[-122.602746,40.648729],[-122.601034,40.649922],[-122.600553,40.650014],[-122.600222,40.649099],[-122.600372,40.648411],[-122.599501,40.647749],[-122.598329,40.646214],[-122.597547,40.645963],[-122.597457,40.646422],[-122.597907,40.646627],[-122.59878,40.648139],[-122.597427,40.647702],[-122.594604,40.647291],[-122.594123,40.646672],[-122.59298,40.646078],[-122.59319,40.645691],[-122.593731,40.645599],[-122.594873,40.645805],[-122.595353,40.644681],[-122.595023,40.644639],[-122.594663,40.64498],[-122.592169,40.645345],[-122.592079,40.644822],[-122.592349,40.644319],[-122.591808,40.644249],[-122.591538,40.644411],[-122.591448,40.644983],[-122.589706,40.645372],[-122.589525,40.644251],[-122.591177,40.644067],[-122.590787,40.643381],[-122.592199,40.643724],[-122.59379,40.643446],[-122.593941,40.643081],[-122.592469,40.643035],[-122.590937,40.642558],[-122.590996,40.641801],[-122.592469,40.641892],[-122.592829,40.641618],[-122.59412,40.641366],[-122.59427,40.641137],[-122.591957,40.64084],[-122.591717,40.640244],[-122.590755,40.639904],[-122.590425,40.639168],[-122.590094,40.639077],[-122.589433,40.639651],[-122.589102,40.639672],[-122.588892,40.638875],[-122.588532,40.638783],[-122.58673,40.639421],[-122.586639,40.639011],[-122.587,40.63839],[-122.58664,40.638299],[-122.585468,40.638646],[-122.585198,40.638163],[-122.584597,40.638003],[-122.584506,40.637476],[-122.583936,40.637433],[-122.583725,40.636973],[-122.583184,40.636746],[-122.582944,40.636128],[-122.583064,40.635489],[-122.582343,40.635351],[-122.582493,40.634433],[-122.582042,40.633796],[-122.581532,40.633979],[-122.580451,40.635236],[-122.579069,40.635326],[-122.578318,40.635008],[-122.578618,40.633175],[-122.579069,40.632993],[-122.579158,40.632263],[-122.578678,40.632239],[-122.577026,40.633016],[-122.576576,40.633015],[-122.575764,40.632511],[-122.575404,40.632492],[-122.574684,40.632904],[-122.574473,40.632786],[-122.574593,40.631917],[-122.575164,40.631577],[-122.575795,40.630683],[-122.576485,40.630316],[-122.576274,40.629609],[-122.577536,40.629104],[-122.578437,40.629035],[-122.578917,40.628487],[-122.580479,40.628258],[-122.58123,40.628667],[-122.58105,40.629243],[-122.58129,40.629559],[-122.58132,40.63068],[-122.581561,40.630727],[-122.581861,40.630521],[-122.582131,40.629125],[-122.582672,40.628735],[-122.581891,40.628255],[-122.58198,40.628075],[-122.582851,40.627961],[-122.582882,40.627754],[-122.58177,40.627434],[-122.581771,40.627138],[-122.582791,40.626929],[-122.583272,40.626472],[-122.584953,40.625807],[-122.584322,40.625372],[-122.583061,40.625741],[-122.582678,40.624888],[-122.58171,40.626174],[-122.580238,40.626357],[-122.580297,40.624876],[-122.580627,40.624557],[-122.580537,40.624124],[-122.581017,40.623117],[-122.580507,40.623092],[-122.579336,40.624399],[-122.579125,40.624056],[-122.578135,40.624169],[-122.577834,40.623803],[-122.579125,40.622817],[-122.579906,40.622793],[-122.580146,40.622451],[-122.580025,40.621947],[-122.578795,40.621901],[-122.578224,40.621584],[-122.577954,40.622245],[-122.576963,40.622431],[-122.576813,40.621606],[-122.576452,40.621514],[-122.575581,40.621858],[-122.575161,40.621446],[-122.575251,40.620897],[-122.575852,40.620531],[-122.576182,40.61982],[-122.576572,40.619592],[-122.577473,40.619545],[-122.577412,40.619068],[-122.576632,40.618515],[-122.576362,40.618492],[-122.575611,40.61934],[-122.574981,40.619545],[-122.57504,40.62014],[-122.573029,40.621673],[-122.572127,40.621881],[-122.570956,40.62117],[-122.571527,40.620208],[-122.572278,40.619751],[-122.572308,40.618747],[-122.572788,40.61861],[-122.572848,40.618267],[-122.574079,40.617146],[-122.574109,40.616731],[-122.573209,40.61712],[-122.571947,40.617237],[-122.571677,40.617623],[-122.571076,40.617715],[-122.570536,40.6187],[-122.569214,40.619042],[-122.569155,40.619339],[-122.569665,40.619958],[-122.569274,40.620348],[-122.568704,40.620279],[-122.567323,40.619453],[-122.566993,40.618358],[-122.566242,40.61822],[-122.566182,40.61735],[-122.565311,40.617419],[-122.56492,40.616665],[-122.56432,40.616618],[-122.56453,40.61584],[-122.563689,40.615976],[-122.563419,40.615678],[-122.563209,40.61488],[-122.563509,40.613872],[-122.562549,40.614305],[-122.562068,40.613321],[-122.561407,40.613733],[-122.561557,40.614148],[-122.561317,40.614742],[-122.562458,40.616711],[-122.563179,40.617443],[-122.563179,40.618267],[-122.562188,40.618381],[-122.561828,40.618199],[-122.561287,40.618561],[-122.560777,40.618492],[-122.561017,40.617966],[-122.560747,40.616848],[-122.560837,40.615564],[-122.560026,40.615976],[-122.559516,40.615496],[-122.559245,40.61554],[-122.559305,40.61632],[-122.559065,40.616368],[-122.558525,40.615929],[-122.558345,40.615406],[-122.557743,40.615796],[-122.557744,40.616503],[-122.556513,40.616318],[-122.556062,40.615979],[-122.554381,40.615566],[-122.554291,40.615016],[-122.555192,40.615105],[-122.554952,40.614331],[-122.555372,40.614057],[-122.555582,40.613279],[-122.55357,40.614077],[-122.552309,40.61314],[-122.55231,40.611721],[-122.551799,40.611696],[-122.551589,40.611903],[-122.551589,40.61266],[-122.551199,40.61282],[-122.550778,40.612566],[-122.550928,40.611585],[-122.549817,40.61108],[-122.549878,40.610554],[-122.550418,40.610646],[-122.550598,40.610165],[-122.550929,40.610048],[-122.550449,40.609272],[-122.551289,40.609316],[-122.550359,40.607578],[-122.550749,40.606755],[-122.550929,40.606594],[-122.553091,40.606801],[-122.55225,40.606],[-122.553361,40.605703],[-122.55177,40.604971],[-122.551741,40.604214],[-122.55114,40.604172],[-122.55084,40.603827],[-122.550389,40.603826],[-122.5503,40.604169],[-122.549819,40.604008],[-122.549098,40.603209],[-122.548558,40.601513],[-122.547869,40.601307],[-122.547929,40.600393],[-122.547208,40.60012],[-122.547209,40.599386],[-122.546488,40.598379],[-122.545738,40.598105],[-122.545047,40.59813],[-122.544057,40.598265],[-122.543516,40.598655],[-122.542735,40.598242],[-122.539703,40.599568],[-122.536281,40.600392],[-122.53667,40.601808],[-122.53724,40.60222],[-122.53712,40.603296],[-122.536669,40.603597],[-122.535919,40.603688],[-122.535618,40.604741],[-122.535047,40.604693],[-122.534418,40.603939],[-122.534087,40.60396],[-122.534238,40.604645],[-122.533877,40.604923],[-122.533486,40.604944],[-122.532736,40.605607],[-122.531655,40.605653],[-122.530784,40.606181],[-122.529792,40.607713],[-122.528921,40.608466],[-122.528968,40.608752],[-122.527865,40.609174],[-122.526011,40.613407],[-122.523289,40.614273],[-122.520906,40.614083],[-122.519375,40.615019],[-122.520668,40.616233],[-122.523786,40.617743],[-122.525464,40.617434],[-122.526574,40.618555],[-122.529936,40.620321],[-122.530326,40.620778],[-122.531228,40.620754],[-122.531467,40.621053],[-122.532098,40.621055],[-122.531978,40.621901],[-122.532788,40.622494],[-122.533779,40.622287],[-122.533749,40.623066],[-122.53435,40.623433],[-122.53483,40.623206],[-122.535129,40.623981],[-122.536421,40.624279],[-122.536301,40.623432],[-122.536692,40.623024],[-122.537623,40.623298],[-122.538253,40.623228],[-122.538764,40.623551],[-122.539455,40.623341],[-122.541707,40.624395],[-122.542998,40.625693],[-122.5442,40.625076],[-122.54459,40.625101],[-122.54432,40.625969],[-122.545191,40.625715],[-122.545972,40.625809],[-122.546422,40.625418],[-122.546782,40.62606],[-122.546512,40.626725],[-122.547022,40.627524],[-122.547383,40.627386],[-122.547684,40.625761],[-122.547984,40.625465],[-122.549185,40.626587],[-122.549154,40.627046],[-122.548524,40.627868],[-122.549425,40.627939],[-122.549395,40.628484],[-122.550296,40.628965],[-122.553089,40.629516],[-122.553599,40.629838],[-122.55405,40.630614],[-122.554049,40.631164],[-122.552608,40.632262],[-122.551917,40.632354],[-122.551826,40.633728],[-122.550685,40.634502],[-122.550805,40.635512],[-122.549603,40.635579],[-122.549543,40.636471],[-122.549963,40.636883],[-122.550414,40.636952],[-122.550384,40.637204],[-122.550173,40.637388],[-122.549363,40.637159],[-122.548851,40.637549],[-122.548101,40.637546],[-122.547861,40.638392],[-122.54699,40.638601],[-122.546929,40.638808],[-122.545698,40.638713],[-122.545848,40.639218],[-122.544106,40.639562],[-122.543535,40.639902],[-122.543655,40.640042],[-122.546298,40.639904],[-122.546598,40.640478],[-122.547469,40.640638],[-122.54792,40.641185],[-122.548311,40.641092],[-122.548461,40.640543],[-122.548821,40.640522],[-122.549122,40.640911],[-122.548941,40.641577],[-122.54816,40.642263],[-122.546598,40.642604],[-122.546568,40.642833],[-122.547199,40.642993],[-122.547199,40.64329],[-122.549061,40.642901],[-122.549422,40.643335],[-122.550203,40.643474],[-122.549872,40.643954],[-122.54861,40.644548],[-122.54879,40.645031],[-122.549481,40.644687],[-122.549601,40.645349],[-122.550833,40.645098],[-122.550834,40.644481],[-122.551284,40.64409],[-122.551224,40.643568],[-122.551494,40.643245],[-122.552516,40.643816],[-122.552665,40.6451],[-122.551855,40.646061],[-122.551464,40.647181],[-122.552635,40.646541],[-122.553236,40.645648],[-122.553867,40.645577],[-122.553897,40.64606],[-122.553357,40.64654],[-122.553357,40.646976],[-122.555429,40.648601],[-122.555819,40.649125],[-122.555639,40.649994],[-122.55651,40.650957],[-122.55615,40.651438],[-122.555489,40.651665],[-122.554197,40.652764],[-122.554347,40.653038],[-122.554918,40.652946],[-122.55597,40.652031],[-122.556751,40.651805],[-122.55654,40.652583],[-122.556751,40.653269],[-122.557261,40.653496]]],[[[-122.482231,40.631833],[-122.481638,40.630972],[-122.482717,40.630858],[-122.483257,40.631068],[-122.485857,40.631247],[-122.486714,40.631023],[-122.488083,40.630114],[-122.490733,40.63049],[-122.492073,40.631342],[-122.492328,40.630968],[-122.491893,40.630388],[-122.491002,40.630399],[-122.488672,40.62978],[-122.487738,40.629885],[-122.48681,40.630468],[-122.483625,40.630074],[-122.483595,40.629767],[-122.482332,40.629607],[-122.480634,40.629612],[-122.479937,40.629812],[-122.479572,40.629569],[-122.478171,40.629482],[-122.477841,40.62916],[-122.477203,40.629451],[-122.476649,40.62942],[-122.476292,40.629133],[-122.475748,40.629151],[-122.475483,40.628549],[-122.474846,40.6283],[-122.473076,40.630701],[-122.473105,40.630886],[-122.474442,40.631414],[-122.475541,40.631115],[-122.480516,40.631652],[-122.4817,40.632229],[-122.482231,40.631833]]]]},"properties":{"name":"Carr Fire (2018) perimeter"}}]}