{"type":"FeatureCollection","features":[{"type":"Feature","geometry":{"type":"Point","coordinates":[-121.815613,40.31039]},"properties":{"score":0.92}},{"type":"Feature","geometry":{"type":"Point","coordinates":[-121.812581,40.3103]},"properties":{"score":0.92}},{"type":"Feature","geometry":{"type":"Point","coordinates":[-121.814404,40.310235]},"properties":{"score":0.9}},{"type":"Feature","geometry":{"type":"Point","coordinates":[-121.81263,40.30988]},"properties":{"score":0.82}},{"type":"Feature","geometry":{"type":"Point","coordinates":[-121.810116,40.309839]},"properties":{"score":0.9}},{"type":"Feature","geometry":{"type":"Point","coordinates":[-121.822897,40.309472]},"properties":{"score":0.87}},{"type":"Feature","geometry":{"type":"Point","coordinates":[-121.815454,40.309812]},"properties":{"score":0.9}},{"type":"Feature","geometry":{"type":"Point","coordinates":[-121.812583,40.310301]},"properties":{"score":0.92}},{"type":"Feature","geometry":{"type":"Point","coordinates":[-121.814399,40.310233]},"properties":{"score":0.89}},{"type":"Feature","geometry":{"type":"Point","coordinates":[-121.812626,40.309884]},"properties":{"score":0.82}},{"type":"Feature","geometry":{"type":"Point","coordinates":[-121.810126,40.30983]},"properties":{"score":0.88}},{"type":"Feature","geometry":{"type":"Point","coordinates":[-121.799511,40.293379]},"properties":{"score":0.87}},{"type":"Feature","geometry":{"type":"Point","coordinates":[-121.817818,40.310184]},"properties":{"score":0.9}},{"type":"Feature","geometry":{"type":"Point","coordinates":[-121.816773,40.31016]},"properties":{"score":0.8}},{"type":"Feature","geometry":{"type":"Point","coordinates":[-121.815581,40.31039]},"properties":{"score":0.91}},{"type":"Feature","geometry":{"type":"Point","coordinates":[-121.814397,40.310235]},"properties":{"score":0.92}},{"type":"Feature","geometry":{"type":"Point","coordinates":[-121.812581,40.310301]},"properties":{"score":0.92}},{"type":"Feature","geometry":{"type":"Point","coordinates":[-121.785244,40.307744]},"properties":{"score":0.92}},{"type":"Feature","geometry":{"type":"Point","coordinates":[-121.527556,40.33118]},"properties":{"score":0.83}},{"type":"Feature","geometry":{"type":"Point","coordinates":[-121.525918,40.322853]},"properties":{"score":0.88}},{"type":"Feature","geometry":{"type":"Point","coordinates":[-121.769471,40.342842]},"properties":{"score":0.91}},{"type":"Feature","geometry":{"type":"Point","coordinates":[-121.52119,40.346922]},"properties":{"score":0.84}},{"type":"Feature","geometry":{"type":"Point","coordinates":[-121.882974,40.390814]},"properties":{"score":0.92}},{"type":"Feature","geometry":{"type":"Point","coordinates":[-121.856259,40.342109]},"properties":{"score":0.95}},{"type":"Feature","geometry":{"type":"Point","coordinates":[-121.91483,40.333864]},"properties":{"score":0.74}},{"type":"Feature","geometry":{"type":"Point","coordinates":[-121.714749,39.799018]},"properties":{"score":0.86}},{"type":"Feature","geometry":{"type":"Point","coordinates":[-121.712854,39.805255]},"properties":{"score":0.92}},{"type":"Feature","geometry":{"type":"Point","coordinates":[-121.714563,39.801978]},"properties":{"score":0.95}},{"type":"Feature","geometry":{"type":"Point","coordinates":[-121.709095,39.851489]},"properties":{"score":0.89}},{"type":"Feature","geometry":{"type":"Point","coordinates":[-121.705713,39.829513]},"properties":{"score":0.86}},{"type":"Feature","geometry":{"type":"Point","coordinates":[-121.829986,39.829402]},"properties":{"score":0.96}},{"type":"Feature","geometry":{"type":"Point","coordinates":[-121.828115,39.829095]},"properties":{"score":0.96}},{"type":"Feature","geometry":{"type":"Point","coordinates":[-121.828841,39.829203]},"properties":{"score":0.94}},{"type":"Feature","geometry":{"type":"Point","coordinates":[-121.83508,39.827251]},"properties":{"score":0.96}},{"type":"Feature","geometry":{"type":"Point","coordinates":[-121.836934,39.827263]},"properties":{"score":0.84}},{"type":"Feature","geometry":{"type":"Point","coordinates":[-121.83648,39.844142]},"properties":{"score":0.89}},{"type":"Feature","geometry":{"type":"Point","coordinates":[-121.833703,39.844901]},"properties":{"score":0.89}},{"type":"Feature","geometry":{"type":"Point","coordinates":[-121.835157,39.843216]},"properties":{"score":0.93}},{"type":"Feature","geometry":{"type":"Point","coordinates":[-121.826574,39.848632]},"properties":{"score":0.95}},{"type":"Feature","geometry":{"type":"Point","coordinates":[-121.817487,39.848315]},"properties":{"score":0.96}},{"type":"Feature","geometry":{"type":"Point","coordinates":[-121.830436,39.846739]},"properties":{"score":0.81}},{"type":"Feature","geometry":{"type":"Point","coordinates":[-121.807594,39.846017]},"properties":{"score":0.94}},{"type":"Feature","geometry":{"type":"Point","coordinates":[-121.809085,39.844128]},"properties":{"score":0.95}},{"type":"Feature","geometry":{"type":"Point","coordinates":[-121.777117,39.84031]},"properties":{"score":0.88}},{"type":"Feature","geometry":{"type":"Point","coordinates":[-121.690006,39.86357]},"properties":{"score":0.94}},{"type":"Feature","geometry":{"type":"Point","coordinates":[-121.694428,39.857906]},"properties":{"score":0.89}},{"type":"Feature","geometry":{"type":"Point","coordinates":[-121.692688,39.858919]},"properties":{"score":0.86}},{"type":"Feature","geometry":{"type":"Point","coordinates":[-121.694402,39.857712]},"properties":{"score":0.89}},{"type":"Feature","geometry":{"type":"Point","coordinates":[-121.694372,39.857537]},"properties":{"score":0.83}},{"type":"Feature","geometry":{"type":"Point","coordinates":[-121.691202,39.85726]},"properties":{"score":0.95}},{"type":"Feature","geometry":{"type":"Point","coordinates":[-121.689987,39.863569]},"properties":{"score":0.95}},{"type":"Feature","geometry":{"type":"Point","coordinates":[-121.769586,39.871382]},"properties":{"score":0.8}},{"type":"Feature","geometry":{"type":"Point","coordinates":[-121.764409,39.885196]},"properties":{"score":0.91}},{"type":"Feature","geometry":{"type":"Point","coordinates":[-121.764459,39.885147]},"properties":{"score":0.91}},{"type":"Feature","geometry":{"type":"Point","coordinates":[-121.763082,39.885114]},"properties":{"score":0.91}},{"type":"Feature","geometry":{"type":"Point","coordinates":[-121.762356,39.883547]},"properties":{"score":0.79}},{"type":"Feature","geometry":{"type":"Point","coordinates":[-121.684411,39.87371]},"properties":{"score":0.88}},{"type":"Feature","geometry":{"type":"Point","coordinates":[-121.685306,39.872033]},"properties":{"score":0.89}},{"type":"Feature","geometry":{"type":"Point","coordinates":[-121.685305,39.872036]},"properties":{"score":0.87}},{"type":"Feature","geometry":{"type":"Point","coordinates":[-121.683222,39.873459]},"properties":{"score":0.89}},{"type":"Feature","geometry":{"type":"Point","coordinates":[-121.683348,39.873198]},"properties":{"score":0.86}},{"type":"Feature","geometry":{"type":"Point","coordinates":[-121.685307,39.872038]},"properties":{"score":0.86}},{"type":"Feature","geometry":{"type":"Point","coordinates":[-121.684408,39.873712]},"properties":{"score":0.88}},{"type":"Feature","geometry":{"type":"Point","coordinates":[-121.683233,39.873459]},"properties":{"score":0.91}},{"type":"Feature","geometry":{"type":"Point","coordinates":[-121.696798,39.89729]},"properties":{"score":0.92}},{"type":"Feature","geometry":{"type":"Point","coordinates":[-121.693429,39.893287]},"properties":{"score":0.94}},{"type":"Feature","geometry":{"type":"Point","coordinates":[-121.69334,39.893283]},"properties":{"score":0.95}},{"type":"Feature","geometry":{"type":"Point","coordinates":[-121.746247,39.879883]},"properties":{"score":0.87}},{"type":"Feature","geometry":{"type":"Point","coordinates":[-121.761607,39.888137]},"properties":{"score":0.85}},{"type":"Feature","geometry":{"type":"Point","coordinates":[-121.753124,39.888281]},"properties":{"score":0.88}},{"type":"Feature","geometry":{"type":"Point","coordinates":[-121.75818,39.886716]},"properties":{"score":0.92}},{"type":"Feature","geometry":{"type":"Point","coordinates":[-121.756625,39.885749]},"properties":{"score":0.89}},{"type":"Feature","geometry":{"type":"Point","coordinates":[-121.755721,39.88639]},"properties":{"score":0.91}},{"type":"Feature","geometry":{"type":"Point","coordinates":[-121.760677,39.884853]},"properties":{"score":0.94}},{"type":"Feature","geometry":{"type":"Point","coordinates":[-121.760611,39.88238]},"properties":{"score":0.88}},{"type":"Feature","geometry":{"type":"Point","coordinates":[-121.761359,39.882255]},"properties":{"score":0.93}},{"type":"Feature","geometry":{"type":"Point","coordinates":[-121.760996,39.882205]},"properties":{"score":0.93}},{"type":"Feature","geometry":{"type":"Point","coordinates":[-121.673686,39.892376]},"properties":{"score":0.83}},{"type":"Feature","geometry":{"type":"Point","coordinates":[-121.67579,39.888335]},"properties":{"score":0.89}},{"type":"Feature","geometry":{"type":"Point","coordinates":[-121.675484,39.887931]},"properties":{"score":0.88}},{"type":"Feature","geometry":{"type":"Point","coordinates":[-121.750844,39.900558]},"properties":{"score":0.9}},{"type":"Feature","geometry":{"type":"Point","coordinates":[-121.75241,39.898089]},"properties":{"score":0.9}},{"type":"Feature","geometry":{"type":"Point","coordinates":[-121.750032,39.898044]},"properties":{"score":0.9}},{"type":"Feature","geometry":{"type":"Point","coordinates":[-121.750623,39.89157]},"properties":{"score":0.87}},{"type":"Feature","geometry":{"type":"Point","coordinates":[-121.752368,39.889984]},"properties":{"score":0.91}},{"type":"Feature","geometry":{"type":"Point","coordinates":[-121.750841,39.900552]},"properties":{"score":0.92}},{"type":"Feature","geometry":{"type":"Point","coordinates":[-121.750034,39.898045]},"properties":{"score":0.9}},{"type":"Feature","geometry":{"type":"Point","coordinates":[-121.750036,39.898044]},"properties":{"score":0.9}},{"type":"Feature","geometry":{"type":"Point","coordinates":[-121.75773,39.893108]},"properties":{"score":0.88}},{"type":"Feature","geometry":{"type":"Point","coordinates":[-121.750619,39.891568]},"properties":{"score":0.89}},{"type":"Feature","geometry":{"type":"Point","coordinates":[-121.752367,39.889985]},"properties":{"score":0.91}},{"type":"Feature","geometry":{"type":"Point","coordinates":[-121.748844,39.891009]},"properties":{"score":0.87}},{"type":"Feature","geometry":{"type":"Point","coordinates":[-121.748841,39.891009]},"properties":{"score":0.86}},{"type":"Feature","geometry":{"type":"Point","coordinates":[-121.737927,39.898769]},"properties":{"score":0.92}},{"type":"Feature","geometry":{"type":"Point","coordinates":[-121.747016,39.896257]},"properties":{"score":0.83}},{"type":"Feature","geometry":{"type":"Point","coordinates":[-121.742223,39.892895]},"properties":{"score":0.88}},{"type":"Feature","geometry":{"type":"Point","coordinates":[-121.744701,39.891054]},"properties":{"score":0.92}},{"type":"Feature","geometry":{"type":"Point","coordinates":[-121.744604,39.891041]},"properties":{"score":0.89}},{"type":"Feature","geometry":{"type":"Point","coordinates":[-121.666251,39.89551]},"properties":{"score":0.86}},{"type":"Feature","geometry":{"type":"Point","coordinates":[-121.652913,39.9298]},"properties":{"score":0.83}},{"type":"Feature","geometry":{"type":"Point","coordinates":[-121.653234,39.926361]},"properties":{"score":0.95}},{"type":"Feature","geometry":{"type":"Point","coordinates":[-121.739906,39.921573]},"properties":{"score":0.87}},{"type":"Feature","geometry":{"type":"Point","coordinates":[-121.739152,39.910018]},"properties":{"score":0.91}},{"type":"Feature","geometry":{"type":"Point","coordinates":[-121.741394,39.90869]},"properties":{"score":0.92}},{"type":"Feature","geometry":{"type":"Point","coordinates":[-121.739757,39.908438]},"properties":{"score":0.94}},{"type":"Feature","geometry":{"type":"Point","coordinates":[-121.741078,39.904226]},"properties":{"score":0.93}},{"type":"Feature","geometry":{"type":"Point","coordinates":[-121.659011,39.901193]},"properties":{"score":0.93}},{"type":"Feature","geometry":{"type":"Point","coordinates":[-121.656657,39.901718]},"properties":{"score":0.91}},{"type":"Feature","geometry":{"type":"Point","coordinates":[-121.733069,39.908962]},"properties":{"score":0.85}},{"type":"Feature","geometry":{"type":"Point","coordinates":[-121.732365,39.909709]},"properties":{"score":0.9}},{"type":"Feature","geometry":{"type":"Point","coordinates":[-121.73556,39.9072]},"properties":{"score":0.94}},{"type":"Feature","geometry":{"type":"Point","coordinates":[-121.729486,39.902668]},"properties":{"score":0.92}},{"type":"Feature","geometry":{"type":"Point","coordinates":[-121.733395,39.922141]},"properties":{"score":0.86}},{"type":"Feature","geometry":{"type":"Point","coordinates":[-121.702247,39.931876]},"properties":{"score":0.82}},{"type":"Feature","geometry":{"type":"Point","coordinates":[-121.721025,39.928037]},"properties":{"score":0.76}},{"type":"Feature","geometry":{"type":"Point","coordinates":[-121.723102,39.923088]},"properties":{"score":0.92}},{"type":"Feature","geometry":{"type":"Point","coordinates":[-121.69649,39.921612]},"properties":{"score":0.85}},{"type":"Feature","geometry":{"type":"Point","coordinates":[-121.735408,39.917484]},"properties":{"score":0.91}},{"type":"Feature","geometry":{"type":"Point","coordinates":[-121.734365,39.917027]},"properties":{"score":0.87}},{"type":"Feature","geometry":{"type":"Point","coordinates":[-121.73705,39.916629]},"properties":{"score":0.85}},{"type":"Feature","geometry":{"type":"Point","coordinates":[-121.730484,39.936176]},"properties":{"score":0.8}},{"type":"Feature","geometry":{"type":"Point","coordinates":[-121.73253,39.9356]},"properties":{"score":0.9}},{"type":"Feature","geometry":{"type":"Point","coordinates":[-121.729225,39.937237]},"properties":{"score":0.91}},{"type":"Feature","geometry":{"type":"Point","coordinates":[-121.728051,39.93698]},"properties":{"score":0.89}},{"type":"Feature","geometry":{"type":"Point","coordinates":[-121.728666,39.936975]},"properties":{"score":0.75}},{"type":"Feature","geometry":{"type":"Point","coordinates":[-121.731453,39.930492]},"properties":{"score":0.9}},{"type":"Feature","geometry":{"type":"Point","coordinates":[-121.731053,39.928712]},"properties":{"score":0.93}},{"type":"Feature","geometry":{"type":"Point","coordinates":[-121.732963,39.927817]},"properties":{"score":0.8}},{"type":"Feature","geometry":{"type":"Point","coordinates":[-121.732523,39.935594]},"properties":{"score":0.93}},{"type":"Feature","geometry":{"type":"Point","coordinates":[-121.729227,39.93724]},"properties":{"score":0.91}},{"type":"Feature","geometry":{"type":"Point","coordinates":[-121.730493,39.936171]},"properties":{"score":0.85}},{"type":"Feature","geometry":{"type":"Point","coordinates":[-121.735364,39.935207]},"properties":{"score":0.9}},{"type":"Feature","geometry":{"type":"Point","coordinates":[-121.737193,39.931577]},"properties":{"score":0.92}},{"type":"Feature","geometry":{"type":"Point","coordinates":[-121.733246,39.941838]},"properties":{"score":0.92}},{"type":"Feature","geometry":{"type":"Point","coordinates":[-121.733258,39.941783]},"properties":{"score":0.89}},{"type":"Feature","geometry":{"type":"Point","coordinates":[-121.734112,39.940087]},"properties":{"score":0.85}},{"type":"Feature","geometry":{"type":"Point","coordinates":[-121.721959,39.938903]},"properties":{"score":0.85}},{"type":"Feature","geometry":{"type":"Point","coordinates":[-121.724983,39.939693]},"properties":{"score":0.85}},{"type":"Feature","geometry":{"type":"Point","coordinates":[-121.727309,39.939991]},"properties":{"score":0.83}},{"type":"Feature","geometry":{"type":"Point","coordinates":[-121.724862,39.941573]},"properties":{"score":0.88}},{"type":"Feature","geometry":{"type":"Point","coordinates":[-121.723475,39.940793]},"properties":{"score":0.86}},{"type":"Feature","geometry":{"type":"Point","coordinates":[-121.72202,39.938905]},"properties":{"score":0.84}},{"type":"Feature","geometry":{"type":"Point","coordinates":[-121.710026,39.940713]},"properties":{"score":0.89}},{"type":"Feature","geometry":{"type":"Point","coordinates":[-121.690843,39.939884]},"properties":{"score":0.87}},{"type":"Feature","geometry":{"type":"Point","coordinates":[-121.718173,39.938549]},"properties":{"score":0.83}},{"type":"Feature","geometry":{"type":"Point","coordinates":[-121.690842,39.939887]},"properties":{"score":0.88}},{"type":"Feature","geometry":{"type":"Point","coordinates":[-121.957501,40.024221]},"properties":{"score":0.94}},{"type":"Feature","geometry":{"type":"Point","coordinates":[-121.857792,39.985206]},"properties":{"score":0.9}},{"type":"Feature","geometry":{"type":"Point","coordinates":[-121.91827,39.986384]},"properties":{"score":0.9}},{"type":"Feature","geometry":{"type":"Point","coordinates":[-121.683842,39.87457]},"properties":{"score":0.88}},{"type":"Feature","geometry":{"type":"Point","coordinates":[-121.683845,39.874573]},"properties":{"score":0.86}},{"type":"Feature","geometry":{"type":"Point","coordinates":[-121.666999,39.894541]},"properties":{"score":0.94}},{"type":"Feature","geometry":{"type":"Point","coordinates":[-121.669279,39.892328]},"properties":{"score":0.93}},{"type":"Feature","geometry":{"type":"Point","coordinates":[-121.67083,39.892275]},"properties":{"score":0.93}},{"type":"Feature","geometry":{"type":"Point","coordinates":[-121.668331,39.892036]},"properties":{"score":0.8}},{"type":"Feature","geometry":{"type":"Point","coordinates":[-121.668376,39.891296]},"properties":{"score":0.91}},{"type":"Feature","geometry":{"type":"Point","coordinates":[-121.767673,40.243116]},"properties":{"score":0.87}},{"type":"Feature","geometry":{"type":"Point","coordinates":[-121.770281,40.240757]},"properties":{"score":0.89}},{"type":"Feature","geometry":{"type":"Point","coordinates":[-121.720205,39.94783]},"properties":{"score":0.89}},{"type":"Feature","geometry":{"type":"Point","coordinates":[-121.724091,39.944501]},"properties":{"score":0.89}},{"type":"Feature","geometry":{"type":"Point","coordinates":[-121.72911,39.91269]},"properties":{"score":0.93}},{"type":"Feature","geometry":{"type":"Point","coordinates":[-121.725523,39.914488]},"properties":{"score":0.88}},{"type":"Feature","geometry":{"type":"Point","coordinates":[-121.724596,39.912131]},"properties":{"score":0.84}},{"type":"Feature","geometry":{"type":"Point","coordinates":[-121.724366,39.914268]},"properties":{"score":0.9}},{"type":"Feature","geometry":{"type":"Point","coordinates":[-121.715742,39.910974]},"properties":{"score":0.86}},{"type":"Feature","geometry":{"type":"Point","coordinates":[-121.728611,39.908914]},"properties":{"score":0.93}},{"type":"Feature","geometry":{"type":"Point","coordinates":[-121.725008,39.908798]},"properties":{"score":0.92}},{"type":"Feature","geometry":{"type":"Point","coordinates":[-121.726649,39.906119]},"properties":{"score":0.85}},{"type":"Feature","geometry":{"type":"Point","coordinates":[-121.660368,39.898438]},"properties":{"score":0.94}},{"type":"Feature","geometry":{"type":"Point","coordinates":[-121.658257,39.898894]},"properties":{"score":0.87}},{"type":"Feature","geometry":{"type":"Point","coordinates":[-121.707767,39.946823]},"properties":{"score":0.86}},{"type":"Feature","geometry":{"type":"Point","coordinates":[-121.706802,39.949906]},"properties":{"score":0.89}},{"type":"Feature","geometry":{"type":"Point","coordinates":[-121.705286,39.950363]},"properties":{"score":0.93}},{"type":"Feature","geometry":{"type":"Point","coordinates":[-121.713829,39.952246]},"properties":{"score":0.88}}]}