{"type":"FeatureCollection","features":[{"type":"Feature","geometry":{"type":"MultiPolygon","coordinates":[[[[-121.74951,40.298061],[-121.749605,40.297988],[-121.749611,40.298061],[-121.74951,40.298061]]],[[[-121.526451,40.292523],[-121.526576,40.292521],[-121.526498,40.292548],[-121.526451,40.292523]]],[[[-121.705983,40.268987],[-121.70607,40.269074],[-121.705975,40.269114],[-121.705983,40.268987]]],[[[-122.042955,40.130208],[-122.043,40.130325],[-122.042919,40.130271],[-122.042955,40.130208]]],[[[-121.697148,40.24359],[-121.69719,40.243717],[-121.697092,40.243618],[-121.697148,40.24359]]],[[[-121.65962,40.233131],[-121.65965,40.233283],[-121.659574,40.233192],[-121.65962,40.233131]]],[[[-121.594454,40.212955],[-121.594495,40.212834],[-121.594538,40.212914],[-121.594454,40.212955]]],[[[-121.504443,40.337517],[-121.504532,40.337405],[-121.504553,40.337479],[-121.504443,40.337517]]],[[[-121.603374,40.319959],[-121.603491,40.319843],[-121.60345,40.319974],[-121.603374,40.319959]]],[[[-121.595504,40.31945],[-121.59564,40.319373],[-121.595554,40.319509],[-121.595504,40.31945]]],[[[-121.559423,40.232713],[-121.55952,40.232874],[-121.559375,40.232826],[-121.559423,40.232713]]],[[[-121.589821,40.205689],[-121.589717,40.205555],[-121.589866,40.205555],[-121.589821,40.205689]]],[[[-121.504029,40.337367],[-121.504108,40.337263],[-121.504125,40.337331],[-121.504029,40.337367]]],[[[-121.599873,40.209056],[-121.60009,40.209043],[-121.600009,40.209083],[-121.599873,40.209056]]],[[[-121.527825,40.288567],[-121.527841,40.288366],[-121.527934,40.288474],[-121.527825,40.288567]]],[[[-121.530415,40.296274],[-121.530492,40.296491],[-121.530322,40.296367],[-121.530415,40.296274]]],[[[-121.593991,40.212018],[-121.594104,40.21187],[-121.594097,40.212014],[-121.593991,40.212018]]],[[[-121.518204,40.355224],[-121.518313,40.355366],[-121.518088,40.35529],[-121.518204,40.355224]]],[[[-121.550169,40.240933],[-121.550347,40.241046],[-121.550218,40.241078],[-121.550169,40.240933]]],[[[-121.600295,40.193038],[-121.600202,40.193181],[-121.600076,40.193009],[-121.600295,40.193038]]],[[[-122.037297,40.232715],[-122.037091,40.232596],[-122.037174,40.232508],[-122.037288,40.232536],[-122.037297,40.232715]]],[[[-121.558958,40.232723],[-121.559181,40.232826],[-121.559068,40.232907],[-121.558971,40.232907],[-121.558958,40.232723]]],[[[-121.528306,40.288908],[-121.528383,40.28911],[-121.528228,40.289156],[-121.528306,40.288908]]],[[[-121.761184,40.292133],[-121.761174,40.292323],[-121.761103,40.292133],[-121.761184,40.292133]]],[[[-121.594233,40.320687],[-121.594263,40.32047],[-121.5944,40.320491],[-121.594233,40.320687]]],[[[-121.589626,40.325994],[-121.589688,40.325735],[-121.589759,40.325969],[-121.589626,40.325994]]],[[[-121.515847,40.34649],[-121.516074,40.346528],[-121.516037,40.346645],[-121.515871,40.346688],[-121.515847,40.34649]]],[[[-121.619156,40.160931],[-121.619434,40.160791],[-121.619439,40.160984],[-121.619156,40.160931]]],[[[-121.601864,40.18675],[-121.602002,40.186973],[-121.60182,40.186967],[-121.601864,40.18675]]],[[[-121.610884,40.155945],[-121.610799,40.156141],[-121.610608,40.155993],[-121.610884,40.155945]]],[[[-121.612065,40.156368],[-121.611859,40.156527],[-121.611847,40.156316],[-121.612065,40.156368]]],[[[-121.521783,40.341706],[-121.522043,40.341521],[-121.522053,40.341666],[-121.521783,40.341706]]],[[[-121.527061,40.284912],[-121.526926,40.284658],[-121.527281,40.284721],[-121.527061,40.284912]]],[[[-121.533923,40.363391],[-121.533854,40.363551],[-121.533588,40.363515],[-121.533574,40.363383],[-121.533923,40.363391]]],[[[-121.593605,40.320557],[-121.593889,40.320523],[-121.593837,40.320757],[-121.593605,40.320557]]],[[[-121.559035,40.232535],[-121.558712,40.232551],[-121.558745,40.23239],[-121.559003,40.232374],[-121.559035,40.232535]]],[[[-121.52354,40.355414],[-121.523626,40.355092],[-121.523733,40.355414],[-121.52354,40.355414]]],[[[-121.976852,40.04008],[-121.976484,40.04008],[-121.976462,40.039892],[-121.976691,40.039869],[-121.976852,40.04008]]],[[[-121.978353,40.039591],[-121.97847,40.04001],[-121.97822,40.039845],[-121.978353,40.039591]]],[[[-121.611226,40.155556],[-121.61093,40.15554],[-121.610897,40.155352],[-121.611137,40.155294],[-121.611226,40.155556]]],[[[-121.572333,40.127849],[-121.572085,40.127888],[-121.571908,40.12764],[-121.572265,40.127576],[-121.572333,40.127849]]],[[[-121.586729,40.149453],[-121.586877,40.149723],[-121.586669,40.149823],[-121.586575,40.149659],[-121.586729,40.149453]]],[[[-121.594822,40.207064],[-121.594651,40.207573],[-121.594527,40.207433],[-121.594822,40.207064]]],[[[-121.528369,40.284637],[-121.528535,40.28496],[-121.527929,40.28496],[-121.527929,40.284861],[-121.528369,40.284637]]],[[[-121.551138,40.241837],[-121.550944,40.242096],[-121.550524,40.241789],[-121.550751,40.241579],[-121.551138,40.241837]]],[[[-121.61472,40.279681],[-121.614949,40.279616],[-121.61533,40.279815],[-121.614809,40.280079],[-121.61472,40.279681]]],[[[-121.649357,40.234484],[-121.648793,40.234632],[-121.648703,40.234484],[-121.648822,40.234216],[-121.649327,40.234246],[-121.649357,40.234484]]],[[[-121.513365,40.299093],[-121.512929,40.299237],[-121.512886,40.298728],[-121.513373,40.298814],[-121.513365,40.299093]]],[[[-121.588663,40.325862],[-121.589153,40.325838],[-121.589177,40.3262],[-121.588721,40.326189],[-121.588663,40.325862]]],[[[-121.93755,39.982724],[-121.938046,39.982314],[-121.938328,39.982461],[-121.937775,39.982878],[-121.93755,39.982724]]],[[[-121.520766,40.322196],[-121.521135,40.322119],[-121.521256,40.322669],[-121.520886,40.322589],[-121.520766,40.322196]]],[[[-121.591924,40.156153],[-121.592325,40.156357],[-121.59147,40.15649],[-121.591448,40.156337],[-121.591924,40.156153]]],[[[-121.516923,40.345619],[-121.515646,40.345448],[-121.515636,40.345276],[-121.516305,40.344776],[-121.516923,40.345619]]],[[[-121.728285,40.292339],[-121.729041,40.29243],[-121.729183,40.292785],[-121.7288,40.293019],[-121.728366,40.292974],[-121.728285,40.292339]]],[[[-121.766307,40.290012],[-121.766083,40.290289],[-121.765421,40.290303],[-121.76388,40.290164],[-121.763602,40.289874],[-121.764814,40.290041],[-121.766043,40.289718],[-121.766307,40.290012]]],[[[-121.929798,39.974044],[-121.930409,39.974214],[-121.930483,39.974923],[-121.929657,39.974968],[-121.929182,39.974731],[-121.929798,39.974044]]],[[[-121.526896,40.294702],[-121.525763,40.29477],[-121.525608,40.294367],[-121.527189,40.293917],[-121.527484,40.294382],[-121.526896,40.294702]]],[[[-121.699745,40.226581],[-121.699372,40.227384],[-121.698996,40.227422],[-121.698003,40.227148],[-121.697618,40.226516],[-121.698666,40.225739],[-121.699085,40.226121],[-121.699685,40.226147],[-121.699498,40.226356],[-121.699745,40.226581]]],[[[-121.528345,40.2901],[-121.529044,40.289453],[-121.529734,40.289237],[-121.530022,40.289267],[-121.530289,40.289842],[-121.529485,40.290178],[-121.529505,40.290624],[-121.528567,40.291274],[-121.52798,40.291427],[-121.527823,40.29107],[-121.528345,40.2901]]],[[[-121.614849,40.0269],[-121.614658,40.027702],[-121.61387,40.028166],[-121.613237,40.027748],[-121.612732,40.026901],[-121.613031,40.026284],[-121.614072,40.026324],[-121.614849,40.0269]]],[[[-121.758488,40.320219],[-121.758458,40.320783],[-121.758023,40.321308],[-121.757332,40.321264],[-121.75662,40.321676],[-121.75556,40.320431],[-121.75565,40.319395],[-121.75702,40.319016],[-121.758488,40.320219]]],[[[-121.905622,40.368353],[-121.908792,40.367157],[-121.910351,40.367477],[-121.907573,40.370236],[-121.90442,40.372082],[-121.902872,40.372182],[-121.903277,40.370455],[-121.905622,40.368353]]],[[[-121.989579,40.064384],[-121.987412,40.066058],[-121.986865,40.067161],[-121.986202,40.067837],[-121.985469,40.068217],[-121.984366,40.068322],[-121.983212,40.068945],[-121.982652,40.06932],[-121.98174,40.070566],[-121.978785,40.072718],[-121.976654,40.073678],[-121.975403,40.073993],[-121.973086,40.075366],[-121.968692,40.0764],[-121.967204,40.077185],[-121.964536,40.077979],[-121.96158,40.07938],[-121.960935,40.079446],[-121.96018,40.080151],[-121.956514,40.081782],[-121.954766,40.083104],[-121.952512,40.083728],[-121.950376,40.084635],[-121.949314,40.086047],[-121.949589,40.086458],[-121.950345,40.086728],[-121.951813,40.086932],[-121.95853,40.086379],[-121.959113,40.08728],[-121.959727,40.087407],[-121.960717,40.088231],[-121.961388,40.088404],[-121.962013,40.089735],[-121.962959,40.090241],[-121.964671,40.090565],[-121.965458,40.090194],[-121.967775,40.089941],[-121.972363,40.090679],[-121.974126,40.09135],[-121.975358,40.092584],[-121.977442,40.093594],[-121.978306,40.094433],[-121.98011,40.095273],[-121.985626,40.096251],[-121.988453,40.096557],[-121.990452,40.096541],[-121.991382,40.096968],[-121.992642,40.098205],[-121.993402,40.098644],[-121.99451,40.098889],[-121.996502,40.099108],[-121.999615,40.098761],[-122.004936,40.100325],[-122.009367,40.099024],[-122.014561,40.10047],[-122.016408,40.09978],[-122.018533,40.100012],[-122.019587,40.10044],[-122.020937,40.100643],[-122.023456,40.101744],[-122.025338,40.10193],[-122.029353,40.101554],[-122.031431,40.100705],[-122.034293,40.100547],[-122.035766,40.102006],[-122.035547,40.102868],[-122.036773,40.104257],[-122.037596,40.104149],[-122.03767,40.103616],[-122.038026,40.103284],[-122.041681,40.102956],[-122.042908,40.103337],[-122.04282,40.103633],[-122.041654,40.104083],[-122.041635,40.104269],[-122.03999,40.104257],[-122.038115,40.104989],[-122.038734,40.105397],[-122.040303,40.105041],[-122.041675,40.105624],[-122.042185,40.106588],[-122.043064,40.107077],[-122.043176,40.107806],[-122.04392,40.10844],[-122.044233,40.108405],[-122.04552,40.110232],[-122.045864,40.11158],[-122.047247,40.113091],[-122.049249,40.114392],[-122.049953,40.115266],[-122.050523,40.115024],[-122.050513,40.115851],[-122.048972,40.116267],[-122.047749,40.117523],[-122.047887,40.119054],[-122.045582,40.119831],[-122.046834,40.120445],[-122.046769,40.121488],[-122.044366,40.122915],[-122.041544,40.123907],[-122.041084,40.125298],[-122.040369,40.125861],[-122.040283,40.127982],[-122.040044,40.128264],[-122.039655,40.128394],[-122.038745,40.129455],[-122.035736,40.130775],[-122.035531,40.130664],[-122.034963,40.132225],[-122.033627,40.134053],[-122.032577,40.135002],[-122.031537,40.135319],[-122.030164,40.13706],[-122.028431,40.137516],[-122.025714,40.137543],[-122.024278,40.138246],[-122.022689,40.139644],[-122.021573,40.139739],[-122.020061,40.140753],[-122.018571,40.140731],[-122.017671,40.140945],[-122.017538,40.141321],[-122.016165,40.141985],[-122.014641,40.142382],[-122.01066,40.144206],[-122.010236,40.143819],[-122.009372,40.143791],[-122.008156,40.144064],[-122.007563,40.144494],[-122.006706,40.144231],[-122.00566,40.144436],[-122.005239,40.145025],[-122.004328,40.145058],[-122.003751,40.145693],[-122.004047,40.145975],[-122.004828,40.145598],[-122.00519,40.14567],[-122.005552,40.146245],[-122.006352,40.145719],[-122.007016,40.145585],[-122.008263,40.146623],[-122.008958,40.146089],[-122.009472,40.147623],[-122.00901,40.148371],[-122.009772,40.149202],[-122.010326,40.149119],[-122.010975,40.14862],[-122.012333,40.148543],[-122.012391,40.148785],[-122.013369,40.14883],[-122.013762,40.149114],[-122.01461,40.149085],[-122.015069,40.149785],[-122.015363,40.149424],[-122.016233,40.149189],[-122.017454,40.149376],[-122.017909,40.149679],[-122.018527,40.149565],[-122.018621,40.150039],[-122.019761,40.1512],[-122.019545,40.15655],[-122.019826,40.156939],[-122.022332,40.156989],[-122.023504,40.157592],[-122.023758,40.158108],[-122.024852,40.157808],[-122.027091,40.158],[-122.027657,40.158605],[-122.02757,40.15911],[-122.026882,40.159714],[-122.0271,40.160519],[-122.029307,40.159971],[-122.030763,40.160059],[-122.032425,40.160588],[-122.034672,40.162966],[-122.035081,40.16374],[-122.035208,40.164815],[-122.03582,40.165882],[-122.035854,40.167107],[-122.035237,40.167563],[-122.031223,40.167852],[-122.029325,40.167549],[-122.027826,40.167648],[-122.02759,40.167875],[-122.027531,40.16925],[-122.026667,40.169524],[-122.027355,40.171478],[-122.029691,40.17221],[-122.029586,40.172527],[-122.02999,40.172858],[-122.029873,40.173531],[-122.029445,40.17379],[-122.029597,40.174039],[-122.029117,40.174199],[-122.028638,40.1748],[-122.028085,40.17454],[-122.028003,40.174171],[-122.02748,40.174049],[-122.026864,40.174517],[-122.027377,40.174949],[-122.026944,40.175364],[-122.027332,40.175523],[-122.027401,40.175342],[-122.027615,40.175852],[-122.027973,40.175719],[-122.027745,40.176084],[-122.028638,40.176567],[-122.028672,40.177238],[-122.028279,40.177263],[-122.028084,40.178],[-122.02836,40.178196],[-122.029075,40.177969],[-122.029631,40.178433],[-122.031033,40.181174],[-122.032929,40.182052],[-122.034264,40.182996],[-122.035283,40.182686],[-122.035135,40.183455],[-122.035981,40.182887],[-122.036838,40.183097],[-122.036697,40.183406],[-122.037454,40.185136],[-122.037192,40.186113],[-122.037483,40.187117],[-122.041218,40.187083],[-122.042886,40.187973],[-122.044414,40.1892],[-122.045089,40.189228],[-122.045302,40.190171],[-122.046049,40.190443],[-122.046617,40.191266],[-122.046775,40.191833],[-122.045006,40.193439],[-122.044766,40.19422],[-122.045139,40.194642],[-122.045075,40.195074],[-122.044321,40.196416],[-122.042056,40.198867],[-122.041498,40.199788],[-122.045323,40.200809],[-122.046414,40.200791],[-122.048663,40.200282],[-122.049453,40.200568],[-122.05135,40.200694],[-122.052044,40.201557],[-122.052115,40.201903],[-122.0518,40.202098],[-122.052859,40.204703],[-122.052851,40.205403],[-122.051943,40.206125],[-122.051726,40.206872],[-122.052075,40.207568],[-122.051931,40.208301],[-122.050417,40.209481],[-122.049131,40.209206],[-122.048312,40.206749],[-122.047622,40.206127],[-122.047954,40.20593],[-122.047707,40.205675],[-122.047081,40.205794],[-122.047217,40.20612],[-122.046209,40.206379],[-122.045777,40.207699],[-122.045415,40.207834],[-122.045116,40.208423],[-122.044292,40.208194],[-122.04419,40.207278],[-122.044589,40.206574],[-122.044064,40.206218],[-122.043312,40.205901],[-122.040833,40.206189],[-122.039843,40.206786],[-122.040179,40.207141],[-122.040896,40.207051],[-122.041164,40.207612],[-122.041141,40.207854],[-122.040554,40.208035],[-122.040904,40.209755],[-122.040634,40.210287],[-122.038791,40.210804],[-122.038686,40.211504],[-122.033801,40.215165],[-122.033326,40.215225],[-122.032619,40.214957],[-122.03182,40.215175],[-122.030207,40.215805],[-122.029664,40.216697],[-122.03018,40.219166],[-122.030189,40.21959],[-122.029892,40.219746],[-122.032586,40.2238],[-122.033372,40.224517],[-122.034142,40.224762],[-122.035683,40.223935],[-122.038054,40.225607],[-122.038242,40.226177],[-122.039111,40.226732],[-122.039025,40.227245],[-122.03815,40.228283],[-122.035186,40.230574],[-122.035388,40.231282],[-122.034542,40.231493],[-122.036247,40.231923],[-122.036489,40.232355],[-122.035833,40.232682],[-122.036213,40.233073],[-122.03982,40.23315],[-122.040373,40.23334],[-122.039979,40.233956],[-122.039139,40.234274],[-122.039266,40.234951],[-122.039043,40.235516],[-122.039591,40.236899],[-122.039926,40.237482],[-122.041837,40.23833],[-122.042167,40.239012],[-122.043722,40.240744],[-122.044686,40.24144],[-122.046104,40.243344],[-122.046443,40.244074],[-122.046459,40.246034],[-122.047302,40.246651],[-122.047411,40.247247],[-122.04866,40.249141],[-122.048898,40.250525],[-122.046032,40.252647],[-122.045051,40.25312],[-122.044541,40.25314],[-122.044193,40.253631],[-122.041135,40.254743],[-122.039769,40.254792],[-122.040071,40.255243],[-122.039505,40.255827],[-122.039865,40.256333],[-122.037762,40.256855],[-122.036314,40.258338],[-122.035236,40.258828],[-122.034134,40.258703],[-122.032845,40.257786],[-122.031584,40.258651],[-122.02953,40.259441],[-122.028844,40.26022],[-122.026922,40.26052],[-122.026478,40.260788],[-122.024918,40.260088],[-122.023394,40.260339],[-122.02196,40.26105],[-122.019699,40.26104],[-122.018822,40.260688],[-122.018362,40.260832],[-122.017528,40.261659],[-122.016711,40.261802],[-122.016511,40.262579],[-122.014998,40.264427],[-122.013211,40.26582],[-122.013461,40.266491],[-122.014025,40.266733],[-122.014407,40.267429],[-122.01385,40.269392],[-122.014848,40.269917],[-122.015927,40.270107],[-122.017553,40.271253],[-122.018696,40.273586],[-122.020505,40.274662],[-122.021927,40.277053],[-122.022268,40.277289],[-122.02558,40.277427],[-122.026172,40.277972],[-122.026737,40.279343],[-122.027824,40.280325],[-122.029075,40.280709],[-122.029242,40.281174],[-122.028899,40.281794],[-122.028897,40.283185],[-122.028399,40.283391],[-122.02851,40.286179],[-122.027129,40.287542],[-122.026576,40.288768],[-122.027485,40.289438],[-122.027805,40.290338],[-122.028892,40.291602],[-122.030963,40.29285],[-122.031118,40.293871],[-122.029999,40.295958],[-122.030377,40.296426],[-122.031605,40.297012],[-122.032493,40.298229],[-122.043251,40.301677],[-122.046088,40.303449],[-122.046596,40.303357],[-122.047053,40.303607],[-122.052087,40.304646],[-122.052954,40.305468],[-122.054327,40.306194],[-122.055075,40.306886],[-122.056143,40.307338],[-122.0569,40.308022],[-122.057997,40.308136],[-122.058668,40.309936],[-122.059606,40.310419],[-122.060459,40.311463],[-122.060709,40.312486],[-122.061229,40.312888],[-122.061231,40.313728],[-122.063847,40.313996],[-122.06409,40.314865],[-122.063527,40.315571],[-122.061667,40.315776],[-122.035385,40.315799],[-122.032654,40.315405],[-122.02896,40.314528],[-122.019844,40.311449],[-122.017706,40.310275],[-122.017175,40.309749],[-122.014615,40.308495],[-122.013782,40.308549],[-122.012349,40.308205],[-122.009348,40.309269],[-122.008004,40.310215],[-122.007148,40.310377],[-122.007305,40.309709],[-122.00702,40.308754],[-122.006615,40.308344],[-122.006688,40.307741],[-122.006213,40.306192],[-122.004518,40.305478],[-121.999008,40.304855],[-121.99796,40.304191],[-121.99814,40.303068],[-121.998506,40.302685],[-121.998475,40.301123],[-121.999517,40.299622],[-122.000021,40.299339],[-121.999871,40.299101],[-121.997743,40.29912],[-121.994885,40.298732],[-121.992772,40.298709],[-121.991647,40.298203],[-121.990868,40.298129],[-121.989722,40.298658],[-121.98766,40.29886],[-121.985255,40.299529],[-121.984722,40.299449],[-121.984631,40.300795],[-121.983585,40.30126],[-121.983791,40.301698],[-121.983462,40.301936],[-121.98389,40.302737],[-121.983361,40.302977],[-121.982581,40.30401],[-121.982086,40.304066],[-121.981582,40.304632],[-121.981227,40.304291],[-121.980861,40.304678],[-121.980117,40.304211],[-121.979864,40.304366],[-121.979316,40.304262],[-121.97887,40.304581],[-121.977571,40.304336],[-121.977514,40.304632],[-121.978122,40.30504],[-121.97793,40.305412],[-121.978426,40.305854],[-121.978095,40.30617],[-121.977542,40.306258],[-121.978328,40.306481],[-121.977629,40.306707],[-121.976522,40.306446],[-121.976693,40.306986],[-121.975867,40.306899],[-121.975622,40.307275],[-121.973885,40.307027],[-121.973633,40.30622],[-121.974078,40.305444],[-121.973693,40.305399],[-121.973304,40.305786],[-121.972421,40.305914],[-121.971888,40.305828],[-121.97159,40.305529],[-121.971113,40.305585],[-121.971171,40.30459],[-121.970146,40.304328],[-121.969751,40.303968],[-121.969988,40.303628],[-121.969648,40.303432],[-121.969637,40.303626],[-121.969256,40.303688],[-121.969485,40.303808],[-121.968096,40.304595],[-121.968332,40.304833],[-121.968451,40.30453],[-121.968839,40.305017],[-121.969239,40.305015],[-121.968834,40.305239],[-121.96915,40.305699],[-121.968844,40.30596],[-121.970101,40.306704],[-121.970172,40.307179],[-121.969533,40.307759],[-121.970595,40.308833],[-121.969439,40.308776],[-121.967661,40.309605],[-121.966745,40.309247],[-121.966931,40.308428],[-121.966342,40.308455],[-121.966296,40.309015],[-121.965349,40.309134],[-121.963721,40.308762],[-121.963132,40.308292],[-121.959219,40.308272],[-121.957869,40.306381],[-121.955472,40.304583],[-121.953765,40.302607],[-121.951191,40.302767],[-121.952908,40.304012],[-121.953819,40.306292],[-121.955951,40.307521],[-121.958864,40.310086],[-121.959448,40.310024],[-121.959699,40.310352],[-121.960137,40.310447],[-121.960464,40.311059],[-121.959917,40.311615],[-121.960194,40.312885],[-121.959431,40.314236],[-121.959895,40.314967],[-121.961217,40.315662],[-121.962036,40.315506],[-121.962359,40.315733],[-121.961621,40.316702],[-121.960833,40.31691],[-121.96062,40.317459],[-121.958438,40.317346],[-121.958348,40.317753],[-121.957797,40.317723],[-121.957845,40.318074],[-121.958453,40.318519],[-121.956696,40.319355],[-121.956811,40.319969],[-121.956031,40.321053],[-121.957892,40.319998],[-121.958354,40.320109],[-121.95985,40.31955],[-121.962092,40.319735],[-121.962066,40.320354],[-121.962559,40.320656],[-121.962685,40.321342],[-121.963462,40.321604],[-121.963254,40.322358],[-121.964232,40.32286],[-121.965429,40.324098],[-121.966066,40.324246],[-121.966709,40.325085],[-121.967618,40.325632],[-121.967463,40.326088],[-121.967793,40.326601],[-121.968499,40.327015],[-121.969284,40.328298],[-121.9692,40.328633],[-121.969799,40.328674],[-121.969574,40.329644],[-121.96983,40.331276],[-121.969245,40.331867],[-121.969227,40.332625],[-121.969868,40.332705],[-121.969862,40.333339],[-121.970482,40.333405],[-121.970685,40.334246],[-121.971687,40.335153],[-121.971764,40.335432],[-121.971476,40.335676],[-121.971817,40.336449],[-121.971725,40.336649],[-121.971243,40.336656],[-121.971476,40.337109],[-121.970951,40.337756],[-121.971668,40.338252],[-121.972654,40.340083],[-121.972309,40.340366],[-121.972169,40.341917],[-121.971255,40.342256],[-121.970596,40.343157],[-121.9686,40.343577],[-121.967888,40.343479],[-121.967555,40.344356],[-121.966027,40.345163],[-121.965928,40.345648],[-121.966715,40.346267],[-121.96652,40.347472],[-121.967183,40.348139],[-121.967181,40.348781],[-121.966918,40.348952],[-121.967163,40.349451],[-121.966663,40.350331],[-121.965392,40.351186],[-121.964169,40.351285],[-121.963938,40.351687],[-121.963374,40.351951],[-121.962199,40.351993],[-121.962027,40.352223],[-121.961753,40.352094],[-121.959163,40.353236],[-121.958135,40.353259],[-121.957546,40.353763],[-121.955913,40.353914],[-121.955712,40.354234],[-121.954483,40.354437],[-121.953733,40.354818],[-121.95332,40.354729],[-121.9525,40.355261],[-121.950956,40.355643],[-121.950479,40.355406],[-121.950456,40.356306],[-121.951524,40.35691],[-121.951531,40.357154],[-121.951308,40.357388],[-121.949936,40.357488],[-121.949213,40.358071],[-121.948005,40.35855],[-121.947478,40.36064],[-121.946473,40.360727],[-121.945584,40.361432],[-121.945138,40.362709],[-121.944219,40.363315],[-121.943563,40.364279],[-121.943383,40.365937],[-121.942923,40.365772],[-121.942636,40.366379],[-121.941591,40.366836],[-121.940427,40.366822],[-121.940012,40.368099],[-121.938597,40.369567],[-121.937925,40.369954],[-121.938096,40.371166],[-121.937877,40.371802],[-121.93878,40.373922],[-121.938527,40.374862],[-121.938765,40.375765],[-121.938443,40.376426],[-121.937543,40.376836],[-121.937538,40.377173],[-121.938899,40.37812],[-121.938915,40.379151],[-121.938763,40.379805],[-121.937885,40.380729],[-121.937794,40.381224],[-121.937255,40.381327],[-121.937575,40.382555],[-121.936155,40.385538],[-121.93638,40.386594],[-121.934855,40.389551],[-121.93419,40.391981],[-121.934264,40.39255],[-121.933845,40.392715],[-121.93321,40.39251],[-121.932193,40.392804],[-121.931632,40.393275],[-121.931557,40.394026],[-121.930552,40.394597],[-121.929756,40.394415],[-121.928946,40.394559],[-121.928873,40.394308],[-121.928082,40.394169],[-121.928175,40.391976],[-121.928645,40.390468],[-121.930107,40.388928],[-121.928646,40.388178],[-121.928896,40.387408],[-121.927477,40.384786],[-121.927813,40.384564],[-121.92792,40.382657],[-121.927681,40.382411],[-121.927243,40.382464],[-121.926855,40.38112],[-121.927217,40.380498],[-121.927513,40.378832],[-121.928834,40.377855],[-121.928759,40.376476],[-121.929875,40.375731],[-121.930611,40.374284],[-121.93032,40.373179],[-121.928367,40.372239],[-121.927553,40.371534],[-121.927478,40.370419],[-121.927754,40.370137],[-121.928503,40.370526],[-121.929184,40.370212],[-121.930347,40.371384],[-121.931086,40.370965],[-121.93073,40.370834],[-121.930585,40.369883],[-121.930072,40.369489],[-121.931054,40.368638],[-121.930428,40.368065],[-121.930853,40.367447],[-121.93041,40.366746],[-121.930722,40.366331],[-121.930203,40.365594],[-121.931035,40.365181],[-121.931403,40.364433],[-121.932009,40.3643],[-121.932445,40.364574],[-121.93211,40.364157],[-121.932438,40.364033],[-121.93293,40.363052],[-121.933986,40.363165],[-121.934212,40.362347],[-121.934676,40.362103],[-121.934469,40.361513],[-121.935864,40.360508],[-121.936041,40.359968],[-121.935789,40.359678],[-121.933771,40.359141],[-121.933375,40.358704],[-121.933789,40.358434],[-121.933595,40.357378],[-121.9331,40.357178],[-121.932789,40.35668],[-121.931812,40.3564],[-121.930302,40.356962],[-121.929551,40.356695],[-121.928755,40.356881],[-121.927982,40.357816],[-121.928185,40.35837],[-121.927353,40.358726],[-121.927056,40.35817],[-121.926604,40.358699],[-121.92679,40.359097],[-121.926517,40.359345],[-121.925181,40.359459],[-121.924348,40.359835],[-121.923809,40.359624],[-121.923433,40.359046],[-121.923117,40.359247],[-121.922718,40.358976],[-121.921391,40.359992],[-121.920483,40.359522],[-121.919339,40.359634],[-121.918878,40.359916],[-121.917502,40.35987],[-121.91591,40.358288],[-121.910895,40.357675],[-121.909529,40.357994],[-121.908669,40.357346],[-121.907629,40.357192],[-121.896654,40.356528],[-121.896012,40.356996],[-121.888969,40.356312],[-121.886724,40.357971],[-121.886564,40.358759],[-121.887746,40.358682],[-121.88818,40.358182],[-121.890046,40.358534],[-121.892291,40.358501],[-121.892978,40.358208],[-121.894017,40.358524],[-121.898864,40.358589],[-121.902176,40.358997],[-121.91114,40.361345],[-121.912818,40.362391],[-121.905879,40.366705],[-121.902197,40.36745],[-121.896302,40.36802],[-121.894602,40.368758],[-121.893353,40.368519],[-121.89298,40.36896],[-121.893749,40.370249],[-121.894734,40.370405],[-121.893828,40.371846],[-121.894338,40.372534],[-121.893781,40.373682],[-121.893124,40.374035],[-121.892181,40.376923],[-121.891123,40.37845],[-121.889278,40.37886],[-121.88991,40.383472],[-121.888438,40.384566],[-121.888393,40.38538],[-121.887994,40.385948],[-121.886787,40.385877],[-121.885354,40.385053],[-121.883597,40.3851],[-121.88351,40.385443],[-121.884189,40.385569],[-121.884802,40.387103],[-121.885115,40.38718],[-121.886003,40.386772],[-121.886843,40.386959],[-121.887299,40.386823],[-121.888501,40.387406],[-121.888632,40.387692],[-121.889716,40.387642],[-121.890559,40.389241],[-121.888989,40.389389],[-121.888395,40.389159],[-121.883208,40.388835],[-121.882938,40.389218],[-121.880871,40.389526],[-121.879139,40.389488],[-121.875956,40.388819],[-121.873977,40.389411],[-121.87344,40.390069],[-121.873039,40.39018],[-121.872147,40.389379],[-121.870269,40.389458],[-121.864047,40.387448],[-121.863614,40.387384],[-121.8625,40.387902],[-121.862362,40.388288],[-121.861815,40.388072],[-121.860996,40.388445],[-121.859792,40.388493],[-121.859277,40.388036],[-121.858962,40.388153],[-121.857983,40.387864],[-121.857661,40.387451],[-121.856377,40.387846],[-121.855416,40.387046],[-121.854611,40.387222],[-121.85344,40.387962],[-121.852844,40.387914],[-121.852073,40.388713],[-121.851831,40.388427],[-121.851743,40.388627],[-121.851309,40.388473],[-121.851189,40.388268],[-121.851414,40.388203],[-121.850869,40.387695],[-121.851397,40.387079],[-121.850696,40.386373],[-121.851259,40.386296],[-121.85132,40.38575],[-121.850982,40.385409],[-121.850497,40.385626],[-121.849631,40.385566],[-121.849613,40.385058],[-121.849196,40.384937],[-121.850278,40.384289],[-121.849851,40.384193],[-121.850204,40.383765],[-121.850173,40.383374],[-121.8496,40.383084],[-121.84991,40.382589],[-121.849415,40.382113],[-121.848933,40.382164],[-121.848903,40.38245],[-121.84834,40.381995],[-121.847797,40.382412],[-121.84798,40.381811],[-121.848901,40.381341],[-121.848508,40.381067],[-121.848335,40.381276],[-121.847931,40.381028],[-121.847511,40.381679],[-121.847289,40.381591],[-121.846862,40.381847],[-121.845016,40.381771],[-121.845679,40.380109],[-121.844745,40.379711],[-121.844284,40.379735],[-121.843212,40.379034],[-121.841356,40.378537],[-121.83874,40.3785],[-121.838608,40.378338],[-121.838377,40.378495],[-121.838405,40.377156],[-121.836858,40.374887],[-121.836964,40.374678],[-121.836397,40.374698],[-121.836712,40.374481],[-121.835122,40.373384],[-121.835198,40.372635],[-121.834325,40.372043],[-121.833873,40.372072],[-121.833751,40.371186],[-121.834169,40.370829],[-121.832714,40.370175],[-121.833,40.369849],[-121.832835,40.369563],[-121.832529,40.369525],[-121.832473,40.369712],[-121.831657,40.369179],[-121.830937,40.369376],[-121.83075,40.369018],[-121.831137,40.368879],[-121.830137,40.368569],[-121.829962,40.368197],[-121.829597,40.368116],[-121.829789,40.367413],[-121.82925,40.367352],[-121.828958,40.36697],[-121.828075,40.366999],[-121.827966,40.367205],[-121.827531,40.366512],[-121.826963,40.366648],[-121.826781,40.367],[-121.826527,40.366805],[-121.82612,40.367219],[-121.825879,40.366634],[-121.825596,40.366837],[-121.825382,40.366613],[-121.824506,40.366628],[-121.824027,40.367199],[-121.823763,40.36696],[-121.823115,40.367268],[-121.823258,40.367726],[-121.822607,40.367891],[-121.822613,40.368173],[-121.821842,40.368714],[-121.821227,40.36755],[-121.820639,40.367218],[-121.820637,40.367393],[-121.819839,40.367629],[-121.819902,40.368076],[-121.81951,40.368062],[-121.818953,40.368479],[-121.818589,40.368262],[-121.818585,40.368546],[-121.818095,40.368683],[-121.818185,40.36913],[-121.817645,40.368848],[-121.817747,40.368369],[-121.817271,40.368277],[-121.816988,40.368687],[-121.816632,40.368639],[-121.816221,40.367826],[-121.815813,40.367779],[-121.815339,40.367287],[-121.815415,40.366892],[-121.814896,40.366773],[-121.814514,40.366973],[-121.813861,40.366706],[-121.813684,40.367286],[-121.814044,40.367625],[-121.8139,40.36788],[-121.812317,40.367763],[-121.81191,40.368],[-121.811651,40.367691],[-121.812216,40.367222],[-121.811902,40.366785],[-121.810881,40.366411],[-121.810611,40.366082],[-121.81006,40.366171],[-121.81005,40.365479],[-121.809649,40.365545],[-121.809337,40.365151],[-121.808885,40.365035],[-121.808606,40.364456],[-121.808106,40.364585],[-121.80792,40.364416],[-121.807624,40.364601],[-121.806672,40.363969],[-121.80593,40.36417],[-121.80485,40.364006],[-121.804381,40.362471],[-121.802659,40.362069],[-121.802456,40.361556],[-121.80186,40.361738],[-121.802041,40.361479],[-121.80182,40.361315],[-121.802059,40.36129],[-121.802092,40.361167],[-121.802181,40.361171],[-121.80219,40.36114],[-121.801031,40.360894],[-121.800755,40.360425],[-121.799302,40.360037],[-121.799886,40.359365],[-121.799915,40.358842],[-121.799549,40.358427],[-121.799811,40.358137],[-121.799577,40.357877],[-121.799832,40.357797],[-121.799121,40.357254],[-121.79871,40.357446],[-121.795538,40.357212],[-121.791477,40.356057],[-121.78309,40.352583],[-121.7803,40.350979],[-121.780822,40.350146],[-121.781775,40.349358],[-121.78234,40.349149],[-121.783661,40.349228],[-121.784782,40.348861],[-121.785482,40.348337],[-121.784153,40.346953],[-121.782961,40.346861],[-121.783429,40.345687],[-121.785124,40.344852],[-121.785882,40.344959],[-121.786633,40.344785],[-121.786659,40.344149],[-121.794194,40.344182],[-121.796095,40.34394],[-121.798169,40.344576],[-121.800256,40.344841],[-121.800381,40.342993],[-121.799765,40.34281],[-121.799519,40.342303],[-121.799912,40.342007],[-121.800298,40.342094],[-121.800295,40.341421],[-121.799954,40.341184],[-121.797517,40.341337],[-121.796869,40.341013],[-121.795824,40.341492],[-121.795104,40.342119],[-121.794517,40.34173],[-121.792962,40.341687],[-121.790971,40.342232],[-121.787172,40.341982],[-121.781464,40.340799],[-121.779246,40.341523],[-121.777804,40.341135],[-121.776837,40.341765],[-121.775262,40.342203],[-121.768538,40.342452],[-121.768427,40.342759],[-121.767816,40.342905],[-121.766921,40.343677],[-121.766339,40.344404],[-121.765093,40.344287],[-121.764371,40.345123],[-121.764487,40.346573],[-121.763655,40.347124],[-121.755358,40.345215],[-121.747806,40.34513],[-121.742375,40.344663],[-121.742439,40.344451],[-121.737548,40.34424],[-121.734882,40.344615],[-121.734237,40.344925],[-121.731374,40.342711],[-121.731263,40.342393],[-121.731548,40.341907],[-121.732911,40.34175],[-121.733528,40.341267],[-121.733559,40.340419],[-121.732789,40.339796],[-121.73276,40.33942],[-121.734885,40.338696],[-121.735264,40.33811],[-121.734236,40.337324],[-121.734311,40.336867],[-121.736983,40.335996],[-121.736749,40.334845],[-121.734599,40.333542],[-121.735045,40.331598],[-121.736984,40.3314],[-121.7376,40.330406],[-121.738782,40.330001],[-121.739844,40.330803],[-121.741611,40.331308],[-121.746839,40.331107],[-121.748232,40.330817],[-121.750173,40.330017],[-121.750718,40.329572],[-121.750761,40.327399],[-121.753572,40.326313],[-121.757456,40.324289],[-121.757763,40.323408],[-121.756662,40.322368],[-121.756735,40.322025],[-121.758418,40.321555],[-121.760924,40.319919],[-121.761692,40.318673],[-121.761853,40.317322],[-121.761464,40.316273],[-121.758372,40.314843],[-121.758061,40.314399],[-121.75674,40.313913],[-121.756755,40.313265],[-121.75721,40.312635],[-121.756512,40.312261],[-121.756969,40.311596],[-121.758368,40.310461],[-121.758088,40.310285],[-121.757531,40.310513],[-121.756924,40.309588],[-121.757342,40.309151],[-121.758023,40.309],[-121.758944,40.30841],[-121.758472,40.308176],[-121.759015,40.307845],[-121.758503,40.307293],[-121.758635,40.307058],[-121.760049,40.307744],[-121.760672,40.307793],[-121.761592,40.307274],[-121.762903,40.307971],[-121.763705,40.308031],[-121.765109,40.307429],[-121.763942,40.306687],[-121.763867,40.306136],[-121.763512,40.305883],[-121.76392,40.305368],[-121.763832,40.304807],[-121.764331,40.304221],[-121.763869,40.304032],[-121.763277,40.304154],[-121.763711,40.303703],[-121.76488,40.304171],[-121.765428,40.304109],[-121.765789,40.30352],[-121.76686,40.303697],[-121.766988,40.30291],[-121.766619,40.301809],[-121.766973,40.301449],[-121.767206,40.300284],[-121.767548,40.300021],[-121.766528,40.300045],[-121.764468,40.299554],[-121.764201,40.299019],[-121.76498,40.298126],[-121.764543,40.297308],[-121.765166,40.296626],[-121.76624,40.296192],[-121.766324,40.294441],[-121.767849,40.293811],[-121.768968,40.292829],[-121.768851,40.29218],[-121.769584,40.291875],[-121.77002,40.291187],[-121.771048,40.290989],[-121.772242,40.291507],[-121.773293,40.291529],[-121.773933,40.290596],[-121.773366,40.290582],[-121.773112,40.290292],[-121.773179,40.289521],[-121.773713,40.289315],[-121.775281,40.289718],[-121.775494,40.289197],[-121.774618,40.288429],[-121.774242,40.288251],[-121.773847,40.288381],[-121.773564,40.28816],[-121.771976,40.289836],[-121.770252,40.290553],[-121.770301,40.290888],[-121.769863,40.290916],[-121.769124,40.290433],[-121.767409,40.290065],[-121.767933,40.288297],[-121.766092,40.288712],[-121.765942,40.289302],[-121.76383,40.289322],[-121.763098,40.289797],[-121.763009,40.290129],[-121.762167,40.289841],[-121.76161,40.289973],[-121.761261,40.289736],[-121.759685,40.290357],[-121.758041,40.290125],[-121.7561,40.290588],[-121.755412,40.290295],[-121.754681,40.289443],[-121.754996,40.289178],[-121.754913,40.288905],[-121.755372,40.288742],[-121.755262,40.288474],[-121.754636,40.288785],[-121.754374,40.288361],[-121.753684,40.288621],[-121.753218,40.288545],[-121.753032,40.289332],[-121.75261,40.289365],[-121.751878,40.28899],[-121.751752,40.289289],[-121.751114,40.289581],[-121.750423,40.289341],[-121.74898,40.289698],[-121.747724,40.288731],[-121.747279,40.288704],[-121.747478,40.28952],[-121.746568,40.290776],[-121.74416,40.291995],[-121.743966,40.292607],[-121.742709,40.293612],[-121.741203,40.293633],[-121.740987,40.293469],[-121.739971,40.294018],[-121.739523,40.293895],[-121.738096,40.294181],[-121.737063,40.294892],[-121.735295,40.294997],[-121.73458,40.295799],[-121.734069,40.296065],[-121.733593,40.295988],[-121.732959,40.296695],[-121.731759,40.296575],[-121.731432,40.295842],[-121.73185,40.295753],[-121.732711,40.294697],[-121.733034,40.294774],[-121.733393,40.294375],[-121.734548,40.293889],[-121.734937,40.292552],[-121.73481,40.292332],[-121.733881,40.292551],[-121.733682,40.29222],[-121.7325,40.292837],[-121.731679,40.292569],[-121.730504,40.292608],[-121.730534,40.291791],[-121.729978,40.291093],[-121.730327,40.290714],[-121.729385,40.290106],[-121.72905,40.29003],[-121.729028,40.290586],[-121.728029,40.290201],[-121.727329,40.290205],[-121.727211,40.290548],[-121.725847,40.291046],[-121.725515,40.291476],[-121.725219,40.291462],[-121.725102,40.290932],[-121.724903,40.291172],[-121.7247,40.29089],[-121.724088,40.291127],[-121.723435,40.291075],[-121.723404,40.291355],[-121.723094,40.291359],[-121.720151,40.290053],[-121.719424,40.290343],[-121.718972,40.290074],[-121.716412,40.290072],[-121.7158,40.290814],[-121.71515,40.290989],[-121.714942,40.290859],[-121.715194,40.290603],[-121.714901,40.290403],[-121.714024,40.290652],[-121.713117,40.290283],[-121.712923,40.289874],[-121.713571,40.289517],[-121.713602,40.289123],[-121.711359,40.289133],[-121.711152,40.288203],[-121.711742,40.287814],[-121.711706,40.287546],[-121.712148,40.287974],[-121.711993,40.287593],[-121.713182,40.287338],[-121.713281,40.287076],[-121.713413,40.287277],[-121.714151,40.287086],[-121.714548,40.286772],[-121.714446,40.286526],[-121.715201,40.286113],[-121.715349,40.286303],[-121.716336,40.286188],[-121.716214,40.285803],[-121.717256,40.286124],[-121.71768,40.28607],[-121.718249,40.285402],[-121.718602,40.285585],[-121.718991,40.285278],[-121.719531,40.285521],[-121.719437,40.285251],[-121.719815,40.284971],[-121.719176,40.28438],[-121.718681,40.284312],[-121.718399,40.283597],[-121.718469,40.283384],[-121.718966,40.283491],[-121.718784,40.28278],[-121.717287,40.282238],[-121.717402,40.281752],[-121.718274,40.280741],[-121.717035,40.279308],[-121.716295,40.279108],[-121.715118,40.279277],[-121.714137,40.277696],[-121.715433,40.276563],[-121.716784,40.276484],[-121.716644,40.276346],[-121.717369,40.2758],[-121.716902,40.275355],[-121.716889,40.274673],[-121.717836,40.274513],[-121.717914,40.274246],[-121.718884,40.274806],[-121.719171,40.274639],[-121.719331,40.273886],[-121.719683,40.273828],[-121.720433,40.274155],[-121.721424,40.273942],[-121.721625,40.273764],[-121.721315,40.273474],[-121.721796,40.273364],[-121.721868,40.273138],[-121.720773,40.273092],[-121.720715,40.272701],[-121.720155,40.272866],[-121.720187,40.273079],[-121.719722,40.27286],[-121.71974,40.273326],[-121.718947,40.273451],[-121.718878,40.273706],[-121.718102,40.274079],[-121.717717,40.274061],[-121.717478,40.273707],[-121.715988,40.274005],[-121.715014,40.273558],[-121.714473,40.273722],[-121.714324,40.273615],[-121.715025,40.272595],[-121.714926,40.272246],[-121.715384,40.271964],[-121.714986,40.271768],[-121.713495,40.271388],[-121.712327,40.270652],[-121.712081,40.271037],[-121.711459,40.271061],[-121.710957,40.271365],[-121.709353,40.270712],[-121.708857,40.270744],[-121.708554,40.270352],[-121.708243,40.270482],[-121.708005,40.270095],[-121.706667,40.270233],[-121.705897,40.26955],[-121.70636,40.268721],[-121.706637,40.268863],[-121.708583,40.268378],[-121.709671,40.268562],[-121.709572,40.267815],[-121.709173,40.267521],[-121.709722,40.266989],[-121.710502,40.267288],[-121.712721,40.266839],[-121.714779,40.266855],[-121.714741,40.266059],[-121.71529,40.265779],[-121.715291,40.265367],[-121.715717,40.26508],[-121.716688,40.265261],[-121.717125,40.264969],[-121.717859,40.265413],[-121.717513,40.265789],[-121.717923,40.265737],[-121.718473,40.265298],[-121.718638,40.264748],[-121.717981,40.263446],[-121.717708,40.263684],[-121.716612,40.263617],[-121.71633,40.26406],[-121.714783,40.264309],[-121.714513,40.264645],[-121.713864,40.26449],[-121.713008,40.264961],[-121.711294,40.264818],[-121.710791,40.265172],[-121.710008,40.265198],[-121.709798,40.265476],[-121.708537,40.265748],[-121.70816,40.265582],[-121.708229,40.26633],[-121.707847,40.267721],[-121.707188,40.267953],[-121.706908,40.267013],[-121.707233,40.265173],[-121.706722,40.265293],[-121.706061,40.264957],[-121.706169,40.264698],[-121.705625,40.264208],[-121.705845,40.263966],[-121.705493,40.263745],[-121.705682,40.263379],[-121.70541,40.262889],[-121.704411,40.263443],[-121.70468,40.263545],[-121.704682,40.263855],[-121.703972,40.26394],[-121.703689,40.264311],[-121.703153,40.26448],[-121.702681,40.264363],[-121.701966,40.263697],[-121.701552,40.2637],[-121.701419,40.263437],[-121.700912,40.263916],[-121.699904,40.264237],[-121.698622,40.263698],[-121.698153,40.262572],[-121.698283,40.261059],[-121.697778,40.260504],[-121.699197,40.259477],[-121.699162,40.259024],[-121.699752,40.258269],[-121.700282,40.258418],[-121.700155,40.25811],[-121.701018,40.257683],[-121.701025,40.257404],[-121.701605,40.257397],[-121.702476,40.25564],[-121.703687,40.255178],[-121.705427,40.255133],[-121.70633,40.255404],[-121.706826,40.255683],[-121.707703,40.257095],[-121.707723,40.257556],[-121.708026,40.257665],[-121.708396,40.256243],[-121.707622,40.255772],[-121.707286,40.255038],[-121.708509,40.25393],[-121.708529,40.253092],[-121.707283,40.253031],[-121.706689,40.252808],[-121.706538,40.252469],[-121.707305,40.251922],[-121.707391,40.251506],[-121.708104,40.251362],[-121.708415,40.251696],[-121.70872,40.251562],[-121.708638,40.251365],[-121.70967,40.25064],[-121.709439,40.250253],[-121.710089,40.249876],[-121.709687,40.249535],[-121.709305,40.249561],[-121.707762,40.250004],[-121.707241,40.249875],[-121.706874,40.250099],[-121.704982,40.249716],[-121.703396,40.2488],[-121.701969,40.249243],[-121.701535,40.24914],[-121.701356,40.248868],[-121.701867,40.248271],[-121.701915,40.247792],[-121.699561,40.247668],[-121.698951,40.247304],[-121.699198,40.246772],[-121.700429,40.246031],[-121.701555,40.244958],[-121.701504,40.244652],[-121.700912,40.244735],[-121.699749,40.243692],[-121.699809,40.24297],[-121.699245,40.243139],[-121.698662,40.242869],[-121.696637,40.243002],[-121.69539,40.240489],[-121.69583,40.239647],[-121.696795,40.23883],[-121.697126,40.238102],[-121.696962,40.237889],[-121.698226,40.237089],[-121.698183,40.236814],[-121.698943,40.235969],[-121.699736,40.235785],[-121.69981,40.235432],[-121.700616,40.2354],[-121.701111,40.235658],[-121.70132,40.235345],[-121.701973,40.235137],[-121.702511,40.235264],[-121.703656,40.234812],[-121.703322,40.234413],[-121.703097,40.234667],[-121.702721,40.234629],[-121.702574,40.234979],[-121.701236,40.233897],[-121.701211,40.233338],[-121.700939,40.233205],[-121.6989,40.233227],[-121.698154,40.232709],[-121.697757,40.231945],[-121.697795,40.231529],[-121.698203,40.231415],[-121.697959,40.231037],[-121.698227,40.230152],[-121.699039,40.229827],[-121.699244,40.230063],[-121.69964,40.229854],[-121.6997,40.229983],[-121.700313,40.229069],[-121.700153,40.228394],[-121.700463,40.228096],[-121.700788,40.226425],[-121.701697,40.226156],[-121.701696,40.225976],[-121.699517,40.22516],[-121.698751,40.224599],[-121.698791,40.224265],[-121.697557,40.225094],[-121.696921,40.225115],[-121.695078,40.224177],[-121.694667,40.224239],[-121.694195,40.221875],[-121.694614,40.221356],[-121.693613,40.221376],[-121.692981,40.220984],[-121.692502,40.221157],[-121.692317,40.220759],[-121.691455,40.220929],[-121.691014,40.220694],[-121.690189,40.220696],[-121.689536,40.220925],[-121.689207,40.220633],[-121.687762,40.220472],[-121.685362,40.221147],[-121.685159,40.221452],[-121.684357,40.221748],[-121.683758,40.222429],[-121.682758,40.222587],[-121.682446,40.223294],[-121.68153,40.224261],[-121.680007,40.22417],[-121.679598,40.223736],[-121.679461,40.224032],[-121.678689,40.224287],[-121.677611,40.224115],[-121.67565,40.224531],[-121.675264,40.224145],[-121.675351,40.223893],[-121.674905,40.22376],[-121.674349,40.224234],[-121.67435,40.224627],[-121.672925,40.224744],[-121.673107,40.225189],[-121.672863,40.226559],[-121.672115,40.22664],[-121.670748,40.227472],[-121.670223,40.227501],[-121.670147,40.227727],[-121.669844,40.227849],[-121.669611,40.227547],[-121.669412,40.227807],[-121.668138,40.227636],[-121.666696,40.228354],[-121.665939,40.228266],[-121.665957,40.228764],[-121.665115,40.229519],[-121.663195,40.228511],[-121.66329,40.229101],[-121.663654,40.229452],[-121.66344,40.229618],[-121.663919,40.229733],[-121.663727,40.23045],[-121.662852,40.230545],[-121.663195,40.231325],[-121.662847,40.231811],[-121.661894,40.232328],[-121.66019,40.232371],[-121.660073,40.232228],[-121.658549,40.232812],[-121.65496,40.232896],[-121.653389,40.233415],[-121.65182,40.233638],[-121.649981,40.233325],[-121.648674,40.23285],[-121.648169,40.232909],[-121.647723,40.232434],[-121.648079,40.231899],[-121.647281,40.2316],[-121.645019,40.231899],[-121.644651,40.232089],[-121.644814,40.232451],[-121.644049,40.232661],[-121.644958,40.233739],[-121.64477,40.234241],[-121.645397,40.234868],[-121.645046,40.235639],[-121.645605,40.235924],[-121.64491,40.236423],[-121.644578,40.237083],[-121.644348,40.237083],[-121.644613,40.237401],[-121.644419,40.237559],[-121.64164,40.238254],[-121.641235,40.238602],[-121.641218,40.23882],[-121.641592,40.238903],[-121.641895,40.239319],[-121.64109,40.239572],[-121.640463,40.239488],[-121.639751,40.239884],[-121.639431,40.241615],[-121.638773,40.241882],[-121.637956,40.241847],[-121.638424,40.242724],[-121.637973,40.243285],[-121.639463,40.243537],[-121.63954,40.243962],[-121.639221,40.244512],[-121.638902,40.244526],[-121.639207,40.245366],[-121.63806,40.245408],[-121.637673,40.245615],[-121.638441,40.246465],[-121.639427,40.246904],[-121.639663,40.248271],[-121.638141,40.249133],[-121.635841,40.249442],[-121.635383,40.249992],[-121.635846,40.251938],[-121.637034,40.252041],[-121.638033,40.25239],[-121.638617,40.253159],[-121.638655,40.253785],[-121.637591,40.254041],[-121.636857,40.254834],[-121.636889,40.255591],[-121.635607,40.255734],[-121.635755,40.256023],[-121.635271,40.256174],[-121.63509,40.256532],[-121.634309,40.256458],[-121.633496,40.257366],[-121.632287,40.257818],[-121.63288,40.258302],[-121.633022,40.259218],[-121.632589,40.25945],[-121.632271,40.260187],[-121.630692,40.26145],[-121.630854,40.261656],[-121.630101,40.262327],[-121.629471,40.262614],[-121.628937,40.262395],[-121.628198,40.262724],[-121.627134,40.262728],[-121.626969,40.263046],[-121.626527,40.263066],[-121.62561,40.263751],[-121.624885,40.263874],[-121.624816,40.264558],[-121.625555,40.265243],[-121.626021,40.266174],[-121.625624,40.266584],[-121.624392,40.267283],[-121.624142,40.267675],[-121.623005,40.267608],[-121.622652,40.267927],[-121.62216,40.267789],[-121.621038,40.26872],[-121.620781,40.268671],[-121.620736,40.269172],[-121.620032,40.269888],[-121.619979,40.270741],[-121.620429,40.27079],[-121.620004,40.271233],[-121.619423,40.271364],[-121.619793,40.271602],[-121.620104,40.272969],[-121.617088,40.274154],[-121.617303,40.274511],[-121.61681,40.274639],[-121.616896,40.275091],[-121.616172,40.276043],[-121.615862,40.27596],[-121.614678,40.277974],[-121.614295,40.278221],[-121.613634,40.280062],[-121.613749,40.280525],[-121.613539,40.280608],[-121.613798,40.281156],[-121.612499,40.282644],[-121.612905,40.28282],[-121.611714,40.283483],[-121.612052,40.283524],[-121.611944,40.283796],[-121.611511,40.283821],[-121.61143,40.284133],[-121.611755,40.284024],[-121.612079,40.284576],[-121.611867,40.284509],[-121.610604,40.285729],[-121.610349,40.285695],[-121.610438,40.286812],[-121.61016,40.287277],[-121.610501,40.287767],[-121.609781,40.288264],[-121.609211,40.289211],[-121.608673,40.289253],[-121.60869,40.289552],[-121.608416,40.289599],[-121.608679,40.290606],[-121.608436,40.290841],[-121.607401,40.29088],[-121.607709,40.291028],[-121.607165,40.292281],[-121.608476,40.293316],[-121.608028,40.293736],[-121.608011,40.294426],[-121.607365,40.294524],[-121.607048,40.294933],[-121.606711,40.294564],[-121.606854,40.294309],[-121.606501,40.294065],[-121.606013,40.294033],[-121.605711,40.294372],[-121.605314,40.294134],[-121.604572,40.294141],[-121.60444,40.294758],[-121.604798,40.295074],[-121.604796,40.295512],[-121.603618,40.295797],[-121.603225,40.29627],[-121.603889,40.296265],[-121.604018,40.29664],[-121.604493,40.296862],[-121.604006,40.297602],[-121.604167,40.29848],[-121.603772,40.29888],[-121.60407,40.299321],[-121.604679,40.299689],[-121.605225,40.299305],[-121.605489,40.29953],[-121.605963,40.299406],[-121.606498,40.298761],[-121.607677,40.299033],[-121.607432,40.299634],[-121.607603,40.300003],[-121.607296,40.300142],[-121.607017,40.300989],[-121.606548,40.301138],[-121.606236,40.301984],[-121.606438,40.302609],[-121.605504,40.303343],[-121.606388,40.304254],[-121.605948,40.304946],[-121.606272,40.30536],[-121.606098,40.305298],[-121.606046,40.305548],[-121.606464,40.305835],[-121.606329,40.306034],[-121.606842,40.306531],[-121.607135,40.307387],[-121.606779,40.308229],[-121.607086,40.308812],[-121.606968,40.309544],[-121.606551,40.309558],[-121.605821,40.310169],[-121.606445,40.310843],[-121.606243,40.310837],[-121.606258,40.311153],[-121.605714,40.311493],[-121.6053,40.311193],[-121.605197,40.311701],[-121.605459,40.311852],[-121.604168,40.313088],[-121.604365,40.313557],[-121.603748,40.314002],[-121.603009,40.315399],[-121.600405,40.3162],[-121.597055,40.316053],[-121.594856,40.316413],[-121.594453,40.317285],[-121.59504,40.3183],[-121.595046,40.318873],[-121.594148,40.319313],[-121.593348,40.32011],[-121.591099,40.320346],[-121.590468,40.320822],[-121.590565,40.32038],[-121.590015,40.32057],[-121.589199,40.321764],[-121.589319,40.322895],[-121.588537,40.323726],[-121.588315,40.324439],[-121.587436,40.325589],[-121.583341,40.32515],[-121.581653,40.324348],[-121.579757,40.324818],[-121.578267,40.324576],[-121.577169,40.324894],[-121.576802,40.326949],[-121.577578,40.327657],[-121.578796,40.327979],[-121.580859,40.329094],[-121.581326,40.32972],[-121.581078,40.330224],[-121.581204,40.330671],[-121.582349,40.330855],[-121.584281,40.330579],[-121.584985,40.330862],[-121.585083,40.331685],[-121.583825,40.332999],[-121.584797,40.333368],[-121.585832,40.334301],[-121.586217,40.335619],[-121.585404,40.336858],[-121.583844,40.337117],[-121.583132,40.337942],[-121.58171,40.338219],[-121.580098,40.33904],[-121.577395,40.339074],[-121.577267,40.338828],[-121.574822,40.33905],[-121.574434,40.338892],[-121.574364,40.338495],[-121.573949,40.338189],[-121.573189,40.338937],[-121.572549,40.338941],[-121.572302,40.338355],[-121.57202,40.338272],[-121.571883,40.33855],[-121.571443,40.338538],[-121.571164,40.338772],[-121.571795,40.339756],[-121.572246,40.340019],[-121.574264,40.340282],[-121.575475,40.340813],[-121.575647,40.341428],[-121.57535,40.342006],[-121.573597,40.344046],[-121.573881,40.344201],[-121.574208,40.345117],[-121.575057,40.345345],[-121.575488,40.345698],[-121.575484,40.346598],[-121.574554,40.347738],[-121.571698,40.349876],[-121.570021,40.352079],[-121.568234,40.353595],[-121.568377,40.354278],[-121.56802,40.355647],[-121.566436,40.356296],[-121.566179,40.356883],[-121.564814,40.357911],[-121.563189,40.358311],[-121.563001,40.358704],[-121.562446,40.35898],[-121.560381,40.359054],[-121.559066,40.359763],[-121.55756,40.360179],[-121.552835,40.360386],[-121.549391,40.361477],[-121.548512,40.362208],[-121.547702,40.365213],[-121.546674,40.365786],[-121.545947,40.365821],[-121.546038,40.365164],[-121.545385,40.364503],[-121.545094,40.364842],[-121.54541,40.365198],[-121.545422,40.365791],[-121.542364,40.366496],[-121.539041,40.367603],[-121.537785,40.367483],[-121.536567,40.366889],[-121.5356,40.365645],[-121.535372,40.364436],[-121.535788,40.363559],[-121.535337,40.363346],[-121.535355,40.363052],[-121.536295,40.360641],[-121.536186,40.360023],[-121.53757,40.358448],[-121.540678,40.355832],[-121.5405,40.353835],[-121.541094,40.352646],[-121.542865,40.350298],[-121.542976,40.349047],[-121.541654,40.348173],[-121.539023,40.347815],[-121.538098,40.348353],[-121.537881,40.34897],[-121.538028,40.350083],[-121.537815,40.350587],[-121.537257,40.350866],[-121.53573,40.350941],[-121.533301,40.350283],[-121.532369,40.35038],[-121.531661,40.351042],[-121.531266,40.352341],[-121.530327,40.353122],[-121.528537,40.353541],[-121.526799,40.354291],[-121.525121,40.353953],[-121.523073,40.354957],[-121.52297,40.354778],[-121.521682,40.355229],[-121.519689,40.355177],[-121.517596,40.353876],[-121.517876,40.352305],[-121.518705,40.351844],[-121.519849,40.350729],[-121.519769,40.350246],[-121.519036,40.349497],[-121.519013,40.34894],[-121.519895,40.347345],[-121.522184,40.348856],[-121.522707,40.348762],[-121.523046,40.346371],[-121.523873,40.34509],[-121.523717,40.344019],[-121.524175,40.343337],[-121.523703,40.342751],[-121.523149,40.342722],[-121.523393,40.341772],[-121.522626,40.341225],[-121.522854,40.340833],[-121.522198,40.340929],[-121.522127,40.34069],[-121.52151,40.340426],[-121.521483,40.341763],[-121.521211,40.342046],[-121.520112,40.342085],[-121.520156,40.342793],[-121.519741,40.342934],[-121.520429,40.343635],[-121.519945,40.344797],[-121.519121,40.34488],[-121.518949,40.344631],[-121.519187,40.344298],[-121.518616,40.344427],[-121.518527,40.344153],[-121.518228,40.344186],[-121.518373,40.344632],[-121.517988,40.345022],[-121.517717,40.34493],[-121.517802,40.344441],[-121.51613,40.344117],[-121.515351,40.345613],[-121.515522,40.346734],[-121.514836,40.347757],[-121.515195,40.348837],[-121.513856,40.350504],[-121.512905,40.352872],[-121.511675,40.354445],[-121.510273,40.355691],[-121.509479,40.357046],[-121.506208,40.358635],[-121.504977,40.359819],[-121.502578,40.361392],[-121.502111,40.36161],[-121.501323,40.361539],[-121.500406,40.362323],[-121.499876,40.362422],[-121.499977,40.361441],[-121.500614,40.361177],[-121.499915,40.360286],[-121.499354,40.358339],[-121.498201,40.356906],[-121.497422,40.354678],[-121.497407,40.354133],[-121.497921,40.354133],[-121.498076,40.353498],[-121.49764,40.353463],[-121.496239,40.35242],[-121.495444,40.351454],[-121.495765,40.348915],[-121.496128,40.348888],[-121.495801,40.348435],[-121.495522,40.348659],[-121.495313,40.34857],[-121.49529,40.347935],[-121.49571,40.34745],[-121.49518,40.344769],[-121.495506,40.344477],[-121.49548,40.34323],[-121.494857,40.342563],[-121.495046,40.341657],[-121.496307,40.342075],[-121.498565,40.341588],[-121.501699,40.341454],[-121.502402,40.341213],[-121.502604,40.341457],[-121.502443,40.341832],[-121.502841,40.342122],[-121.503689,40.341882],[-121.503276,40.341257],[-121.504589,40.341037],[-121.504024,40.340466],[-121.504292,40.340114],[-121.503814,40.340021],[-121.503419,40.340332],[-121.503653,40.3396],[-121.503264,40.339226],[-121.503544,40.339008],[-121.50345,40.338448],[-121.506021,40.337092],[-121.506337,40.337103],[-121.507049,40.336173],[-121.508106,40.335645],[-121.507588,40.333321],[-121.509498,40.331666],[-121.510265,40.330601],[-121.510681,40.329094],[-121.511739,40.32867],[-121.512049,40.329153],[-121.511987,40.330482],[-121.512536,40.331824],[-121.512389,40.33207],[-121.513348,40.332617],[-121.514334,40.334787],[-121.515113,40.335365],[-121.515548,40.336951],[-121.514901,40.337277],[-121.515847,40.337395],[-121.515932,40.336968],[-121.517097,40.336417],[-121.516894,40.336174],[-121.517206,40.335614],[-121.516717,40.335326],[-121.517521,40.335424],[-121.517526,40.335186],[-121.519348,40.334184],[-121.517952,40.332828],[-121.516856,40.330904],[-121.517092,40.329467],[-121.517596,40.328803],[-121.518412,40.328827],[-121.518841,40.329388],[-121.519172,40.329413],[-121.519294,40.329177],[-121.51967,40.329556],[-121.520318,40.329302],[-121.520978,40.328888],[-121.521978,40.327303],[-121.525006,40.3264],[-121.526046,40.325838],[-121.526024,40.324854],[-121.527337,40.324168],[-121.528644,40.323805],[-121.529388,40.323119],[-121.530356,40.322776],[-121.530581,40.322148],[-121.530506,40.321918],[-121.529807,40.322138],[-121.52927,40.321733],[-121.527997,40.322173],[-121.527206,40.321807],[-121.524233,40.322345],[-121.523034,40.321778],[-121.522361,40.321779],[-121.522085,40.321461],[-121.520497,40.321589],[-121.518621,40.321152],[-121.518887,40.320776],[-121.518733,40.320516],[-121.519077,40.318846],[-121.520016,40.316678],[-121.519511,40.315648],[-121.519555,40.314306],[-121.519947,40.313473],[-121.521745,40.312624],[-121.522765,40.3115],[-121.523934,40.310768],[-121.524296,40.310072],[-121.524589,40.310254],[-121.527247,40.309064],[-121.525595,40.307751],[-121.525244,40.30714],[-121.525313,40.306452],[-121.525716,40.306275],[-121.526139,40.305345],[-121.526696,40.304897],[-121.526659,40.303888],[-121.527542,40.302378],[-121.527391,40.302089],[-121.528007,40.301648],[-121.528908,40.301423],[-121.529054,40.301152],[-121.52863,40.300239],[-121.528764,40.299565],[-121.528433,40.299258],[-121.52869,40.29746],[-121.529262,40.297101],[-121.53059,40.296767],[-121.532283,40.295506],[-121.532165,40.294644],[-121.532675,40.293809],[-121.532576,40.293572],[-121.532198,40.293608],[-121.531903,40.292018],[-121.531101,40.291261],[-121.530304,40.288884],[-121.529398,40.288533],[-121.528707,40.287595],[-121.529537,40.286191],[-121.529628,40.2854],[-121.529972,40.285169],[-121.529803,40.284643],[-121.52962,40.284306],[-121.527719,40.283152],[-121.526381,40.281744],[-121.525751,40.280565],[-121.526106,40.279596],[-121.525425,40.278897],[-121.525678,40.27882],[-121.52567,40.278174],[-121.527324,40.276632],[-121.529481,40.275251],[-121.530856,40.274855],[-121.532227,40.273507],[-121.53473,40.272054],[-121.53494,40.271424],[-121.535369,40.271157],[-121.534841,40.270578],[-121.534891,40.269089],[-121.536702,40.265775],[-121.536754,40.264592],[-121.535998,40.262129],[-121.534641,40.260943],[-121.534532,40.260569],[-121.534859,40.259702],[-121.536501,40.258932],[-121.536947,40.25787],[-121.538009,40.257729],[-121.538398,40.257482],[-121.538015,40.256755],[-121.537856,40.254697],[-121.539731,40.254939],[-121.540517,40.254721],[-121.540106,40.2529],[-121.540167,40.251645],[-121.539633,40.250207],[-121.540057,40.24966],[-121.539927,40.249123],[-121.540278,40.248866],[-121.540185,40.248431],[-121.540552,40.247832],[-121.54044,40.247071],[-121.540738,40.246841],[-121.54049,40.246067],[-121.540883,40.245248],[-121.540784,40.244667],[-121.541811,40.243726],[-121.541916,40.242879],[-121.542347,40.24262],[-121.545798,40.242842],[-121.547235,40.242741],[-121.548042,40.243243],[-121.548875,40.242741],[-121.551334,40.242667],[-121.551619,40.241999],[-121.551298,40.24093],[-121.551839,40.240575],[-121.55244,40.239681],[-121.55204,40.239048],[-121.552265,40.23806],[-121.553165,40.237375],[-121.55346,40.236828],[-121.554025,40.236656],[-121.553453,40.235946],[-121.553532,40.235454],[-121.554918,40.235223],[-121.555382,40.235906],[-121.55613,40.235576],[-121.555845,40.235048],[-121.55677,40.23447],[-121.55727,40.23366],[-121.557728,40.233417],[-121.558451,40.233774],[-121.559109,40.233613],[-121.559404,40.233129],[-121.560378,40.232709],[-121.560283,40.232126],[-121.560871,40.231874],[-121.561109,40.231479],[-121.561648,40.231456],[-121.562156,40.230677],[-121.563482,40.230607],[-121.564037,40.229976],[-121.565299,40.229699],[-121.566403,40.228667],[-121.567237,40.228503],[-121.567637,40.228632],[-121.568171,40.228497],[-121.568209,40.228224],[-121.570171,40.228406],[-121.571815,40.227881],[-121.57222,40.227581],[-121.572308,40.227006],[-121.573901,40.226387],[-121.574323,40.225526],[-121.575111,40.225611],[-121.575665,40.224802],[-121.577326,40.22395],[-121.57788,40.224099],[-121.578006,40.224502],[-121.578317,40.224111],[-121.579649,40.224208],[-121.582116,40.22332],[-121.582079,40.221649],[-121.582514,40.221005],[-121.583186,40.221],[-121.583649,40.221233],[-121.584038,40.220832],[-121.583889,40.220489],[-121.584249,40.219832],[-121.58516,40.219715],[-121.584898,40.21926],[-121.585248,40.218818],[-121.587272,40.218002],[-121.587768,40.217494],[-121.587484,40.215608],[-121.588906,40.215034],[-121.591149,40.214699],[-121.591109,40.213615],[-121.591368,40.213327],[-121.592204,40.213584],[-121.595431,40.21328],[-121.596361,40.213313],[-121.597111,40.213629],[-121.598244,40.213445],[-121.598694,40.213587],[-121.598893,40.212794],[-121.599391,40.212632],[-121.599585,40.212261],[-121.600238,40.21231],[-121.600612,40.212076],[-121.601454,40.212182],[-121.601632,40.21173],[-121.602399,40.21166],[-121.603074,40.211328],[-121.603982,40.211379],[-121.604966,40.210294],[-121.60532,40.209512],[-121.606102,40.209158],[-121.606481,40.208603],[-121.606193,40.208073],[-121.604763,40.208476],[-121.603562,40.208209],[-121.601627,40.208908],[-121.60033,40.208597],[-121.59904,40.207842],[-121.59724,40.207961],[-121.596403,40.207051],[-121.596357,40.205279],[-121.596131,40.20512],[-121.594396,40.206483],[-121.592472,40.206862],[-121.591752,40.205813],[-121.59189,40.204439],[-121.59244,40.203242],[-121.593033,40.202679],[-121.593822,40.201163],[-121.595194,40.200109],[-121.59595,40.199175],[-121.59561,40.1976],[-121.595845,40.197254],[-121.597432,40.195866],[-121.5979,40.197121],[-121.600316,40.196257],[-121.600912,40.195],[-121.600171,40.194389],[-121.600792,40.193419],[-121.600686,40.192164],[-121.601027,40.190878],[-121.601741,40.189605],[-121.60151,40.189222],[-121.602743,40.188222],[-121.602675,40.187469],[-121.603474,40.186929],[-121.603544,40.186472],[-121.602846,40.185992],[-121.602719,40.186306],[-121.602198,40.186233],[-121.601901,40.185729],[-121.602013,40.185341],[-121.600985,40.185551],[-121.600604,40.185425],[-121.60039,40.18382],[-121.598794,40.183266],[-121.599855,40.182314],[-121.599675,40.18211],[-121.599867,40.18171],[-121.599577,40.181458],[-121.599902,40.180921],[-121.599632,40.18028],[-121.599021,40.180156],[-121.599901,40.179328],[-121.600022,40.178769],[-121.600525,40.178438],[-121.60027,40.177868],[-121.601132,40.177919],[-121.601666,40.177589],[-121.601664,40.177092],[-121.599834,40.177078],[-121.599147,40.177315],[-121.598401,40.178019],[-121.597051,40.177045],[-121.595653,40.176489],[-121.595297,40.175054],[-121.595555,40.173716],[-121.595995,40.173017],[-121.595885,40.172479],[-121.596578,40.171649],[-121.596651,40.170069],[-121.597241,40.16938],[-121.596353,40.167711],[-121.593639,40.166421],[-121.594347,40.16544],[-121.593831,40.164502],[-121.594426,40.164194],[-121.595738,40.164126],[-121.596488,40.164475],[-121.596925,40.165072],[-121.597815,40.165272],[-121.59784,40.165545],[-121.598684,40.165793],[-121.599326,40.16539],[-121.599026,40.164945],[-121.599184,40.164689],[-121.600443,40.164379],[-121.601475,40.164416],[-121.604391,40.163296],[-121.607161,40.164101],[-121.610766,40.163721],[-121.612962,40.164046],[-121.613882,40.16387],[-121.615464,40.162881],[-121.616033,40.163494],[-121.617693,40.163676],[-121.620669,40.162129],[-121.621399,40.162176],[-121.622217,40.161867],[-121.622684,40.162122],[-121.623972,40.162161],[-121.624526,40.161949],[-121.6244,40.161764],[-121.623435,40.162019],[-121.622798,40.161766],[-121.622397,40.161232],[-121.621762,40.161304],[-121.620324,40.160794],[-121.620006,40.160512],[-121.619985,40.159756],[-121.618257,40.159555],[-121.61749,40.159841],[-121.616914,40.159787],[-121.616653,40.158366],[-121.61543,40.156874],[-121.615362,40.156019],[-121.613953,40.154653],[-121.612299,40.154718],[-121.61205,40.154424],[-121.610554,40.154853],[-121.610154,40.154446],[-121.60913,40.154145],[-121.607973,40.154496],[-121.606377,40.153649],[-121.606088,40.153615],[-121.605929,40.15388],[-121.605519,40.153708],[-121.604922,40.15234],[-121.604539,40.152902],[-121.603711,40.152812],[-121.603364,40.153539],[-121.601987,40.153847],[-121.601246,40.154397],[-121.600401,40.154594],[-121.599475,40.154457],[-121.598885,40.154111],[-121.597666,40.154196],[-121.595969,40.153962],[-121.59526,40.153767],[-121.593931,40.152928],[-121.593535,40.15256],[-121.593633,40.151498],[-121.592501,40.150824],[-121.591953,40.150179],[-121.590901,40.149784],[-121.590115,40.150499],[-121.590182,40.151338],[-121.590669,40.152053],[-121.590467,40.152196],[-121.58792,40.147632],[-121.584939,40.145431],[-121.585185,40.144651],[-121.584821,40.144837],[-121.58506,40.142646],[-121.584871,40.141126],[-121.58562,40.140201],[-121.587597,40.139913],[-121.588054,40.139186],[-121.587756,40.138229],[-121.586671,40.137801],[-121.586138,40.137924],[-121.583481,40.137436],[-121.582636,40.137346],[-121.582284,40.137607],[-121.58088,40.137114],[-121.580039,40.135998],[-121.580187,40.135595],[-121.579113,40.133749],[-121.578996,40.132035],[-121.578893,40.131838],[-121.577897,40.131751],[-121.577175,40.129648],[-121.57548,40.128016],[-121.574864,40.128054],[-121.572892,40.127416],[-121.572549,40.127161],[-121.572364,40.126431],[-121.574421,40.12411],[-121.575611,40.121701],[-121.575606,40.120085],[-121.57511,40.118734],[-121.575237,40.117613],[-121.57564,40.116989],[-121.577149,40.11694],[-121.577228,40.116055],[-121.578157,40.114959],[-121.578232,40.114005],[-121.578636,40.113454],[-121.578915,40.113247],[-121.579611,40.113393],[-121.580447,40.113242],[-121.582122,40.112511],[-121.584361,40.112634],[-121.585865,40.112309],[-121.585859,40.111801],[-121.585325,40.111317],[-121.585493,40.109039],[-121.584879,40.108214],[-121.582892,40.10663],[-121.582362,40.105355],[-121.582088,40.099511],[-121.58359,40.09777],[-121.585277,40.096879],[-121.585535,40.096487],[-121.585313,40.095558],[-121.584442,40.094783],[-121.582974,40.092084],[-121.583778,40.089042],[-121.584561,40.088376],[-121.585115,40.088255],[-121.587335,40.08832],[-121.588558,40.087305],[-121.589406,40.086088],[-121.58967,40.08496],[-121.590246,40.084129],[-121.591227,40.083775],[-121.591859,40.083222],[-121.591895,40.081594],[-121.592338,40.080821],[-121.595028,40.078803],[-121.598604,40.073094],[-121.600268,40.071549],[-121.601078,40.069976],[-121.601619,40.069537],[-121.601848,40.067731],[-121.602699,40.065484],[-121.605,40.063593],[-121.606162,40.063181],[-121.605849,40.062616],[-121.606397,40.060972],[-121.608244,40.059911],[-121.610027,40.059714],[-121.609891,40.059543],[-121.610396,40.05869],[-121.60946,40.057666],[-121.609512,40.056922],[-121.608393,40.055104],[-121.608957,40.054228],[-121.605207,40.051452],[-121.605174,40.051251],[-121.605581,40.051254],[-121.60604,40.050779],[-121.605725,40.05041],[-121.605869,40.049896],[-121.60547,40.048762],[-121.605838,40.048681],[-121.608454,40.049247],[-121.608642,40.049008],[-121.607787,40.047987],[-121.609621,40.046973],[-121.61017,40.04578],[-121.610547,40.045495],[-121.612511,40.045286],[-121.613121,40.044938],[-121.61447,40.044888],[-121.615612,40.04453],[-121.616537,40.044555],[-121.61699,40.044176],[-121.617377,40.043014],[-121.618088,40.042202],[-121.617007,40.039036],[-121.617929,40.039017],[-121.617925,40.038781],[-121.618504,40.038435],[-121.619227,40.037557],[-121.619245,40.037081],[-121.620029,40.035888],[-121.620336,40.035534],[-121.620759,40.035533],[-121.620823,40.03389],[-121.62117,40.033394],[-121.623964,40.03093],[-121.625303,40.028529],[-121.626596,40.027683],[-121.627118,40.026963],[-121.627266,40.026267],[-121.627054,40.025947],[-121.627909,40.023823],[-121.628492,40.019028],[-121.628871,40.018342],[-121.626513,40.012868],[-121.626422,40.011115],[-121.62731,40.010214],[-121.628637,40.009754],[-121.629359,40.008922],[-121.631911,40.008062],[-121.633229,40.007153],[-121.634053,40.00425],[-121.633907,40.001537],[-121.634254,40.000343],[-121.634068,39.999796],[-121.633301,39.999051],[-121.633884,39.998059],[-121.634859,39.997407],[-121.636871,39.997787],[-121.637562,39.997557],[-121.639256,39.996285],[-121.63966,39.995433],[-121.639853,39.993515],[-121.639613,39.992562],[-121.640128,39.989924],[-121.639559,39.987527],[-121.640024,39.985341],[-121.640871,39.983779],[-121.640798,39.982697],[-121.641392,39.980525],[-121.642043,39.97906],[-121.642648,39.978638],[-121.643272,39.978682],[-121.643589,39.978442],[-121.643331,39.978043],[-121.643974,39.977399],[-121.643742,39.976419],[-121.643981,39.974623],[-121.645871,39.973998],[-121.646631,39.973527],[-121.644716,39.973258],[-121.644204,39.972897],[-121.644308,39.97243],[-121.644647,39.972312],[-121.644842,39.971606],[-121.645177,39.971345],[-121.645589,39.971219],[-121.646329,39.971418],[-121.645953,39.9703],[-121.646213,39.969927],[-121.64619,39.968912],[-121.647336,39.967405],[-121.647814,39.966079],[-121.648904,39.964606],[-121.649131,39.962984],[-121.649983,39.962409],[-121.650483,39.961537],[-121.651498,39.959279],[-121.651456,39.958583],[-121.651931,39.957441],[-121.651533,39.956774],[-121.650468,39.956065],[-121.650562,39.954298],[-121.650365,39.953944],[-121.651136,39.952609],[-121.650967,39.952113],[-121.651166,39.951815],[-121.651476,39.951866],[-121.651651,39.951461],[-121.651587,39.950419],[-121.651911,39.94989],[-121.651723,39.949272],[-121.652499,39.94866],[-121.652091,39.947833],[-121.651314,39.947862],[-121.651302,39.947308],[-121.650697,39.946908],[-121.650876,39.946596],[-121.651582,39.946605],[-121.651723,39.94631],[-121.650956,39.943927],[-121.650909,39.942245],[-121.651241,39.941039],[-121.65003,39.939857],[-121.648105,39.936994],[-121.647885,39.935043],[-121.648189,39.932353],[-121.648439,39.931935],[-121.648924,39.932036],[-121.651419,39.931124],[-121.651864,39.929776],[-121.652625,39.92986],[-121.653088,39.929759],[-121.653252,39.929399],[-121.65364,39.929262],[-121.652579,39.928919],[-121.651957,39.928456],[-121.652817,39.927503],[-121.653942,39.92707],[-121.654782,39.926351],[-121.655035,39.925129],[-121.654571,39.924646],[-121.654385,39.923036],[-121.654975,39.921977],[-121.65547,39.921627],[-121.655259,39.921014],[-121.656458,39.919393],[-121.657277,39.91908],[-121.65733,39.918681],[-121.657767,39.9187],[-121.657065,39.917778],[-121.657254,39.917446],[-121.657059,39.916763],[-121.65768,39.915923],[-121.658229,39.916231],[-121.658634,39.915803],[-121.658396,39.91517],[-121.65737,39.914704],[-121.658136,39.91292],[-121.657896,39.912485],[-121.658207,39.911483],[-121.657945,39.911302],[-121.6581,39.910919],[-121.656939,39.910353],[-121.65695,39.9097],[-121.65725,39.909437],[-121.657186,39.90866],[-121.65799,39.908146],[-121.657973,39.907626],[-121.658469,39.906784],[-121.658869,39.90679],[-121.659087,39.90642],[-121.659111,39.90614],[-121.658482,39.906032],[-121.658262,39.905244],[-121.658659,39.904963],[-121.65914,39.90507],[-121.659397,39.904714],[-121.658644,39.904207],[-121.65909,39.903606],[-121.658923,39.903151],[-121.659254,39.903063],[-121.659384,39.902522],[-121.66032,39.902168],[-121.660151,39.901718],[-121.660462,39.901371],[-121.66073,39.901502],[-121.660709,39.900409],[-121.661504,39.899543],[-121.662111,39.89948],[-121.662225,39.899228],[-121.662751,39.899316],[-121.663288,39.899863],[-121.663538,39.899577],[-121.663795,39.898854],[-121.663432,39.898576],[-121.663755,39.898188],[-121.663565,39.897739],[-121.664138,39.897249],[-121.664071,39.896727],[-121.665026,39.89658],[-121.665776,39.896872],[-121.667548,39.895889],[-121.669288,39.893779],[-121.670013,39.893974],[-121.670484,39.894688],[-121.670993,39.894875],[-121.671762,39.894627],[-121.672895,39.893137],[-121.672801,39.892659],[-121.673477,39.892052],[-121.673408,39.89136],[-121.674815,39.890806],[-121.676094,39.891144],[-121.678033,39.890332],[-121.678551,39.889127],[-121.67751,39.887907],[-121.678161,39.887867],[-121.679093,39.888755],[-121.679365,39.888236],[-121.679906,39.887943],[-121.67941,39.886771],[-121.679622,39.885809],[-121.680676,39.885227],[-121.682083,39.88365],[-121.680996,39.882988],[-121.681568,39.88128],[-121.680897,39.880699],[-121.681375,39.879716],[-121.682137,39.879341],[-121.681839,39.878788],[-121.683353,39.878727],[-121.684055,39.877674],[-121.683395,39.876766],[-121.683856,39.876463],[-121.683923,39.874739],[-121.684475,39.874146],[-121.68433,39.873939],[-121.685033,39.872688],[-121.684766,39.872233],[-121.685114,39.871419],[-121.684719,39.870985],[-121.688859,39.867022],[-121.690576,39.864857],[-121.691145,39.863463],[-121.694405,39.858344],[-121.694647,39.856055],[-121.693058,39.854328],[-121.692095,39.854365],[-121.691323,39.854135],[-121.69125,39.853452],[-121.690697,39.852669],[-121.690685,39.851828],[-121.691352,39.850706],[-121.693471,39.848945],[-121.69368,39.847567],[-121.694726,39.846514],[-121.697754,39.842126],[-121.699259,39.841108],[-121.701791,39.840173],[-121.702248,39.839133],[-121.703204,39.838321],[-121.703941,39.834479],[-121.705071,39.832137],[-121.706817,39.829456],[-121.707241,39.827065],[-121.707613,39.826534],[-121.70999,39.824694],[-121.710479,39.82383],[-121.71068,39.820805],[-121.711563,39.81766],[-121.713602,39.805949],[-121.71425,39.804875],[-121.716499,39.802609],[-121.718729,39.797644],[-121.721643,39.793418],[-121.722195,39.793252],[-121.723544,39.793332],[-121.724357,39.792774],[-121.725423,39.792907],[-121.728671,39.792331],[-121.7296,39.792448],[-121.729891,39.792704],[-121.73101,39.791651],[-121.731489,39.791601],[-121.732127,39.790081],[-121.733883,39.789212],[-121.734637,39.789647],[-121.734439,39.790859],[-121.735298,39.791063],[-121.735997,39.791778],[-121.736475,39.791788],[-121.736966,39.791289],[-121.736682,39.789199],[-121.737433,39.788335],[-121.738123,39.787678],[-121.739049,39.787704],[-121.739877,39.787422],[-121.741688,39.786009],[-121.744574,39.785233],[-121.745769,39.784661],[-121.746051,39.783234],[-121.747253,39.78222],[-121.747594,39.781193],[-121.748898,39.780196],[-121.749457,39.779157],[-121.750114,39.77891],[-121.750834,39.779129],[-121.751507,39.778724],[-121.752351,39.778798],[-121.752698,39.779131],[-121.753429,39.778629],[-121.754338,39.778499],[-121.756408,39.777693],[-121.756944,39.778811],[-121.758533,39.779292],[-121.758372,39.779898],[-121.760543,39.778559],[-121.761466,39.77827],[-121.761809,39.777639],[-121.761323,39.777186],[-121.762083,39.776551],[-121.761724,39.77624],[-121.761882,39.774544],[-121.762867,39.773737],[-121.762845,39.772957],[-121.763301,39.772209],[-121.765431,39.770975],[-121.766813,39.772631],[-121.768306,39.775585],[-121.770328,39.776176],[-121.772767,39.777273],[-121.774369,39.779245],[-121.777041,39.780861],[-121.776719,39.783284],[-121.776963,39.783799],[-121.776365,39.78506],[-121.77383,39.787788],[-121.773921,39.789429],[-121.774591,39.791532],[-121.776318,39.793022],[-121.779611,39.79487],[-121.780821,39.79618],[-121.78274,39.797484],[-121.785197,39.798405],[-121.786949,39.798567],[-121.788222,39.795488],[-121.789801,39.793921],[-121.79079,39.790612],[-121.790864,39.787819],[-121.793306,39.786548],[-121.795337,39.784997],[-121.800459,39.785046],[-121.800841,39.784861],[-121.802316,39.785393],[-121.803102,39.785379],[-121.803945,39.785741],[-121.804228,39.787415],[-121.80769,39.788825],[-121.808084,39.790093],[-121.80975,39.790566],[-121.810664,39.79164],[-121.811303,39.793029],[-121.81352,39.794581],[-121.814536,39.796027],[-121.813554,39.803169],[-121.812681,39.803668],[-121.81367,39.80461],[-121.814744,39.806741],[-121.815989,39.80685],[-121.81775,39.808999],[-121.819229,39.810096],[-121.819809,39.810826],[-121.819248,39.810848],[-121.819272,39.811759],[-121.820633,39.81361],[-121.824287,39.815522],[-121.824438,39.8167],[-121.825981,39.817871],[-121.826332,39.817871],[-121.826411,39.818449],[-121.827635,39.819292],[-121.826921,39.819483],[-121.826896,39.819656],[-121.825645,39.819728],[-121.825404,39.820126],[-121.825544,39.820763],[-121.82609,39.821086],[-121.826988,39.821117],[-121.82811,39.822632],[-121.828392,39.824582],[-121.8267,39.826507],[-121.825273,39.827153],[-121.830525,39.827113],[-121.831456,39.827404],[-121.832306,39.827135],[-121.835229,39.828511],[-121.836326,39.830118],[-121.836305,39.831039],[-121.836559,39.831441],[-121.837329,39.832187],[-121.840449,39.833932],[-121.841604,39.834835],[-121.842126,39.835797],[-121.841676,39.835957],[-121.8418,39.837619],[-121.842584,39.837779],[-121.842312,39.838246],[-121.842673,39.839502],[-121.844282,39.840007],[-121.844167,39.840888],[-121.845021,39.840895],[-121.845738,39.841885],[-121.847049,39.842784],[-121.846597,39.843079],[-121.847116,39.844411],[-121.849273,39.845854],[-121.849895,39.84594],[-121.850557,39.846576],[-121.850308,39.846838],[-121.853023,39.84924],[-121.854421,39.851001],[-121.855227,39.851114],[-121.856911,39.853483],[-121.856074,39.854639],[-121.856021,39.855297],[-121.857686,39.855377],[-121.857817,39.855659],[-121.857536,39.856066],[-121.859393,39.856606],[-121.859727,39.857175],[-121.860254,39.857277],[-121.860804,39.857777],[-121.86252,39.861894],[-121.86146,39.862408],[-121.862144,39.864435],[-121.863223,39.865639],[-121.864739,39.865261],[-121.866078,39.865421],[-121.866513,39.865753],[-121.866886,39.866881],[-121.866908,39.86724],[-121.866428,39.867788],[-121.867364,39.867806],[-121.867911,39.8682],[-121.868336,39.87027],[-121.869368,39.872956],[-121.869431,39.873251],[-121.869122,39.873553],[-121.869982,39.874896],[-121.86883,39.87558],[-121.868642,39.876167],[-121.869358,39.877384],[-121.869847,39.877694],[-121.871629,39.880997],[-121.872228,39.881305],[-121.87213,39.881855],[-121.873439,39.883665],[-121.875281,39.888273],[-121.873578,39.891165],[-121.873272,39.892383],[-121.873464,39.892902],[-121.872792,39.893194],[-121.87274,39.893462],[-121.873461,39.894298],[-121.874251,39.893984],[-121.874895,39.89483],[-121.875991,39.895034],[-121.877328,39.894732],[-121.877818,39.894879],[-121.884063,39.910477],[-121.884656,39.911128],[-121.886007,39.911174],[-121.886716,39.911551],[-121.887076,39.912054],[-121.887011,39.912271],[-121.885885,39.912709],[-121.885435,39.912549],[-121.88419,39.912743],[-121.88367,39.913997],[-121.884245,39.915584],[-121.885243,39.91628],[-121.885413,39.917039],[-121.884961,39.917857],[-121.883601,39.918598],[-121.883308,39.919861],[-121.883589,39.919767],[-121.883832,39.919977],[-121.88443,39.919785],[-121.885756,39.919047],[-121.889992,39.918492],[-121.890479,39.91817],[-121.892607,39.918088],[-121.892255,39.918623],[-121.892519,39.91885],[-121.893872,39.919574],[-121.894838,39.919477],[-121.897098,39.92113],[-121.901108,39.925521],[-121.90505,39.928953],[-121.903391,39.929707],[-121.902192,39.929974],[-121.90503,39.930774],[-121.904979,39.931528],[-121.90433,39.93179],[-121.904094,39.932379],[-121.903534,39.932766],[-121.903845,39.933204],[-121.901972,39.936205],[-121.90454,39.939325],[-121.906273,39.940582],[-121.906524,39.942074],[-121.906312,39.943114],[-121.905686,39.943168],[-121.905779,39.943844],[-121.90734,39.945235],[-121.907725,39.945998],[-121.908398,39.946583],[-121.906685,39.946714],[-121.907354,39.947236],[-121.908746,39.947286],[-121.909071,39.94797],[-121.909782,39.948506],[-121.909525,39.948824],[-121.910207,39.949941],[-121.910391,39.951213],[-121.911466,39.952918],[-121.912067,39.954922],[-121.91371,39.958559],[-121.916323,39.959445],[-121.919066,39.959484],[-121.922271,39.961677],[-121.923953,39.963772],[-121.924357,39.964679],[-121.927846,39.968596],[-121.928978,39.970369],[-121.928818,39.972139],[-121.927612,39.973165],[-121.925785,39.973555],[-121.92455,39.974309],[-121.925543,39.975014],[-121.925658,39.974536],[-121.926263,39.974223],[-121.92739,39.975403],[-121.926056,39.976326],[-121.924626,39.978808],[-121.925286,39.978576],[-121.925556,39.97795],[-121.926078,39.97778],[-121.927953,39.978154],[-121.928761,39.978915],[-121.928933,39.979444],[-121.929897,39.980063],[-121.930856,39.98116],[-121.933062,39.982542],[-121.933364,39.983014],[-121.934195,39.983159],[-121.933483,39.983898],[-121.933906,39.984483],[-121.934545,39.984328],[-121.935427,39.982984],[-121.935449,39.98051],[-121.935851,39.979577],[-121.935423,39.979332],[-121.935363,39.978688],[-121.935996,39.978992],[-121.937255,39.980558],[-121.937429,39.980905],[-121.937006,39.982066],[-121.936586,39.982404],[-121.937036,39.983904],[-121.935816,39.984035],[-121.936178,39.984498],[-121.936857,39.98477],[-121.93562,39.985245],[-121.935551,39.985579],[-121.935136,39.98569],[-121.935021,39.986628],[-121.933978,39.98753],[-121.932753,39.987679],[-121.932479,39.988131],[-121.933458,39.988937],[-121.93404,39.989933],[-121.935866,39.990328],[-121.936722,39.990202],[-121.936946,39.989962],[-121.937372,39.990126],[-121.937202,39.990402],[-121.936574,39.990606],[-121.93458,39.990736],[-121.934142,39.9905],[-121.933331,39.990782],[-121.932782,39.991386],[-121.932331,39.993323],[-121.932873,39.993722],[-121.933085,39.992226],[-121.933429,39.99193],[-121.934217,39.992497],[-121.934828,39.993358],[-121.935415,39.994733],[-121.935581,39.996032],[-121.936213,39.996277],[-121.936261,39.996536],[-121.935762,39.997007],[-121.93585,39.997587],[-121.935297,39.998452],[-121.935905,39.998055],[-121.936759,39.997978],[-121.937014,39.998383],[-121.936846,39.999078],[-121.937422,40.000116],[-121.936374,40.000882],[-121.936476,40.001183],[-121.937183,40.00105],[-121.938085,40.001489],[-121.938512,40.000892],[-121.939611,40.000579],[-121.940111,40.001028],[-121.941342,40.00045],[-121.941944,40.000537],[-121.942153,40.000838],[-121.942779,40.000876],[-121.943782,40.000628],[-121.943934,39.999749],[-121.944401,39.999912],[-121.94461,40.000665],[-121.944962,40.000961],[-121.944749,40.001629],[-121.944347,40.001811],[-121.945023,40.002699],[-121.944072,40.002833],[-121.944132,40.003264],[-121.946069,40.004867],[-121.945795,40.005563],[-121.944612,40.005644],[-121.944368,40.006079],[-121.943763,40.006009],[-121.943432,40.006434],[-121.943467,40.00756],[-121.944388,40.008071],[-121.944886,40.008671],[-121.94516,40.008671],[-121.94534,40.008369],[-121.946181,40.008579],[-121.945334,40.00897],[-121.942932,40.008956],[-121.942751,40.009121],[-121.943892,40.009474],[-121.944981,40.010162],[-121.945741,40.010097],[-121.945842,40.010561],[-121.946699,40.010498],[-121.947062,40.010879],[-121.947788,40.010692],[-121.948476,40.01134],[-121.949105,40.011343],[-121.949535,40.011627],[-121.949924,40.011471],[-121.950239,40.0119],[-121.951257,40.01221],[-121.950626,40.012787],[-121.950828,40.013133],[-121.951527,40.013105],[-121.951506,40.013475],[-121.951907,40.013621],[-121.951914,40.013896],[-121.951463,40.01449],[-121.950684,40.014958],[-121.950742,40.015133],[-121.952109,40.014435],[-121.952737,40.014827],[-121.953011,40.015371],[-121.952264,40.015365],[-121.951879,40.01625],[-121.952548,40.016487],[-121.953159,40.01727],[-121.954222,40.016859],[-121.954494,40.016957],[-121.954578,40.01741],[-121.954305,40.017582],[-121.954096,40.018637],[-121.954332,40.018452],[-121.954728,40.018663],[-121.955089,40.018383],[-121.956066,40.018384],[-121.956716,40.018763],[-121.957,40.019544],[-121.958027,40.020246],[-121.959763,40.020469],[-121.959235,40.021212],[-121.959415,40.021611],[-121.960168,40.021475],[-121.96029,40.021882],[-121.959517,40.023001],[-121.957239,40.023509],[-121.956587,40.025085],[-121.956872,40.026199],[-121.958086,40.026843],[-121.958816,40.027825],[-121.956846,40.030769],[-121.957403,40.031211],[-121.959368,40.031363],[-121.959755,40.031873],[-121.961224,40.032233],[-121.962406,40.033366],[-121.963482,40.033316],[-121.96369,40.032693],[-121.964278,40.03224],[-121.965159,40.031971],[-121.967079,40.032349],[-121.966814,40.032666],[-121.967925,40.033678],[-121.968981,40.035578],[-121.972952,40.036896],[-121.976434,40.037377],[-121.977698,40.038218],[-121.978296,40.038247],[-121.97803,40.038552],[-121.976188,40.03919],[-121.976261,40.039356],[-121.974932,40.040381],[-121.973545,40.042007],[-121.973136,40.04208],[-121.975676,40.043077],[-121.976102,40.044026],[-121.975571,40.04412],[-121.975208,40.045193],[-121.976342,40.044226],[-121.977813,40.043546],[-121.978444,40.042446],[-121.978856,40.040737],[-121.979453,40.040214],[-121.979991,40.040286],[-121.980325,40.040813],[-121.980264,40.041668],[-121.981209,40.043439],[-121.981072,40.044096],[-121.981949,40.045795],[-121.982936,40.046351],[-121.984226,40.04768],[-121.985514,40.048267],[-121.98586,40.049332],[-121.987374,40.049551],[-121.990154,40.050883],[-121.99171,40.051718],[-121.992588,40.052713],[-121.992706,40.053304],[-121.992301,40.053913],[-121.993689,40.054156],[-121.993947,40.054682],[-121.99384,40.05544],[-121.990732,40.055932],[-121.990511,40.057192],[-121.990124,40.057542],[-121.989067,40.057687],[-121.987861,40.058222],[-121.98763,40.058867],[-121.987946,40.059737],[-121.98765,40.060125],[-121.9869,40.060424],[-121.987259,40.061271],[-121.987056,40.061333],[-121.987009,40.061009],[-121.986597,40.060763],[-121.985506,40.06231],[-121.986444,40.062757],[-121.987612,40.06241],[-121.987705,40.061679],[-121.988116,40.061841],[-121.989708,40.061586],[-121.991215,40.062033],[-121.991377,40.062715],[-121.992086,40.062919],[-121.992295,40.06329],[-121.992209,40.063915],[-121.99129,40.064448],[-121.990619,40.064565],[-121.989579,40.064384]]],[[[-121.771301,40.299611],[-121.77124,40.300114],[-121.771616,40.300171],[-121.771608,40.299652],[-121.771301,40.299611]]],[[[-121.597961,40.199723],[-121.597681,40.199284],[-121.596844,40.198891],[-121.59632,40.199388],[-121.596889,40.199937],[-121.597961,40.199723]]],[[[-121.606154,40.066842],[-121.606082,40.067407],[-121.605586,40.067527],[-121.605271,40.068],[-121.605917,40.067871],[-121.606653,40.068329],[-121.606807,40.068102],[-121.60632,40.067571],[-121.606777,40.067309],[-121.607542,40.067276],[-121.607713,40.06701],[-121.606489,40.067043],[-121.606154,40.066842]]],[[[-121.72704,39.92567],[-121.726707,39.929998],[-121.725745,39.932247],[-121.725116,39.93243],[-121.72134,39.931414],[-121.719435,39.93315],[-121.721867,39.936211],[-121.722899,39.936429],[-121.723231,39.936837],[-121.72331,39.937152],[-121.722598,39.937313],[-121.723462,39.938319],[-121.723387,39.938911],[-121.723772,39.939305],[-121.723113,39.939438],[-121.723124,39.939905],[-121.722182,39.939382],[-121.721592,39.939404],[-121.721317,39.939119],[-121.720851,39.939071],[-121.720622,39.938469],[-121.720927,39.937763],[-121.719975,39.938368],[-121.719382,39.938318],[-121.718964,39.937941],[-121.71877,39.938095],[-121.71841,39.937977],[-121.718187,39.939163],[-121.719033,39.939371],[-121.719161,39.94025],[-121.716826,39.940346],[-121.719099,39.942452],[-121.719367,39.94482],[-121.718747,39.945121],[-121.718884,39.947235],[-121.718368,39.947578],[-121.718552,39.947945],[-121.719394,39.94847],[-121.718571,39.948784],[-121.718464,39.949793],[-121.719352,39.950385],[-121.719506,39.951357],[-121.720652,39.951811],[-121.720552,39.953122],[-121.720986,39.953015],[-121.721531,39.952034],[-121.724783,39.949168],[-121.725911,39.94885],[-121.726851,39.947997],[-121.72692,39.947223],[-121.727813,39.94617],[-121.729331,39.945746],[-121.72988,39.945844],[-121.729895,39.943992],[-121.732242,39.942909],[-121.732342,39.942392],[-121.732781,39.942042],[-121.732604,39.941658],[-121.732981,39.941051],[-121.733448,39.940722],[-121.734062,39.940692],[-121.734347,39.940924],[-121.734972,39.940163],[-121.733556,39.939388],[-121.733516,39.938851],[-121.734447,39.938064],[-121.734053,39.937941],[-121.73484,39.93578],[-121.735968,39.935034],[-121.737226,39.931534],[-121.737101,39.930956],[-121.735893,39.930694],[-121.73548,39.929775],[-121.734884,39.929418],[-121.734695,39.928528],[-121.735814,39.927406],[-121.736051,39.92678],[-121.73576,39.926289],[-121.73589,39.925901],[-121.737029,39.925605],[-121.737344,39.923559],[-121.737169,39.923282],[-121.736141,39.923533],[-121.734873,39.923057],[-121.733725,39.923164],[-121.731975,39.922872],[-121.72704,39.92567]]]]},"properties":{"name":"Park Fire (2024) final perimeter"}}]}